brand,location_id,name,line1,city,region,postalCode,countryCode,lat,lng,phone,website
Raising Cane's,C334,Raising Cane's Chicken Fingers,125 South Shary Road,Mission,TX,78572,US,26.199412857584473,-98.28724226000361,+19565194604,{'url': 'https://locations.raisingcanes.com/tx/mission/125-south-shary-road'}
Raising Cane's,C230,Raising Cane's Chicken Fingers,2043 W Interstate 2,Pharr,TX,78577,US,26.1945001938112,-98.20429873758933,+19567834702,{'url': 'https://locations.raisingcanes.com/tx/pharr/2043-w-interstate-2'}
Raising Cane's,C486,Raising Cane's Chicken Fingers,7417 North 10th Street,Mcallen,TX,78501,US,26.270627646659772,-98.21917464165792,+19569949425,{'url': 'https://locations.raisingcanes.com/tx/mcallen/7417-north-10th-street'}
Raising Cane's,C347,Raising Cane's Chicken Fingers,718 West University Drive,Edinburg,TX,78539,US,26.302026080072793,-98.16980497932289,+19563164656,{'url': 'https://locations.raisingcanes.com/tx/edinburg/718-west-university-drive'}
Raising Cane's,C249,Raising Cane's Chicken Fingers,1100 North Westgate Dr.,Weslaco,TX,78596,US,26.171156655944053,-98.00646941368149,+19564470022,{'url': 'https://locations.raisingcanes.com/tx/weslaco/1100-north-westgate-dr.'}
Raising Cane's,C267,Raising Cane's Chicken Fingers,215 E. Morrison Road,Brownsville,TX,78520,US,25.967611480321704,-97.51043095643139,+19563508240,{'url': 'https://locations.raisingcanes.com/tx/brownsville/215-e.-morrison-road'}
Raising Cane's,C240,Raising Cane's Chicken Fingers,3341 Boca Chica Blvd,Brownsville,TX,78521,US,25.9213266348828,-97.46903640822012,+19565749944,{'url': 'https://locations.raisingcanes.com/tx/brownsville/3341-boca-chica-blvd'}
Raising Cane's,C394,Raising Cane's Chicken Fingers,2120 S. 77 Sunshine Strip,Harlingen,TX,78550,US,26.171565496502783,-97.67264637620656,+19564408719,{'url': 'https://locations.raisingcanes.com/tx/harlingen/2120-s.-77-sunshine-strip'}
Raising Cane's,C526,Raising Cane's Chicken Fingers,5302 McPherson Road,Laredo,TX,78041,US,27.54508852525467,-99.48312780368212,+19565230697,{'url': 'https://locations.raisingcanes.com/tx/laredo/5302-mcpherson-road'}
Raising Cane's,C677,Raising Cane's Chicken Fingers,2301 NE 8th St,Homestead,FL,33033,US,25.47814257569416,-80.44368594171621,+13057026422,{'url': 'https://locations.raisingcanes.com/fl/homestead/2301-ne-8th-st'}
Raising Cane's,C730,Raising Cane's Chicken Fingers,19705 South Dixie Highway,Cutler Bay,FL,33157,US,25.584769405608828,-80.3630112971139,+17866503091,{'url': 'https://locations.raisingcanes.com/fl/cutler-bay/19705-south-dixie-highway'}
Raising Cane's,C855,Raising Cane's Chicken Fingers,8070 NW 36th St,Doral,FL,33122,US,25.80937031380154,-80.32803165617722,+13057025695,{'url': 'https://locations.raisingcanes.com/fl/doral/8070-nw-36th-st'}
Raising Cane's,C675,Raising Cane's Chicken Fingers,1651 Washington Ave,Miami Beach,FL,33139,US,25.790903962460636,-80.13170293302504,+13057026400,"{'url': 'https://locations.raisingcanes.com/fl/miami-beach/1651-washington-ave', 'preferDisplayUrl': False}"
Raising Cane's,C1014,Raising Cane's Chicken Fingers,5600 N. University Drive,Tamarac,FL,33319,US,26.19435966030143,-80.25154145790563,+19542831692,{'url': 'https://locations.raisingcanes.com/fl/tamarac/5600-n.-university-drive'}
Raising Cane's,C697,Raising Cane's Chicken Fingers,2501 N Federal Hwy,Pompano Beach,FL,33064,US,26.262744420617548,-80.09986261490486,+17542603180,{'url': 'https://locations.raisingcanes.com/fl/pompano-beach/2501-n-federal-hwy'}
Raising Cane's,C731,Raising Cane's Chicken Fingers,1550 West Boynton Beach Boulevard,Boynton Beach,FL,33436,US,26.527041253510472,-80.094014223183,+15612371300,{'url': 'https://locations.raisingcanes.com/fl/boynton-beach/1550-west-boynton-beach-boulevard'}
Raising Cane's,C678,Raising Cane's Chicken Fingers,100 N State Rd 7,Royal Palm Beach,FL,33411,US,26.681344214869664,-80.201325299901,+15612371277,{'url': 'https://locations.raisingcanes.com/fl/royal-palm-beach/100-n-state-rd-7'}
Raising Cane's,C801,Raising Cane's Chicken Fingers,1549 NW Saint Lucie West Blvd,Port St. Lucie,FL,34986,US,27.314890889038395,-80.39417816013622,+17722243436,{'url': 'https://locations.raisingcanes.com/fl/port-st.-lucie/1549-nw-saint-lucie-west-blvd'}
Raising Cane's,C376,Raising Cane's Chicken Fingers,5425 S. Padre Island Dr. Lot# 138,Corpus Christi,TX,78411,US,27.707458967503445,-97.3711815470069,+13619060838,{'url': 'https://locations.raisingcanes.com/tx/corpus-christi/5425-s.-padre-island-dr.-lot-138'}
Raising Cane's,C1011,Raising Cane's Chicken Fingers,3044 US Route 181,Portland,TX,78374,US,27.901143573803523,-97.30404580898437,+13612499168,"{'url': 'https://locations.raisingcanes.com/tx/portland/3044-us-route-181', 'displayUrl': 'https://locations.raisingcanes.com/tx/portland/3044-us-route-181'}"
Raising Cane's,C364,Raising Cane's Chicken Fingers,2525 Southwest Military Drive,San Antonio,TX,78224,US,29.3571449,-98.53515399999999,+12109246454,{'url': 'https://locations.raisingcanes.com/tx/san-antonio/2525-southwest-military-drive'}
Raising Cane's,C312,Raising Cane's Chicken Fingers,2322 SE Military Drive,San Antonio,TX,78223,US,29.35146614159453,-98.45630686011887,+12105322519,{'url': 'https://locations.raisingcanes.com/tx/san-antonio/2322-se-military-drive'}
Raising Cane's,C183,Raising Cane's Chicken Fingers,8915 Potranco Rd.,San Antonio,TX,78251,US,29.44425223592153,-98.66240409042915,+12106800303,{'url': 'https://locations.raisingcanes.com/tx/san-antonio/8915-potranco-rd.'}
Raising Cane's,C119,Raising Cane's Chicken Fingers,10938 Culebra Road,San Antonio,TX,78253,US,29.49540841415105,-98.70936138769063,+12106889814,{'url': 'https://locations.raisingcanes.com/tx/san-antonio/10938-culebra-road'}
Raising Cane's,C516,Raising Cane's Chicken Fingers,106 Saint Cloud,San Antonio,TX,78228,US,29.4546099,-98.5502619,+12107334650,{'url': 'https://locations.raisingcanes.com/tx/san-antonio/106-saint-cloud'}
Raising Cane's,C122,Raising Cane's Chicken Fingers,7020 Bandera Road,Leon Valley,TX,78238,US,29.49970023725809,-98.62501688910405,+12105200629,{'url': 'https://locations.raisingcanes.com/tx/leon-valley/7020-bandera-road'}
Raising Cane's,C192,Raising Cane's Chicken Fingers,8007 Fredericksburg Rd.,San Antonio,TX,78229,US,29.512894985846778,-98.56979982472657,+12106174582,{'url': 'https://locations.raisingcanes.com/tx/san-antonio/8007-fredericksburg-rd.'}
Raising Cane's,C476,Raising Cane's Chicken Fingers,11703 Bandera Road,San Antonio,TX,78250,US,29.55061647138257,-98.66484049833726,+12105200021,{'url': 'https://locations.raisingcanes.com/tx/san-antonio/11703-bandera-road'}
Raising Cane's,C232,Raising Cane's Chicken Fingers,1418 Austin Hwy,San Antonio,TX,78209,US,29.491255085083807,-98.43790392713275,+12108328931,{'url': 'https://locations.raisingcanes.com/tx/san-antonio/1418-austin-hwy'}
Raising Cane's,C148,Raising Cane's Chicken Fingers,8402 Broadway St.,San Antonio,TX,78209,US,29.515186828410396,-98.46491504926347,+12108298406,{'url': 'https://locations.raisingcanes.com/tx/san-antonio/8402-broadway-st.'}
Raising Cane's,C682,Raising Cane's Chicken Fingers,5630 Walzem Rd,San Antonio,TX,78218,US,29.509861915179425,-98.37374110812424,+12103062895,{'url': 'https://locations.raisingcanes.com/tx/san-antonio/5630-walzem-rd'}
Raising Cane's,C228,Raising Cane's Chicken Fingers,17518 La Cantera Pkwy,San Antonio,TX,78257,US,29.607818472987375,-98.59715604926345,+12108779601,{'url': 'https://locations.raisingcanes.com/tx/san-antonio/17518-la-cantera-pkwy'}
Raising Cane's,C110,Raising Cane's Chicken Fingers,19110 Stone Oak Parkway,San Antonio,TX,78258,US,29.623373175102454,-98.49415909589051,+12104990011,{'url': 'https://locations.raisingcanes.com/tx/san-antonio/19110-stone-oak-parkway'}
Raising Cane's,C285,Raising Cane's Chicken Fingers,7925 Pat Booker Rd.,Live Oak,TX,78233,US,29.563603539523815,-98.33320520699677,+12106460021,{'url': 'https://locations.raisingcanes.com/tx/live-oak/7925-pat-booker-rd.'}
Raising Cane's,C112,Raising Cane's Chicken Fingers,6027 FM 3009,Schertz,TX,78154,US,29.603406669791557,-98.27983811152414,+12106515888,{'url': 'https://locations.raisingcanes.com/tx/schertz/6027-fm-3009'}
Raising Cane's,C343,Raising Cane's Chicken Fingers,1406 S. Main Street,Boerne,TX,78006,US,29.775916095082927,-98.7255063643771,+18302490039,{'url': 'https://locations.raisingcanes.com/tx/boerne/1406-s.-main-street'}
Raising Cane's,C395,Raising Cane's Chicken Fingers,1188 Interstate 35 S,New Braunfels,TX,78130,US,29.68655563016307,-98.1271426588955,+18306252876,{'url': 'https://locations.raisingcanes.com/tx/new-braunfels/1188-interstate-35-s'}
Raising Cane's,C505,Raising Cane's Chicken Fingers,6409 N Navarro Street,Victoria,TX,77904,US,28.854949170280833,-96.99768481694325,+13615741171,{'url': 'https://locations.raisingcanes.com/tx/victoria/6409-n-navarro-street'}
Raising Cane's,C466,Raising Cane's Chicken Fingers,1201 Junction Hwy,Kerrville,TX,78028,US,30.06031767844447,-99.16848088050573,+12103012010,{'url': 'https://locations.raisingcanes.com/tx/kerrville/1201-junction-hwy'}
Raising Cane's,C219,Raising Cane's Chicken Fingers,200 Highway 332 W,Lake Jackson,TX,77566,US,29.04918107114251,-95.46428881491767,+19792920560,{'url': 'https://locations.raisingcanes.com/tx/lake-jackson/200-highway-332-w'}
Raising Cane's,C207,Raising Cane's Chicken Fingers,928 Hwy 80,San Marcos,TX,78666,US,29.881519318377364,-97.91874634374093,+15126518198,{'url': 'https://locations.raisingcanes.com/tx/san-marcos/928-hwy-80'}
Raising Cane's,C250,Raising Cane's Chicken Fingers,6717 FM 1463 Road,Katy,TX,77494,US,29.696399112704402,-95.84545440822014,+12815742126,{'url': 'https://locations.raisingcanes.com/tx/katy/6717-fm-1463-road'}
Raising Cane's,C126,Raising Cane's Chicken Fingers,3833 FM 1092 Rd.,Missouri City,TX,77459,US,29.565867476202126,-95.56382029711388,+12814990614,{'url': 'https://locations.raisingcanes.com/tx/missouri-city/3833-fm-1092-rd.'}
Raising Cane's,C556,Raising Cane's Chicken Fingers,1529 Highway 6,Sugar Land,TX,77478,US,29.601681656227765,-95.6298795444692,+12812016969,{'url': 'https://locations.raisingcanes.com/tx/sugar-land/1529-highway-6'}
Raising Cane's,C346,Raising Cane's Chicken Fingers,10215 W Grand Pkwy S,Richmond,TX,77407,US,29.656106859876605,-95.71176730025086,+12819499199,{'url': 'https://locations.raisingcanes.com/tx/richmond/10215-w-grand-pkwy-s'}
Raising Cane's,C257,Raising Cane's Chicken Fingers,9730 Gaston Rd.,Katy,TX,77494,US,29.73507811804737,-95.81088043699502,+12815743779,{'url': 'https://locations.raisingcanes.com/tx/katy/9730-gaston-rd.'}
Raising Cane's,C514,Raising Cane's Chicken Fingers,12627 South Kirkwood Road,Stafford,TX,77477,US,29.638164656421353,-95.5801917754631,+12814948672,{'url': 'https://locations.raisingcanes.com/tx/stafford/12627-south-kirkwood-road'}
Raising Cane's,C89,Raising Cane's Chicken Fingers,9527 Broadway St,Pearland,TX,77584,US,29.55701283445805,-95.36842835276127,+17134362023,{'url': 'https://locations.raisingcanes.com/tx/pearland/9527-broadway-st'}
Raising Cane's,C258,Raising Cane's Chicken Fingers,410 S Mason Rd.,Katy,TX,77450,US,29.778474748922797,-95.75236944117918,+12815747266,{'url': 'https://locations.raisingcanes.com/tx/katy/410-s-mason-rd.'}
Raising Cane's,C326,Raising Cane's Chicken Fingers,1740 Fry Road,Houston,TX,77084,US,29.79153818644888,-95.71857081043339,+12814920337,{'url': 'https://locations.raisingcanes.com/tx/houston/1740-fry-road'}
Raising Cane's,C24,Raising Cane's Chicken Fingers,12201 Westheimer Rd,Houston,TX,77077,US,29.73578773567476,-95.59620285706043,+12814977907,{'url': 'https://locations.raisingcanes.com/tx/houston/12201-westheimer-rd'}
Raising Cane's,C1054,Raising Cane's Chicken Fingers,3001 FM 1764,La Marque,TX,77568,US,29.399809880469096,-95.03741620982171,+12545233994,"{'url': 'https://locations.raisingcanes.com/tx/la-marque/3001-fm-1764', 'displayUrl': 'https://locations.raisingcanes.com/tx/la-marque/3001-fm-1764', 'preferDisplayUrl': False}"
Raising Cane's,C188,Raising Cane's Chicken Fingers,1601 Broadway St.,Pearland,TX,77581,US,29.547909841362102,-95.23212206429177,+12819935171,{'url': 'https://locations.raisingcanes.com/tx/pearland/1601-broadway-st.'}
Raising Cane's,C208,Raising Cane's Chicken Fingers,2586 E. League City Pkwy,League City,TX,77573,US,29.505010995375592,-95.04312115111588,+12815354784,{'url': 'https://locations.raisingcanes.com/tx/league-city/2586-e.-league-city-pkwy'}
Raising Cane's,C361,Raising Cane's Chicken Fingers,1640 West Bay Area Boulevard,Friendswood,TX,77546,US,29.538405047768013,-95.15186796502972,+12812863932,{'url': 'https://locations.raisingcanes.com/tx/friendswood/1640-west-bay-area-boulevard'}
Raising Cane's,C567,Raising Cane's Chicken Fingers,2473 Bay Area Blvd,Houston,TX,77058,US,29.57504658984628,-95.1087514724744,+12817169892,{'url': 'https://locations.raisingcanes.com/tx/houston/2473-bay-area-blvd'}
Raising Cane's,C107,Raising Cane's Chicken Fingers,5107 Fairmont Parkway,Pasadena,TX,77505,US,29.65023789595888,-95.16495277809953,+12814873882,{'url': 'https://locations.raisingcanes.com/tx/pasadena/5107-fairmont-parkway'}
Raising Cane's,C942,Raising Cane's Chicken Fingers,8055 Spencer Highway,Deer Park,TX,77536,US,29.664298292563842,-95.11488132042743,+12817068155,{'url': 'https://locations.raisingcanes.com/tx/deer-park/8055-spencer-highway'}
Raising Cane's,C487,Raising Cane's Chicken Fingers,7009 Gulf Freeway,Houston,TX,77087,US,29.70187347423046,-95.29379556258297,+17134540419,{'url': 'https://locations.raisingcanes.com/tx/houston/7009-gulf-freeway'}
Raising Cane's,C266,Raising Cane's Chicken Fingers,9530 S Main Street,Houston,TX,77025,US,29.6814235066151,-95.42540365010966,+17136667718,{'url': 'https://locations.raisingcanes.com/tx/houston/9530-s-main-street'}
Raising Cane's,C600,Raising Cane's Chicken Fingers,4908 Garth Road,Baytown,TX,77521,US,29.776926387431725,-94.97709720117598,+12814209061,{'url': 'https://locations.raisingcanes.com/tx/baytown/4908-garth-road'}
Raising Cane's,C223,Raising Cane's Chicken Fingers,5326 South Rice Ave,Houston,TX,77081,US,29.723986079389135,-95.46869438769062,+17136677532,{'url': 'https://locations.raisingcanes.com/tx/houston/5326-south-rice-ave'}
Raising Cane's,C153,Raising Cane's Chicken Fingers,1902 Westheimer Rd.,Houston,TX,77098,US,29.74306057900985,-95.40750759248381,+17135289020,{'url': 'https://locations.raisingcanes.com/tx/houston/1902-westheimer-rd.'}
Raising Cane's,C104,Raising Cane's Chicken Fingers,5015 Westheimer Rd. Galleria 1 Mall Suite 1470,Houston,TX,77056,US,29.739100735697143,-95.46344485698506,+17139930811,{'url': 'https://locations.raisingcanes.com/tx/houston/5015-westheimer-rd.-galleria-1-mall-suite-1470'}
Raising Cane's,C45,Raising Cane's Chicken Fingers,7531 Westheimer Rd,Houston,TX,77063,US,29.73721526307003,-95.50233729287154,+17137803475,{'url': 'https://locations.raisingcanes.com/tx/houston/7531-westheimer-rd'}
Raising Cane's,C363,Raising Cane's Chicken Fingers,15231 Wallisville Rd,Houston,TX,77049,US,29.8074151,-95.1698554,+12814599647,{'url': 'https://locations.raisingcanes.com/tx/houston/15231-wallisville-rd'}
Raising Cane's,C265,Raising Cane's Chicken Fingers,2015 Shepherd Dr.,Houston,TX,77007,US,29.778266390255837,-95.41011507676114,+17138616403,{'url': 'https://locations.raisingcanes.com/tx/houston/2015-shepherd-dr.'}
Raising Cane's,C103,Raising Cane's Chicken Fingers,3007 Ella Blvd.,Houston,TX,77018,US,29.81374546165197,-95.42985310448884,+17138808799,{'url': 'https://locations.raisingcanes.com/tx/houston/3007-ella-blvd.'}
Raising Cane's,C900,Raising Cane's Chicken Fingers,1331 Gessner Rd,Houston,TX,77055,US,29.7928813,-95.5449433,+13462164806,{'url': 'https://locations.raisingcanes.com/tx/houston/1331-gessner-rd'}
Raising Cane's,C166,Raising Cane's Chicken Fingers,1105 N. Dairy Ashford Rd.,Houston,TX,77079,US,29.780272300773696,-95.60691302594995,+12815898191,{'url': 'https://locations.raisingcanes.com/tx/houston/1105-n.-dairy-ashford-rd.'}
Raising Cane's,C475,Raising Cane's Chicken Fingers,4055 Little York Road,Houston,TX,77093,US,29.8703816,-95.32702,+12812270425,{'url': 'https://locations.raisingcanes.com/tx/houston/4055-little-york-road'}
Raising Cane's,C603,Raising Cane's Chicken Fingers,13480 Northwest Freeway,Houston,TX,77040,US,29.851837725325968,-95.50929223031028,+17133692606,{'url': 'https://locations.raisingcanes.com/tx/houston/13480-northwest-freeway'}
Raising Cane's,C99,Raising Cane's Chicken Fingers,6015 Hwy 6 North,Houston,TX,77084,US,29.865229432112287,-95.64576955356262,+12813451605,{'url': 'https://locations.raisingcanes.com/tx/houston/6015-hwy-6-north'}
Raising Cane's,C341,Raising Cane's Chicken Fingers,163 West Road,Houston,TX,77037,US,29.914696977016057,-95.41005394440238,+12819314603,{'url': 'https://locations.raisingcanes.com/tx/houston/163-west-road'}
Raising Cane's,C203,Raising Cane's Chicken Fingers,13330 Tomball Parkway,Houston,TX,77086,US,29.914832908963366,-95.48477246030855,+12815917570,{'url': 'https://locations.raisingcanes.com/tx/houston/13330-tomball-parkway'}
Raising Cane's,C100,Raising Cane's Chicken Fingers,12345 Fm 1960 Rd W,Houston,TX,77065,US,29.92319719087312,-95.60069375333201,+12814693435,{'url': 'https://locations.raisingcanes.com/tx/houston/12345-fm-1960-rd-w'}
Raising Cane's,C587,Raising Cane's Chicken Fingers,8956 Barker Cypress Road,Cypress,TX,77433,US,29.907568772295416,-95.68538193341718,+12817169885,{'url': 'https://locations.raisingcanes.com/tx/cypress/8956-barker-cypress-road'}
Raising Cane's,C633,Raising Cane's Chicken Fingers,7351 FM 1960 Rd E,Humble,TX,77346,US,29.998728323333534,-95.16669768792123,+12817068320,{'url': 'https://locations.raisingcanes.com/tx/humble/7351-fm-1960-rd-e'}
Raising Cane's,C871,Raising Cane's Chicken Fingers,140 Airtex Dr,Houston,TX,77090,US,29.982000693129592,-95.42536698650873,+12815043766,{'url': 'https://locations.raisingcanes.com/tx/houston/140-airtex-dr'}
Raising Cane's,C187,Raising Cane's Chicken Fingers,3324 Highway 365,Nederland,TX,77627,US,29.949277856365274,-93.99185541960247,+14097242226,{'url': 'https://locations.raisingcanes.com/tx/nederland/3324-highway-365'}
Raising Cane's,C157,Raising Cane's Chicken Fingers,7535 Cypress Creek Parkway,Houston,TX,77070,US,29.963878372062187,-95.54213866153192,+12814777406,{'url': 'https://locations.raisingcanes.com/tx/houston/7535-cypress-creek-parkway'}
Raising Cane's,C184,Raising Cane's Chicken Fingers,705 Cypress Creek Pkwy,Houston,TX,77090,US,30.017562853331185,-95.43983875897015,+12818660971,{'url': 'https://locations.raisingcanes.com/tx/houston/705-cypress-creek-pkwy'}
Raising Cane's,C205,Raising Cane's Chicken Fingers,4509 Kingwood Dr.,Kingwood,TX,77345,US,30.05114636578164,-95.18308343431767,+17133692630,{'url': 'https://locations.raisingcanes.com/tx/kingwood/4509-kingwood-dr.'}
Raising Cane's,C58,Raising Cane's Chicken Fingers,945 Grand Caillou Rd.,Houma,LA,70363,US,29.582765610036837,-90.69467271717932,+19858761773,{'url': 'https://locations.raisingcanes.com/la/houma/945-grand-caillou-rd.'}
Raising Cane's,C13,Raising Cane's Chicken Fingers,1723 Martin Luther King Blvd,Houma,LA,70360,US,29.6115573534074,-90.75540917485142,+19852191431,{'url': 'https://locations.raisingcanes.com/la/houma/1723-martin-luther-king-blvd'}
Raising Cane's,C47,Raising Cane's Chicken Fingers,1121 E Admiral Doyle Dr,New Iberia,LA,70560,US,29.984853481019098,-91.81833573147247,+13375600756,{'url': 'https://locations.raisingcanes.com/la/new-iberia/1121-e-admiral-doyle-dr'}
Raising Cane's,C59,Raising Cane's Chicken Fingers,301 North Canal Blvd.,Thibodaux,LA,70301,US,29.801865543864643,-90.81663974049283,+19854472515,{'url': 'https://locations.raisingcanes.com/la/thibodaux/301-north-canal-blvd.'}
Raising Cane's,C34,Raising Cane's Chicken Fingers,4817 LaPalco Blvd,Marrero,LA,70072,US,29.874532420994434,-90.09370275478601,+15043289550,{'url': 'https://locations.raisingcanes.com/la/marrero/4817-lapalco-blvd'}
Raising Cane's,C14,Raising Cane's Chicken Fingers,1735 Manhattan Blvd,Harvey,LA,70058,US,29.889028841271262,-90.05617853024911,+15042971622,{'url': 'https://locations.raisingcanes.com/la/harvey/1735-manhattan-blvd'}
Raising Cane's,C31,Raising Cane's Chicken Fingers,4009 Behrman Pl,New Orleans,LA,70114,US,29.909280324222564,-90.01856343252354,+15043634199,{'url': 'https://locations.raisingcanes.com/la/new-orleans/4009-behrman-pl'}
Raising Cane's,C168,Raising Cane's Chicken Fingers,1406 St. Charles Ave,New Orleans,LA,70130,US,29.939412933821703,-90.07489621263177,+15045618672,{'url': 'https://locations.raisingcanes.com/la/new-orleans/1406-st.-charles-ave'}
Raising Cane's,C149,Raising Cane's Chicken Fingers,2918 S Claiborne Ave,New Orleans,LA,70125,US,29.941947306478845,-90.09483658639225,+15048952506,{'url': 'https://locations.raisingcanes.com/la/new-orleans/2918-s-claiborne-ave'}
Raising Cane's,C135,Raising Cane's Chicken Fingers,500 Port of New Orleans Pl,New Orleans,LA,70130,US,29.945855051828275,-90.06229706298589,+15045229437,{'url': 'https://locations.raisingcanes.com/la/new-orleans/500-port-of-new-orleans-pl'}
Raising Cane's,C106,Raising Cane's Chicken Fingers,8113 West Judge Perez Dr.,Chalmette,LA,70043,US,29.956419946586465,-89.98507214299704,+15046822305,{'url': 'https://locations.raisingcanes.com/la/chalmette/8113-west-judge-perez-dr.'}
Raising Cane's,C141,Raising Cane's Chicken Fingers,3235 S. Carrolton Ave.,New Orleans,LA,70118,US,29.96198481896861,-90.11351036705446,+15044884522,{'url': 'https://locations.raisingcanes.com/la/new-orleans/3235-s.-carrolton-ave.'}
Raising Cane's,C23,Raising Cane's Chicken Fingers,919 S. Clearview Pkwy,Jefferson,LA,70121,US,29.95849010958054,-90.18244011043339,+15042161426,{'url': 'https://locations.raisingcanes.com/la/jefferson/919-s.-clearview-pkwy'}
Raising Cane's,C177,Raising Cane's Chicken Fingers,5817 Airline Dr.,Metairie,LA,70003,US,29.97725410900812,-90.1959555216508,+15047331051,{'url': 'https://locations.raisingcanes.com/la/metairie/5817-airline-dr.'}
Raising Cane's,C163,Raising Cane's Chicken Fingers,4740 Chef Menteur Hwy,New Orleans,LA,70126,US,30.005985272362622,-90.03351095333201,+15049489582,{'url': 'https://locations.raisingcanes.com/la/new-orleans/4740-chef-menteur-hwy'}
Raising Cane's,C229,Raising Cane's Chicken Fingers,212 Veterans Memorial Blvd,Metairie,LA,70005,US,29.999762556488207,-90.12545040707593,+15048380493,{'url': 'https://locations.raisingcanes.com/la/metairie/212-veterans-memorial-blvd'}
Raising Cane's,C22,Raising Cane's Chicken Fingers,4036 Veterans Memorial Blvd,Metairie,LA,70002,US,30.00392255445694,-90.17618561490488,+15042971632,{'url': 'https://locations.raisingcanes.com/la/metairie/4036-veterans-memorial-blvd'}
Raising Cane's,C29,Raising Cane's Chicken Fingers,3301 Veterans Memorial Blvd,Metairie,LA,70002,US,30.006452942404056,-90.15729191165676,+15048375620,{'url': 'https://locations.raisingcanes.com/la/metairie/3301-veterans-memorial-blvd'}
Raising Cane's,C46,Raising Cane's Chicken Fingers,3344 Williams Blvd,Kenner,LA,70065,US,30.017535058601506,-90.23910873565663,+15044665110,{'url': 'https://locations.raisingcanes.com/la/kenner/3344-williams-blvd'}
Raising Cane's,C48,Raising Cane's Chicken Fingers,123 W Airline Hwy,Laplace,LA,70068,US,30.066843695547487,-90.48197039036798,+19856524701,{'url': 'https://locations.raisingcanes.com/la/laplace/123-w-airline-hwy'}
Raising Cane's,C1201,Raising Cane's Chicken Fingers,2700 Tyrone Blvd N,St Petersburg,FL,33710,US,27.78971,-82.727985,+17272645492,{'url': 'https://locations.raisingcanes.com/fl/st-petersburg/2700-tyrone-blvd-n'}
Raising Cane's,C857,Raising Cane's Chicken Fingers,4835 East Bay Drive,Clearwater,FL,33764,US,27.915655883870993,-82.7372971141035,+17274313052,{'url': 'https://locations.raisingcanes.com/fl/clearwater/4835-east-bay-drive'}
Raising Cane's,C849,Raising Cane's Chicken Fingers,2525 Gulf to Bay Blvd,Clearwater,FL,33765,US,27.960268440163027,-82.73306931496604,+17274311408,{'url': 'https://locations.raisingcanes.com/fl/clearwater/2525-gulf-to-bay-blvd'}
Raising Cane's,C1162,Raising Cane's Chicken Fingers,25952 State Rd 56,Lutz,FL,33559,US,28.193744,-82.39058299999999,+18135593590,{'url': 'https://locations.raisingcanes.com/fl/lutz/25952-state-rd-56'}
Raising Cane's,C827,Raising Cane's Chicken Fingers,8170 W Irlo Bronson Mem Highway,Kissimmee,FL,34747,US,28.346232361068225,-81.614536584375,+14076707953,{'url': 'https://locations.raisingcanes.com/fl/kissimmee/8170-w-irlo-bronson-mem-highway'}
Raising Cane's,C927,Raising Cane's Chicken Fingers,7105 Palm Parkway,Orlando,FL,32836,US,28.4002772,-81.4881782,+14078034196,{'url': 'https://locations.raisingcanes.com/fl/orlando/7105-palm-parkway'}
Raising Cane's,C803,Raising Cane's Chicken Fingers,12040 Pioneers Way,Orlando,FL,32832,US,28.3915529,-81.2437467,+14078034167,{'url': 'https://locations.raisingcanes.com/fl/orlando/12040-pioneers-way'}
Raising Cane's,C1048,Raising Cane's Chicken Fingers,100 S. Semoran Blvd.,Winter Park,FL,32792,US,28.596831999999992,-81.30776034110453,+13213293555,"{'url': 'https://locations.raisingcanes.com/fl/winter-park/100-s.-semoran-blvd.', 'displayUrl': 'https://locations.raisingcanes.com/fl/winter-park/100-s.-semoran-blvd.'}"
Raising Cane's,C826,Raising Cane's Chicken Fingers,780 East Altamonte Drive,Altamonte Springs,FL,32701,US,28.66267450924318,-81.36340141651262,+14074526900,{'url': 'https://locations.raisingcanes.com/fl/altamonte-springs/780-east-altamonte-drive'}
Raising Cane's,C956,Raising Cane's Chicken Fingers,2451 W International Speedway Blvd,Daytona Beach,FL,32724,US,29.180995760007008,-81.07857151805558,+13862332294,"{'url': 'https://locations.raisingcanes.com/fl/daytona-beach/2451-w-international-speedway-blvd', 'displayUrl': 'https://locations.raisingcanes.com/fl/daytona-beach/2451-w-international-speedway-blvd', 'preferDisplayUrl': False}"
Raising Cane's,C856,Raising Cane's Chicken Fingers,1680 West University Ave.,Gainesville,FL,32603,US,29.652406827379835,-82.34455624792508,+13524482562,{'url': 'https://locations.raisingcanes.com/fl/gainesville/1680-west-university-ave.'}
Raising Cane's,C886,Raising Cane's Chicken Fingers,900 Palm Ave,Imperial Beach,CA,91932,US,32.58426353408596,-117.11407678825132,+19093605643,{'url': 'https://locations.raisingcanes.com/ca/imperial-beach/900-palm-ave'}
Raising Cane's,C520,Raising Cane's Chicken Fingers,512 H St,Chula Vista,CA,91910,US,32.63165708160099,-117.0856360767145,+16192100568,{'url': 'https://locations.raisingcanes.com/ca/chula-vista/512-h-st'}
Raising Cane's,C709,Raising Cane's Chicken Fingers,1830 West Valencia Road,Tucson,AZ,85746,US,32.134392258661535,-111.00489538729218,+15204773014,{'url': 'https://locations.raisingcanes.com/az/tucson/1830-west-valencia-road'}
Raising Cane's,C598,Raising Cane's Chicken Fingers,2150 E Ajo Way,Tucson,AZ,85705,US,32.17739277342614,-110.93958890170245,+15204773073,{'url': 'https://locations.raisingcanes.com/az/tucson/2150-e-ajo-way'}
Raising Cane's,C458,Raising Cane's Chicken Fingers,2604 E Speedway Blvd,Tucson,AZ,85716,US,32.235783160480736,-110.93356064737048,+15204773022,{'url': 'https://locations.raisingcanes.com/az/tucson/2604-e-speedway-blvd'}
Raising Cane's,C437,Raising Cane's Chicken Fingers,6352 E Broadway Blvd,Tucson,AZ,85710,US,32.22056900493894,-110.85665024492376,+15203735203,{'url': 'https://locations.raisingcanes.com/az/tucson/6352-e-broadway-blvd'}
Raising Cane's,C457,Raising Cane's Chicken Fingers,4219 N Oracle Rd,Tucson,AZ,85705,US,32.28357571653655,-110.97859563069724,+15208875080,{'url': 'https://locations.raisingcanes.com/az/tucson/4219-n-oracle-rd'}
Raising Cane's,C299,Raising Cane's Chicken Fingers,2031 North Mesa Street,El Paso,TX,79902,US,31.772111991541824,-106.49935509589051,+19153514303,{'url': 'https://locations.raisingcanes.com/tx/el-paso/2031-north-mesa-street'}
Raising Cane's,C260,Raising Cane's Chicken Fingers,8867 Gateway Blvd W,El Paso,TX,79925,US,31.771909019438862,-106.37639321232542,+19155999118,{'url': 'https://locations.raisingcanes.com/tx/el-paso/8867-gateway-blvd-w'}
Raising Cane's,C1066,Raising Cane's Chicken Fingers,675 Sunland Park Drive,El Paso,TX,79912,US,31.81965439583243,-106.54256289784514,+19152424834,{'url': 'https://locations.raisingcanes.com/tx/el-paso/675-sunland-park-drive'}
Raising Cane's,C179,Raising Cane's Chicken Fingers,1887 N. Zaragoza Rd.,El Paso,TX,79936,US,31.75943663528747,-106.27124168484544,+19158495830,{'url': 'https://locations.raisingcanes.com/tx/el-paso/1887-n.-zaragoza-rd.'}
Raising Cane's,ELPX3,Raising Cane's Chicken Fingers,1724 Marshall Road,Fort Bliss,TX,79906,US,31.81985944351116,-106.4305392401752,+19153001088,{'url': 'https://locations.raisingcanes.com/tx/fort-bliss/1724-marshall-road'}
Raising Cane's,C283,Raising Cane's Chicken Fingers,6450 North Desert Blvd,El Paso,TX,79912,US,31.8840667,-106.5796254,+19155845342,{'url': 'https://locations.raisingcanes.com/tx/el-paso/6450-north-desert-blvd'}
Raising Cane's,C340,Raising Cane's Chicken Fingers,651 S. Telshor Blvd,Las Cruces,NM,88011,US,32.3137194597479,-106.74216317442941,+15755225207,{'url': 'https://locations.raisingcanes.com/nm/las-cruces/651-s.-telshor-blvd'}
Raising Cane's,C554,Raising Cane's Chicken Fingers,4001 East 42nd Street,Odessa,TX,79762,US,31.89154488512674,-102.34488208478759,+14322728092,{'url': 'https://locations.raisingcanes.com/tx/odessa/4001-east-42nd-street'}
Raising Cane's,C495,Raising Cane's Chicken Fingers,1407 North Loop 250 West,Midland,TX,79706,US,31.99486770063287,-102.15397157439469,+14326890504,{'url': 'https://locations.raisingcanes.com/tx/midland/1407-north-loop-250-west'}
Raising Cane's,C287,Raising Cane's Chicken Fingers,1702 Knickerbocker Rd.,San Angelo,TX,76904,US,31.430779014275657,-100.45671780141306,+13252231114,{'url': 'https://locations.raisingcanes.com/tx/san-angelo/1702-knickerbocker-rd.'}
Raising Cane's,C863,Raising Cane's Chicken Fingers,3314 West Loop 250 North,Midland,TX,79707,US,32.0339454,-102.1310847,+14322728034,{'url': 'https://locations.raisingcanes.com/tx/midland/3314-west-loop-250-north'}
Raising Cane's,C204,Raising Cane's Chicken Fingers,1600 Ranch Road 620 S,Lakeway,TX,78734,US,30.346695155423966,-97.9651694517102,+15122632955,{'url': 'https://locations.raisingcanes.com/tx/lakeway/1600-ranch-road-620-s'}
Raising Cane's,C1140,Raising Cane's Chicken Fingers,5601 Brodie Lane,Sunset Valley,TX,78745,US,30.22647851125487,-97.81945987852153,+15126518604,{'url': 'https://locations.raisingcanes.com/tx/sunset-valley/5601-brodie-lane'}
Raising Cane's,C161,Raising Cane's Chicken Fingers,3201 Bee Caves Rd.,Austin,TX,78746,US,30.2732992315661,-97.80053793741703,+15127322992,{'url': 'https://locations.raisingcanes.com/tx/austin/3201-bee-caves-rd.'}
Raising Cane's,C242,Raising Cane's Chicken Fingers,2109 East Riverside Dr.,Austin,TX,78741,US,30.239589320632,-97.72695090674401,+15123838556,{'url': 'https://locations.raisingcanes.com/tx/austin/2109-east-riverside-dr.'}
Raising Cane's,C140,Raising Cane's Chicken Fingers,415 West Martin Luther King Blvd,Austin,TX,78701,US,30.281481811008295,-97.74250406701391,+15124742751,{'url': 'https://locations.raisingcanes.com/tx/austin/415-west-martin-luther-king-blvd'}
Raising Cane's,C618,Raising Cane's Chicken Fingers,2920 S Lakeline Blvd,Cedar Park,TX,78613,US,30.47932965480054,-97.80462121288014,+15122581644,{'url': 'https://locations.raisingcanes.com/tx/cedar-park/2920-s-lakeline-blvd'}
Raising Cane's,C115,Raising Cane's Chicken Fingers,1456 E. Whitestone Blvd,Cedar Park,TX,78613,US,30.526402556846556,-97.80971725048684,+15122606454,{'url': 'https://locations.raisingcanes.com/tx/cedar-park/1456-e.-whitestone-blvd'}
Raising Cane's,C411,Raising Cane's Chicken Fingers,261 University Oaks Blvd,Round Rock,TX,78665,US,30.55864683513498,-97.68848147617585,+15122556659,{'url': 'https://locations.raisingcanes.com/tx/round-rock/261-university-oaks-blvd'}
Raising Cane's,C194,Raising Cane's Chicken Fingers,2408 FM 685,Pflugerville,TX,78660,US,30.462199724649647,-97.59886532207959,+15122513673,{'url': 'https://locations.raisingcanes.com/tx/pflugerville/2408-fm-685'}
Raising Cane's,C136,Raising Cane's Chicken Fingers,1020 W. University Ave.,Georgetown,TX,78628,US,30.633513098360204,-97.69641325908516,+15128635061,{'url': 'https://locations.raisingcanes.com/tx/georgetown/1020-w.-university-ave.'}
Raising Cane's,C345,Raising Cane's Chicken Fingers,2730 US 190 Business,Copperas Cove,TX,76522,US,31.12021152525735,-97.86832489466713,+12545185963,{'url': 'https://locations.raisingcanes.com/tx/copperas-cove/2730-us-190-business'}
Raising Cane's,C477,Raising Cane's Chicken Fingers,1035 S. Fort Hood St.,Killeen,TX,76541,US,31.110866909376295,-97.7474859827228,+12545191811,{'url': 'https://locations.raisingcanes.com/tx/killeen/1035-s.-fort-hood-st.'}
Raising Cane's,C383,Raising Cane's Chicken Fingers,335 Knight's Way,Harker Heights,TX,76548,US,31.068791325182893,-97.66739566049873,+12546800097,{'url': 'https://locations.raisingcanes.com/tx/harker-heights/335-knights-way'}
Raising Cane's,C241,Raising Cane's Chicken Fingers,2304 S 31st Street,Temple,TX,76504,US,31.078429129975728,-97.36655025362381,+12547714082,{'url': 'https://locations.raisingcanes.com/tx/temple/2304-s-31st-street'}
Raising Cane's,C323,Raising Cane's Chicken Fingers,3218 South Clack Street,Abilene,TX,79606,US,32.41113421394286,-99.77418148404408,+13256918855,{'url': 'https://locations.raisingcanes.com/tx/abilene/3218-south-clack-street'}
Raising Cane's,C294,Raising Cane's Chicken Fingers,1602 E Overland Trail,Abilene,TX,79601,US,32.47730869900758,-99.69810654588274,+13256709941,{'url': 'https://locations.raisingcanes.com/tx/abilene/1602-e-overland-trail'}
Raising Cane's,C201,Raising Cane's Chicken Fingers,1501 Hewitt Dr.,Waco,TX,76712,US,31.483775874195445,-97.2097601985102,+12546662713,{'url': 'https://locations.raisingcanes.com/tx/waco/1501-hewitt-dr.'}
Raising Cane's,C75,Raising Cane's Chicken Fingers,4212 Franklin Ave.,Waco,TX,76710,US,31.524763050244193,-97.16459480141305,+12543996867,{'url': 'https://locations.raisingcanes.com/tx/waco/4212-franklin-ave.'}
Raising Cane's,C244,Raising Cane's Chicken Fingers,801 J H Kultgen Expy,Waco,TX,76706,US,31.54700833401633,-97.12614107135362,+12547598860,{'url': 'https://locations.raisingcanes.com/tx/waco/801-j-h-kultgen-expy'}
Raising Cane's,C38,Raising Cane's Chicken Fingers,1045 Texas Ave S,College Station,TX,77840,US,30.62272764249965,-96.32779973147248,+19796962800,{'url': 'https://locations.raisingcanes.com/tx/college-station/1045-texas-ave-s'}
Raising Cane's,C627,Raising Cane's Chicken Fingers,2204 Briarcrest Drive,Bryan,TX,77802,US,30.6586518580558,-96.3323108646208,+19797314843,{'url': 'https://locations.raisingcanes.com/tx/bryan/2204-briarcrest-drive'}
Raising Cane's,C93,Raising Cane's Chicken Fingers,26302 Northwest Freeway,Cypress,TX,77429,US,29.974694502642475,-95.70056297932288,+12812566059,{'url': 'https://locations.raisingcanes.com/tx/cypress/26302-northwest-freeway'}
Raising Cane's,C419,Raising Cane's Chicken Fingers,27619 Tomball Pkwy,Tomball,TX,77375,US,30.07544474738255,-95.6283240981919,+12815169473,{'url': 'https://locations.raisingcanes.com/tx/tomball/27619-tomball-pkwy'}
Raising Cane's,C531,Raising Cane's Chicken Fingers,10950 Louetta Road,Houston,TX,77070,US,29.997206322257323,-95.57781402594995,+12812510668,{'url': 'https://locations.raisingcanes.com/tx/houston/10950-louetta-road'}
Raising Cane's,C959,Raising Cane's Chicken Fingers,12105 North Grand Pkwy East,New Caney,TX,77351,US,30.13055208947631,-95.2316333079198,+14092259700,{'url': 'https://locations.raisingcanes.com/tx/new-caney/12105-north-grand-pkwy-east'}
Raising Cane's,C393,Raising Cane's Chicken Fingers,3620 College Street,Beaumont,TX,77701,US,30.068708369195495,-94.13043832346264,+14092421991,{'url': 'https://locations.raisingcanes.com/tx/beaumont/3620-college-street'}
Raising Cane's,C160,Raising Cane's Chicken Fingers,4160 Dowlen Rd.,Beaumont,TX,77706,US,30.121155167927203,-94.16471147502374,+14098962920,{'url': 'https://locations.raisingcanes.com/tx/beaumont/4160-dowlen-rd.'}
Raising Cane's,C264,Raising Cane's Chicken Fingers,520 Rayford Rd.,Spring,TX,77386,US,30.12687371246184,-95.43434577263817,+12814195444,{'url': 'https://locations.raisingcanes.com/tx/spring/520-rayford-rd.'}
Raising Cane's,C333,Raising Cane's Chicken Fingers,21017 Kuykendahl Rd.,Spring,TX,77379,US,30.073033459129707,-95.51302524436997,+18327170050,{'url': 'https://locations.raisingcanes.com/tx/spring/21017-kuykendahl-rd.'}
Raising Cane's,C263,Raising Cane's Chicken Fingers,1501 Research Forest Dr,Shenandoah,TX,77380,US,30.176600128214336,-95.45829216296536,+12812922336,{'url': 'https://locations.raisingcanes.com/tx/shenandoah/1501-research-forest-dr'}
Raising Cane's,C12,Raising Cane's Chicken Fingers,2516 Kaliste Saloom Rd,Lafayette,LA,70508,US,30.15763212155587,-92.0479988480401,+13379846427,{'url': 'https://locations.raisingcanes.com/la/lafayette/2516-kaliste-saloom-rd'}
Raising Cane's,C66,Raising Cane's Chicken Fingers,117 St. Nazaire Road,Broussard,LA,70518,US,30.141277191819984,-91.94304439036797,+13378375548,{'url': 'https://locations.raisingcanes.com/la/broussard/117-st.-nazaire-road'}
Raising Cane's,C53,Raising Cane's Chicken Fingers,100 E. Kaliste Saloom Rd,Lafayette,LA,70508,US,30.188585245808465,-92.01348343143192,+13372671350,{'url': 'https://locations.raisingcanes.com/la/lafayette/100-e.-kaliste-saloom-rd'}
Raising Cane's,C9,Raising Cane's Chicken Fingers,2426 W Congress St,Lafayette,LA,70506,US,30.213758992618324,-92.04920134374093,+13375729966,{'url': 'https://locations.raisingcanes.com/la/lafayette/2426-w-congress-st'}
Raising Cane's,C67,Raising Cane's Chicken Fingers,1335 S Union St,Opelousas,LA,70570,US,30.52057876098252,-92.08169166627114,+13379480866,{'url': 'https://locations.raisingcanes.com/la/opelousas/1335-s-union-st'}
Raising Cane's,C16,Raising Cane's Chicken Fingers,4110 Ryan St,Lake Charles,LA,70605,US,30.182631496652494,-93.21890511920404,+13374788828,{'url': 'https://locations.raisingcanes.com/la/lake-charles/4110-ryan-st'}
Raising Cane's,C72,Raising Cane's Chicken Fingers,315 S. Cities Service Hwy,Sulphur,LA,70663,US,30.21868578140353,-93.32481266153192,+13376256574,{'url': 'https://locations.raisingcanes.com/la/sulphur/315-s.-cities-service-hwy'}
Raising Cane's,C728,Raising Cane's Chicken Fingers,3259 Louisiana 1,Port Allen,LA,70767,US,30.421891033468174,-91.21808364117916,+12254074162,{'url': 'https://locations.raisingcanes.com/la/port-allen/3259-louisiana-1'}
Raising Cane's,C2,Raising Cane's Chicken Fingers,202 W. Lee Dr,Baton Rouge,LA,70808,US,30.393257117999337,-91.16095344587727,+12257690750,{'url': 'https://locations.raisingcanes.com/la/baton-rouge/202-w.-lee-dr'}
Raising Cane's,C1,Raising Cane's Chicken Fingers,3313 Highland Rd,Baton Rouge,LA,70802,US,30.4179591122611,-91.1762495069356,+12253873533,{'url': 'https://locations.raisingcanes.com/la/baton-rouge/3313-highland-rd'}
Raising Cane's,C36,Raising Cane's Chicken Fingers,10020 Perkins Rd,Baton Rouge,LA,70810,US,30.377799607380062,-91.09605570815894,+12257692489,{'url': 'https://locations.raisingcanes.com/la/baton-rouge/10020-perkins-rd'}
Raising Cane's,C8,Raising Cane's Chicken Fingers,6401 Bluebonnet #FC6,Baton Rouge,LA,70836,US,30.38963077275032,-91.08789718270909,+12257694145,{'url': 'https://locations.raisingcanes.com/la/baton-rouge/6401-bluebonnet-fc6'}
Raising Cane's,C7,Raising Cane's Chicken Fingers,5020 Government St,Baton Rouge,LA,70806,US,30.44426122996921,-91.1381586382184,+12259280046,{'url': 'https://locations.raisingcanes.com/la/baton-rouge/5020-government-st'}
Raising Cane's,C11,Raising Cane's Chicken Fingers,6588 Siegen Ln,Baton Rouge,LA,70809,US,30.38993125882344,-91.06207977687615,+12252914857,{'url': 'https://locations.raisingcanes.com/la/baton-rouge/6588-siegen-ln'}
Raising Cane's,C3,Raising Cane's Chicken Fingers,3422 Drusilla Ln,Baton Rouge,LA,70809,US,30.41940369847884,-91.08893909680894,+12259247505,{'url': 'https://locations.raisingcanes.com/la/baton-rouge/3422-drusilla-ln'}
Raising Cane's,C54,Raising Cane's Chicken Fingers,5195 Plank Road,Baton Rouge,LA,70805,US,30.496358489249932,-91.15483462392521,+12253564240,{'url': 'https://locations.raisingcanes.com/la/baton-rouge/5195-plank-road'}
Raising Cane's,C10,Raising Cane's Chicken Fingers,625 N Airline Hwy,Gonzales,LA,70737,US,30.23715476168974,-90.91321793269586,+12254074134,{'url': 'https://locations.raisingcanes.com/la/gonzales/625-n-airline-hwy'}
Raising Cane's,C73,Raising Cane's Chicken Fingers,17696 Airline Hwy.,Prairieville,LA,70769,US,30.334320933536187,-90.98531912835614,+12254074159,{'url': 'https://locations.raisingcanes.com/la/prairieville/17696-airline-hwy.'}
Raising Cane's,C65,Raising Cane's Chicken Fingers,8899 Florida Blvd.,Baton Rouge,LA,70815,US,30.453906300538033,-91.0923731982967,+12259253029,{'url': 'https://locations.raisingcanes.com/la/baton-rouge/8899-florida-blvd.'}
Raising Cane's,C55,Raising Cane's Chicken Fingers,2525 South Sherwood Forest Blvd,Baton Rouge,LA,70816,US,30.428280424304603,-91.0554774644927,+12252911300,{'url': 'https://locations.raisingcanes.com/la/baton-rouge/2525-south-sherwood-forest-blvd'}
Raising Cane's,C15,Raising Cane's Chicken Fingers,14929 Market St,Baton Rouge,LA,70817,US,30.407910745881725,-91.01871156428753,+12254081658,{'url': 'https://locations.raisingcanes.com/la/baton-rouge/14929-market-st'}
Raising Cane's,C56,Raising Cane's Chicken Fingers,2364 S. Range Ave,Denham Springs,LA,70726,US,30.458809563172558,-90.95588595600937,+12256671919,{'url': 'https://locations.raisingcanes.com/la/denham-springs/2364-s.-range-ave'}
Raising Cane's,C63,Raising Cane's Chicken Fingers,10500 Sullivan Road,Central,LA,70818,US,30.543476266884095,-91.02937436747646,+12252616446,{'url': 'https://locations.raisingcanes.com/la/central/10500-sullivan-road'}
Raising Cane's,C60,Raising Cane's Chicken Fingers,5545 Main Street,Zachary,LA,70791,US,30.647973537126198,-91.14573482472657,+12256545126,{'url': 'https://locations.raisingcanes.com/la/zachary/5545-main-street'}
Raising Cane's,C6,Raising Cane's Chicken Fingers,31685 LA Highway 16,Denham Springs,LA,70726,US,30.52758029212546,-90.95666207380037,+12256658001,{'url': 'https://locations.raisingcanes.com/la/denham-springs/31685-la-highway-16'}
Raising Cane's,C371,Raising Cane's Chicken Fingers,27932 Walker South Road,Walker,LA,70785,US,30.47360285822694,-90.86272210825024,+12256651566,{'url': 'https://locations.raisingcanes.com/la/walker/27932-walker-south-road'}
Raising Cane's,C41,Raising Cane's Chicken Fingers,1030 Macarthur Dr,Alexandria,LA,71303,US,31.2908148724019,-92.4773865946266,+13184426614,{'url': 'https://locations.raisingcanes.com/la/alexandria/1030-macarthur-dr'}
Raising Cane's,C808,Raising Cane's Chicken Fingers,2995 Cottingham Expressway,Pineville,LA,71360,US,31.357505761371705,-92.41696839888571,+13187674802,{'url': 'https://locations.raisingcanes.com/la/pineville/2995-cottingham-expressway'}
Raising Cane's,C28,Raising Cane's Chicken Fingers,2035 W. Thomas St.,Hammond,LA,70401,US,30.500428760080204,-90.48371114871296,+19856013873,{'url': 'https://locations.raisingcanes.com/la/hammond/2035-w.-thomas-st.'}
Raising Cane's,C68,Raising Cane's Chicken Fingers,1906 SW Railroad Ave.,Hammond,LA,70403,US,30.483320805263073,-90.45740010085312,+19853453133,{'url': 'https://locations.raisingcanes.com/la/hammond/1906-sw-railroad-ave.'}
Raising Cane's,C17,Raising Cane's Chicken Fingers,1654 Gause Blvd,Slidell,LA,70458,US,30.285181903947993,-89.75238771717929,+19854051425,{'url': 'https://locations.raisingcanes.com/la/slidell/1654-gause-blvd'}
Raising Cane's,C307,Raising Cane's Chicken Fingers,142 Northshore Blvd,Slidell,LA,70460,US,30.305024085272088,-89.82540935950718,+19857810010,{'url': 'https://locations.raisingcanes.com/la/slidell/142-northshore-blvd'}
Raising Cane's,C79,Raising Cane's Chicken Fingers,3801 Highway 22,Mandeville,LA,70471,US,30.395374569836925,-90.09145268484544,+19856248553,{'url': 'https://locations.raisingcanes.com/la/mandeville/3801-highway-22'}
Raising Cane's,C18,Raising Cane's Chicken Fingers,1270 North Hwy 190,Covington,LA,70433,US,30.448412082108305,-90.0815039793229,+19858090314,{'url': 'https://locations.raisingcanes.com/la/covington/1270-north-hwy-190'}
Raising Cane's,C20,Raising Cane's Chicken Fingers,10420 Highway 49,Gulfport,MS,39503,US,30.438547015627613,-89.09684241786566,+12283284216,{'url': 'https://locations.raisingcanes.com/ms/gulfport/10420-highway-49'}
Raising Cane's,C127,Raising Cane's Chicken Fingers,2590 Beach Blvd,Biloxi,MS,39531,US,30.389932863957327,-88.98898570815898,+12285946667,{'url': 'https://locations.raisingcanes.com/ms/biloxi/2590-beach-blvd'}
Raising Cane's,C193,Raising Cane's Chicken Fingers,3098 Bienville Blvd,Ocean Springs,MS,39564,US,30.412294161710346,-88.7834588627553,+12288721958,{'url': 'https://locations.raisingcanes.com/ms/ocean-springs/3098-bienville-blvd'}
Raising Cane's,C88,Raising Cane's Chicken Fingers,4301 Denny Ave.,Pascagoula,MS,39581,US,30.384753020270473,-88.51766459159136,+12287129934,{'url': 'https://locations.raisingcanes.com/ms/pascagoula/4301-denny-ave.'}
Raising Cane's,C521,Raising Cane's Chicken Fingers,3703 Hardy St,Hattiesburg,MS,39402,US,31.325352211715053,-89.34401207257699,+16012642630,{'url': 'https://locations.raisingcanes.com/ms/hattiesburg/3703-hardy-st'}
Raising Cane's,C39,Raising Cane's Chicken Fingers,3200 Airport Blvd,Mobile,AL,36606,US,30.677904112943565,-88.12526246932887,+12514719455,{'url': 'https://locations.raisingcanes.com/al/mobile/3200-airport-blvd'}
Raising Cane's,C86,Raising Cane's Chicken Fingers,1594 Highway 15N,Laurel,MS,39440,US,31.70874266858165,-89.14910911920406,+16014281489,{'url': 'https://locations.raisingcanes.com/ms/laurel/1594-highway-15n'}
Raising Cane's,C734,Raising Cane's Chicken Fingers,1917 West Tennessee St,Tallahassee,FL,32304,US,30.44876626286108,-84.31414204926347,+18506293846,{'url': 'https://locations.raisingcanes.com/fl/tallahassee/1917-west-tennessee-st'}
Raising Cane's,C1186,Raising Cane's Chicken Fingers,8308 Merchants Way,Jacksonville,FL,32222,US,30.195008539877694,-81.83367852990796,+19045963081,{'url': 'https://locations.raisingcanes.com/fl/jacksonville/8308-merchants-way'}
Raising Cane's,C485,Raising Cane's Chicken Fingers,23000 Hawthorne Blvd,Torrance,CA,90505,US,33.8180452505565,-118.35059605592906,+13103730022,{'url': 'https://locations.raisingcanes.com/ca/torrance/23000-hawthorne-blvd'}
Raising Cane's,C615,Raising Cane's Chicken Fingers,18120 Hawthorne Boulevard,Torrance,CA,90504,US,33.866214562365165,-118.35223020884132,+14244173948,{'url': 'https://locations.raisingcanes.com/ca/torrance/18120-hawthorne-boulevard'}
Raising Cane's,C510,Raising Cane's Chicken Fingers,20707 Avalon Blvd,Carson,CA,90746,US,33.84353751287787,-118.26381012780236,+13103230228,{'url': 'https://locations.raisingcanes.com/ca/carson/20707-avalon-blvd'}
Raising Cane's,C398,Raising Cane's Chicken Fingers,2160 East El Segundo Boulevard,El Segundo,CA,90245,US,33.91593044801648,-118.38783211920403,+13108935494,{'url': 'https://locations.raisingcanes.com/ca/el-segundo/2160-east-el-segundo-boulevard'}
Raising Cane's,C388,Raising Cane's Chicken Fingers,2063 W Redondo Beach Blvd,Gardena,CA,90247,US,33.88724977018678,-118.31481161490488,+13102177706,{'url': 'https://locations.raisingcanes.com/ca/gardena/2063-w-redondo-beach-blvd'}
Raising Cane's,C358,Raising Cane's Chicken Fingers,4500 E Atherton St,Long Beach,CA,90815,US,33.78948521527593,-118.14034383479101,+15624981348,{'url': 'https://locations.raisingcanes.com/ca/long-beach/4500-e-atherton-st'}
Raising Cane's,C384,Raising Cane's Chicken Fingers,10142 Adams Avenue,Huntington Beach,CA,92646,US,33.67204984427817,-117.95160428658822,+17143780300,{'url': 'https://locations.raisingcanes.com/ca/huntington-beach/10142-adams-avenue'}
Raising Cane's,C402,Raising Cane's Chicken Fingers,2161 North Rose Ave,Oxnard,CA,93036,US,34.2217497,-119.1593741,+18053515591,{'url': 'https://locations.raisingcanes.com/ca/oxnard/2161-north-rose-ave'}
Raising Cane's,C916,Raising Cane's Chicken Fingers,1725 S. Alameda Street,Compton,CA,90221,US,33.877,-118.2179987,+14244194982,{'url': 'https://locations.raisingcanes.com/ca/compton/1725-s.-alameda-street'}
Raising Cane's,C189,Raising Cane's Chicken Fingers,3150 Harbor Blvd,Costa Mesa,CA,92626,US,33.68578138500762,-117.91902307349542,+17145401477,{'url': 'https://locations.raisingcanes.com/ca/costa-mesa/3150-harbor-blvd'}
Raising Cane's,C1007,Raising Cane's Chicken Fingers,3720 Camino Del Rio W,San Diego,CA,92110,US,32.75475114043872,-117.20538179571821,+16194719851,{'url': 'https://locations.raisingcanes.com/ca/san-diego/3720-camino-del-rio-w'}
Raising Cane's,C337,Raising Cane's Chicken Fingers,4634 Candlewood St.,Lakewood,CA,90712,US,33.85334711195884,-118.13862767441377,+15624084820,{'url': 'https://locations.raisingcanes.com/ca/lakewood/4634-candlewood-st.'}
Raising Cane's,C860,Raising Cane's Chicken Fingers,7204 Carson Blvd.,Long Beach,CA,90808,US,33.830796523925116,-118.09063538458682,+15622150970,{'url': 'https://locations.raisingcanes.com/ca/long-beach/7204-carson-blvd.'}
Raising Cane's,C365,Raising Cane's Chicken Fingers,12775 Beach Blvd,Stanton,CA,90680,US,33.775989502148214,-117.99345006047446,+17143730188,{'url': 'https://locations.raisingcanes.com/ca/stanton/12775-beach-blvd'}
Raising Cane's,C206,Raising Cane's Chicken Fingers,26801 Aliso Creek Rd.,Aliso Viejo,CA,92656,US,33.57301929122258,-117.7239273411045,+19494480241,{'url': 'https://locations.raisingcanes.com/ca/aliso-viejo/26801-aliso-creek-rd.'}
Raising Cane's,C799,Raising Cane's Chicken Fingers,18600 Gridley Road,Artesia,CA,90701,US,33.8626947,-118.0904655,+15623709740,{'url': 'https://locations.raisingcanes.com/ca/artesia/18600-gridley-road'}
Raising Cane's,C616,Raising Cane's Chicken Fingers,2505 Tweedy Blvd,South Gate,CA,90280,US,33.946827,-118.227611,+13238032950,{'url': 'https://locations.raisingcanes.com/ca/south-gate/2505-tweedy-blvd'}
Raising Cane's,C670,Raising Cane's Chicken Fingers,26980 Crown Valley Parkway,Mission Viejo,CA,92691,US,33.561683832880064,-117.66900720163122,+19495384957,{'url': 'https://locations.raisingcanes.com/ca/mission-viejo/26980-crown-valley-parkway'}
Raising Cane's,C190,Raising Cane's Chicken Fingers,23971 El Toro Rd.,Laguna Hills,CA,92653,US,33.61441942667371,-117.70876224780949,+19495871970,{'url': 'https://locations.raisingcanes.com/ca/laguna-hills/23971-el-toro-rd.'}
Raising Cane's,C625,Raising Cane's Chicken Fingers,12202 Harbor Boulevard,Garden Grove,CA,92840,US,33.78580224422126,-117.914386781003,+17148724781,{'url': 'https://locations.raisingcanes.com/ca/garden-grove/12202-harbor-boulevard'}
Raising Cane's,C1104,Raising Cane's Chicken Fingers,12618 Studebaker Rd,Norwalk,CA,90650,US,33.9171588,-118.0993054,+17142746888,{'url': 'https://locations.raisingcanes.com/ca/norwalk/12618-studebaker-rd'}
Raising Cane's,C1022,Raising Cane's Chicken Fingers,5795 Bickett Street,Huntington Park,CA,90255,US,33.990461,-118.216248,+13234466952,{'url': 'https://locations.raisingcanes.com/ca/huntington-park/5795-bickett-street'}
Raising Cane's,C200,Raising Cane's Chicken Fingers,9265 Firestone Blvd.,Downey,CA,90241,US,33.93300998481203,-118.11802256258296,+15628615057,{'url': 'https://locations.raisingcanes.com/ca/downey/9265-firestone-blvd.'}
Raising Cane's,C338,Raising Cane's Chicken Fingers,223 S. Euclid Street,Anaheim,CA,92802,US,33.830806362866745,-117.94190993269584,+17147760121,{'url': 'https://locations.raisingcanes.com/ca/anaheim/223-s.-euclid-street'}
Raising Cane's,C1029,Raising Cane's Chicken Fingers,12623 Imperial Highway,Santa Fe Springs,CA,90670,US,33.9176902770996,-118.063346862793,+15622150972,{'url': 'https://locations.raisingcanes.com/ca/santa-fe-springs/12623-imperial-highway'}
Raising Cane's,C390,Raising Cane's Chicken Fingers,2250 E 17th St,Santa Ana,CA,92705,US,33.75947464896861,-117.83473812780237,+17145504621,{'url': 'https://locations.raisingcanes.com/ca/santa-ana/2250-e-17th-st'}
Raising Cane's,C1044,Raising Cane's Chicken Fingers,7011 Topanga Canyon Blvd,Canoga Park,CA,91303,US,34.19792461010425,-118.60644403497028,+18334422637,{'url': 'https://locations.raisingcanes.com/ca/canoga-park/7011-topanga-canyon-blvd'}
Raising Cane's,C492,Raising Cane's Chicken Fingers,8223 Mira Mesa Boulevard,San Diego,CA,92126,US,32.91220270281047,-117.14722289780411,+18586359016,{'url': 'https://locations.raisingcanes.com/ca/san-diego/8223-mira-mesa-boulevard'}
Raising Cane's,C1076,Raising Cane's Chicken Fingers,16573 W Ventura Blvd,Encino,CA,91436,US,34.15803428074731,-118.4942908376017,+18186720942,{'url': 'https://locations.raisingcanes.com/ca/encino/16573-w-ventura-blvd'}
Raising Cane's,C491,Raising Cane's Chicken Fingers,13571 Telegraph Road,Whittier,CA,90605,US,33.937232,-118.041554,+13235240841,{'url': 'https://locations.raisingcanes.com/ca/whittier/13571-telegraph-road'}
Raising Cane's,C690,Raising Cane's Chicken Fingers,201 W. Orangethorpe Avenue,Fullerton,CA,92832,US,33.859812,-117.9268873,+17142746872,{'url': 'https://locations.raisingcanes.com/ca/fullerton/201-w.-orangethorpe-avenue'}
Raising Cane's,C373,Raising Cane's Chicken Fingers,26782 Portola Parkway,Foothill Ranch,CA,92610,US,33.67792421170335,-117.6627772600036,+19495811060,{'url': 'https://locations.raisingcanes.com/ca/foothill-ranch/26782-portola-parkway'}
Raising Cane's,C272,Raising Cane's Chicken Fingers,1050 S. Beach Blvd,La Habra,CA,90631,US,33.91931439605632,-117.96724466764879,+15622661890,{'url': 'https://locations.raisingcanes.com/ca/la-habra/1050-s.-beach-blvd'}
Raising Cane's,C211,Raising Cane's Chicken Fingers,2249 N. Tustin St.,Orange,CA,92865,US,33.82539801085463,-117.83557018368325,+17142821886,{'url': 'https://locations.raisingcanes.com/ca/orange/2249-n.-tustin-st.'}
Raising Cane's,C331,Raising Cane's Chicken Fingers,303 Vista Village Drive,Vista,CA,92083,US,33.1982082221143,-117.24773524479198,+17606396086,{'url': 'https://locations.raisingcanes.com/ca/vista/303-vista-village-drive'}
Raising Cane's,C540,Raising Cane's Chicken Fingers,19310 Business Center Drive,Northridge,CA,91324,US,34.230660711082486,-118.5541261982967,+18185399577,{'url': 'https://locations.raisingcanes.com/ca/northridge/19310-business-center-drive'}
Raising Cane's,C321,Raising Cane's Chicken Fingers,5005  Paramount Blvd,Pico Rivera,CA,90660,US,34.00259201182056,-118.08990647502374,+15624631868,{'url': 'https://locations.raisingcanes.com/ca/pico-rivera/5005-paramount-blvd'}
Raising Cane's,C469,Raising Cane's Chicken Fingers,11814 Whittier Blvd,Whittier,CA,90601,US,33.97926750169342,-118.05023201123475,+15626540114,{'url': 'https://locations.raisingcanes.com/ca/whittier/11814-whittier-blvd'}
Raising Cane's,ELPX6,Raising Cane's Chicken Fingers,15103 Vandegrift Blvd,Camp Pendleton,CA,92058,US,33.300599473210575,-117.31238322453692,+17608475013,{'url': 'https://locations.raisingcanes.com/ca/camp-pendleton/15103-vandegrift-blvd'}
Raising Cane's,C560,Raising Cane's Chicken Fingers,4835 N Lankershim Blvd,North Hollywood,CA,91601,US,34.15837611366524,-118.37129712397139,+18184856989,"{'url': 'https://locations.raisingcanes.com/ca/north-hollywood/4835-n-lankershim-blvd', 'displayUrl': 'https://locations.raisingcanes.com/ca/north-hollywood/4835-n-lankershim-blvd'}"
Raising Cane's,C387,Raising Cane's Chicken Fingers,1970 S Atlantic Blvd,Monterey Park,CA,91754,US,34.041095571371024,-118.14159529518118,+16265372567,{'url': 'https://locations.raisingcanes.com/ca/monterey-park/1970-s-atlantic-blvd'}
Raising Cane's,C474,Raising Cane's Chicken Fingers,105 S Las Posas Road,San Marcos,CA,92078,US,33.14014178173624,-117.19253510784124,+17607521980,{'url': 'https://locations.raisingcanes.com/ca/san-marcos/105-s-las-posas-road'}
Raising Cane's,C549,Raising Cane's Chicken Fingers,1750 W Olive Ave,Burbank,CA,91506,US,34.16644658786323,-118.3235584926424,+18185310955,{'url': 'https://locations.raisingcanes.com/ca/burbank/1750-w-olive-ave'}
Raising Cane's,C327,Raising Cane's Chicken Fingers,191 Imperial Hwy,Anaheim,CA,92807,US,33.84923404341478,-117.7908204517102,+17146375001,{'url': 'https://locations.raisingcanes.com/ca/anaheim/191-imperial-hwy'}
Raising Cane's,C923,Raising Cane's Chicken Fingers,12665 Poway Rd,Poway,CA,92064,US,32.954157779182374,-117.0562227885941,+18588596610,{'url': 'https://locations.raisingcanes.com/ca/poway/12665-poway-rd'}
Raising Cane's,C575,Raising Cane's Chicken Fingers,1300 E. Valley Blvd,Alhambra,CA,91801,US,34.07884772453452,-118.11048350147422,+16265372578,{'url': 'https://locations.raisingcanes.com/ca/alhambra/1300-e.-valley-blvd'}
Raising Cane's,C282,Raising Cane's Chicken Fingers,8867 Cuyamaca St.,Santee,CA,92071,US,32.83788415840007,-116.98321944366566,+16194490565,{'url': 'https://locations.raisingcanes.com/ca/santee/8867-cuyamaca-st.'}
Raising Cane's,C541,Raising Cane's Chicken Fingers,2991 Jamacha Road,El Cajon,CA,92019,US,32.73907155832683,-116.94181682472657,+16194035991,{'url': 'https://locations.raisingcanes.com/ca/el-cajon/2991-jamacha-road'}
Raising Cane's,C517,Raising Cane's Chicken Fingers,1280 W. Valley Parkway,Escondido,CA,92029,US,33.11481234295648,-117.1009525073576,+17604802800,{'url': 'https://locations.raisingcanes.com/ca/escondido/1280-w.-valley-parkway'}
Raising Cane's,C366,Raising Cane's Chicken Fingers,40390 Margarita Road,Temecula,CA,92591,US,33.52837367517393,-117.14893462672484,+19515872308,{'url': 'https://locations.raisingcanes.com/ca/temecula/40390-margarita-road'}
Raising Cane's,C328,Raising Cane's Chicken Fingers,24655 Madison Ave,Murrieta,CA,92562,US,33.56231673295674,-117.20663420196026,+19518947732,{'url': 'https://locations.raisingcanes.com/ca/murrieta/24655-madison-ave'}
Raising Cane's,C937,Raising Cane's Chicken Fingers,28020 Clinton Keith Road,Murrieta,CA,92563,US,33.59859099427126,-117.17115552676407,+19514844941,"{'url': 'https://locations.raisingcanes.com/ca/murrieta/28020-clinton-keith-road', 'displayUrl': 'https://locations.raisingcanes.com/ca/murrieta/28020-clinton-keith-road'}"
Raising Cane's,C320,Raising Cane's Chicken Fingers,"29911 Antelope Road, Suite 100",Menifee,CA,92584,US,33.685607732288794,-117.16851891936312,+19516720393,{'url': 'https://locations.raisingcanes.com/ca/menifee/29911-antelope-road-suite-100'}
Raising Cane's,C535,Raising Cane's Chicken Fingers,29250 Central Ave.,Lake Elsinore,CA,92532,US,33.694187904284014,-117.33435576074791,+19513734789,{'url': 'https://locations.raisingcanes.com/ca/lake-elsinore/29250-central-ave.'}
Raising Cane's,C482,Raising Cane's Chicken Fingers,3156 W. Florida Ave.,Hemet,CA,92545,US,33.74782730930487,-117.00511029447746,+19514844939,{'url': 'https://locations.raisingcanes.com/ca/hemet/3156-w.-florida-ave.'}
Raising Cane's,C874,Raising Cane's Chicken Fingers,239 Old Nuevo Rd.,Perris,CA,92571,US,33.800929009114085,-117.22977700004577,+19514356920,{'url': 'https://locations.raisingcanes.com/ca/perris/239-old-nuevo-rd.'}
Raising Cane's,C382,Raising Cane's Chicken Fingers,1215 East Ontario Avenue,Corona,CA,92881,US,33.848668164693706,-117.54273918302773,+19513711005,{'url': 'https://locations.raisingcanes.com/ca/corona/1215-east-ontario-avenue'}
Raising Cane's,C500,Raising Cane's Chicken Fingers,840 North Main Street,Corona,CA,92878,US,33.89455811739843,-117.56377946946064,+19514844932,{'url': 'https://locations.raisingcanes.com/ca/corona/840-north-main-street'}
Raising Cane's,C300,Raising Cane's Chicken Fingers,11066 Magnolia Ave.,Riverside,CA,92505,US,33.9036156301494,-117.4751327901783,+19516376551,{'url': 'https://locations.raisingcanes.com/ca/riverside/11066-magnolia-ave.'}
Raising Cane's,C536,Raising Cane's Chicken Fingers,5601 Ramon Rd,Palm Springs,CA,92264,US,33.81301403068652,-116.48691528834324,+17609046707,{'url': 'https://locations.raisingcanes.com/ca/palm-springs/5601-ramon-rd'}
Raising Cane's,C551,Raising Cane's Chicken Fingers,12625 Frederick St,Moreno Valley,CA,92553,US,33.93760228879672,-117.2619011012128,+19514974978,{'url': 'https://locations.raisingcanes.com/ca/moreno-valley/12625-frederick-st'}
Raising Cane's,C470,Raising Cane's Chicken Fingers,1535 East 2nd Street,Beaumont,CA,92223,US,33.922708614906476,-116.95338157729815,+19518450251,{'url': 'https://locations.raisingcanes.com/ca/beaumont/1535-east-2nd-street'}
Raising Cane's,C962,Raising Cane's Chicken Fingers,5941 Van Buren Blvd,Riverside,CA,92503,US,33.94156745472554,-117.45337653067111,+19094073937,{'url': 'https://locations.raisingcanes.com/ca/riverside/5941-van-buren-blvd'}
Raising Cane's,C820,Raising Cane's Chicken Fingers,4110 Central Ave,Riverside,CA,92506,US,33.9535037,-117.397413,+19095467621,{'url': 'https://locations.raisingcanes.com/ca/riverside/4110-central-ave'}
Raising Cane's,C873,Raising Cane's Chicken Fingers,82-171 Avenue 42,Indio,CA,92203,US,33.741321,-116.232214,+17609723907,{'url': 'https://locations.raisingcanes.com/ca/indio/82-171-avenue-42'}
Raising Cane's,C1113,Raising Cane's Chicken Fingers,8077 Mission Blvd,Jurupa Valley,CA,92509,US,34.0118005,-117.4597202,+19095467625,{'url': 'https://locations.raisingcanes.com/ca/jurupa-valley/8077-mission-blvd'}
Raising Cane's,C590,Raising Cane's Chicken Fingers,3919 Grand Ave,Chino,CA,91710,US,33.997820138001394,-117.71895535276127,+19093213452,{'url': 'https://locations.raisingcanes.com/ca/chino/3919-grand-ave'}
Raising Cane's,C544,Raising Cane's Chicken Fingers,1837 E 16th Street,Yuma,AZ,85365,US,32.69805599302393,-114.60147515926235,+19287830324,{'url': 'https://locations.raisingcanes.com/az/yuma/1837-e-16th-street'}
Raising Cane's,C695,Raising Cane's Chicken Fingers,1220 North Dysart Road,Goodyear,AZ,85395,US,33.45978435771206,-112.34164702962234,+16026913248,{'url': 'https://locations.raisingcanes.com/az/goodyear/1220-north-dysart-road'}
Raising Cane's,C430,Raising Cane's Chicken Fingers,9935 W. McDowell Ave,Avondale,AZ,85392,US,33.46310417542977,-112.27316736631198,+16232823631,{'url': 'https://locations.raisingcanes.com/az/avondale/9935-w.-mcdowell-ave'}
Raising Cane's,C572,Raising Cane's Chicken Fingers,5950 West Baseline Road,Laveen,AZ,85339,US,33.3779715,-112.1874288,+16026913258,{'url': 'https://locations.raisingcanes.com/az/laveen/5950-west-baseline-road'}
Raising Cane's,C451,Raising Cane's Chicken Fingers,14385 W. Bell Road,Surprise,AZ,85374,US,33.63804265512069,-112.36995296193034,+16232303997,{'url': 'https://locations.raisingcanes.com/az/surprise/14385-w.-bell-road'}
Raising Cane's,C564,Raising Cane's Chicken Fingers,9232 West Glendale Avenue,Glendale,AZ,85305,US,33.537991537532946,-112.25808929155079,+16232823868,{'url': 'https://locations.raisingcanes.com/az/glendale/9232-west-glendale-avenue'}
Raising Cane's,C687,Raising Cane's Chicken Fingers,1525 North 51st Avenue,Phoenix,AZ,85043,US,33.4648445,-112.1687391,+16026913256,{'url': 'https://locations.raisingcanes.com/az/phoenix/1525-north-51st-avenue'}
Raising Cane's,C591,Raising Cane's Chicken Fingers,5301 West Indian School Road,Phoenix,AZ,85031,US,33.494507983410806,-112.17366132042741,+16232823767,{'url': 'https://locations.raisingcanes.com/az/phoenix/5301-west-indian-school-road'}
Raising Cane's,C525,Raising Cane's Chicken Fingers,2455 East Baseline Road,Phoenix,AZ,85042,US,33.377201984605904,-112.02882114681672,+16022689822,{'url': 'https://locations.raisingcanes.com/az/phoenix/2455-east-baseline-road'}
Raising Cane's,C433,Raising Cane's Chicken Fingers,7930 W. Bell Rd.,Glendale,AZ,85308,US,33.638981261729,-112.22985226879901,+16027146367,{'url': 'https://locations.raisingcanes.com/az/glendale/7930-w.-bell-rd.'}
Raising Cane's,C989,Raising Cane's Chicken Fingers,7450 West Chandler Boulevard,Chandler,AZ,85226,US,33.305894135774224,-111.96932661083062,+14809339528,{'url': 'https://locations.raisingcanes.com/az/chandler/7450-west-chandler-boulevard'}
Raising Cane's,C686,Raising Cane's Chicken Fingers,5959 West Thunderbird Road,Glendale,AZ,85306,US,33.61029815179015,-112.18703704926347,+16026913239,{'url': 'https://locations.raisingcanes.com/az/glendale/5959-west-thunderbird-road'}
Raising Cane's,C817,Raising Cane's Chicken Fingers,25300 N Lake Pleasant Pkwy,Peoria,AZ,85383,US,33.713427,-112.271797,+16026913262,"{'url': 'https://locations.raisingcanes.com/az/peoria/25300-n-lake-pleasant-pkwy', 'displayUrl': 'https://locations.raisingcanes.com/az/peoria/25300-n-lake-pleasant-pkwy', 'preferDisplayUrl': False}"
Raising Cane's,C955,Raising Cane's Chicken Fingers,710 E Indian School Rd,Phoenix,AZ,85014,US,33.49515594359895,-112.06436865265029,+16026913277,{'url': 'https://locations.raisingcanes.com/az/phoenix/710-e-indian-school-rd'}
Raising Cane's,C426,Raising Cane's Chicken Fingers,2715 West Peoria Ave,Phoenix,AZ,85029,US,33.581351755518014,-112.11885319377583,+16027953550,{'url': 'https://locations.raisingcanes.com/az/phoenix/2715-west-peoria-ave'}
Raising Cane's,C456,Raising Cane's Chicken Fingers,5850 N. 7th Street,Phoenix,AZ,85014,US,33.523444716871076,-112.06547648762786,+16024649731,{'url': 'https://locations.raisingcanes.com/az/phoenix/5850-n.-7th-street'}
Raising Cane's,C460,Raising Cane's Chicken Fingers,1781 East Warner Road,Tempe,AZ,85284,US,33.33421969865413,-111.91169350693559,+14807553464,{'url': 'https://locations.raisingcanes.com/az/tempe/1781-east-warner-road'}
Raising Cane's,C440,Raising Cane's Chicken Fingers,2469 E. Florence Blvd,Casa Grande,AZ,85194,US,32.8791005739618,-111.68069866153193,+15207886314,{'url': 'https://locations.raisingcanes.com/az/casa-grande/2469-e.-florence-blvd'}
Raising Cane's,C672,Raising Cane's Chicken Fingers,2804 W Bell Rd,Phoenix,AZ,85035,US,33.64023788690089,-112.11977113953766,+14809339470,{'url': 'https://locations.raisingcanes.com/az/phoenix/2804-w-bell-rd'}
Raising Cane's,C443,Raising Cane's Chicken Fingers,4075 S. Arizona Avenue,Chandler,AZ,85248,US,33.24636122529785,-111.84067436437711,+14802145520,{'url': 'https://locations.raisingcanes.com/az/chandler/4075-s.-arizona-avenue'}
Raising Cane's,C427,Raising Cane's Chicken Fingers,4325 E Thomas Rd,Phoenix,AZ,85018,US,33.47990239716428,-111.98837952165078,+16025532263,{'url': 'https://locations.raisingcanes.com/az/phoenix/4325-e-thomas-rd'}
Raising Cane's,C1109,Raising Cane's Chicken Fingers,32933 Yucaipa Blvd,Yucaipa,CA,92399,US,34.03369686164583,-117.08519632009887,+19099773224,{'url': 'https://locations.raisingcanes.com/ca/yucaipa/32933-yucaipa-blvd'}
Raising Cane's,C459,Raising Cane's Chicken Fingers,5201 South Mcclintock Drive,Tempe,AZ,85283,US,33.37809139276415,-111.908956926579,+14808205270,{'url': 'https://locations.raisingcanes.com/az/tempe/5201-south-mcclintock-drive'}
Raising Cane's,C428,Raising Cane's Chicken Fingers,960 E. University Dr,Tempe,AZ,85281,US,33.42243278993816,-111.92438567055225,+14806963497,{'url': 'https://locations.raisingcanes.com/az/tempe/960-e.-university-dr'}
Raising Cane's,C738,Raising Cane's Chicken Fingers,1877 N Arizona Ave,Chandler,AZ,85225,US,33.33391485698605,-111.84118843944177,+14809339434,{'url': 'https://locations.raisingcanes.com/az/chandler/1877-n-arizona-ave'}
Raising Cane's,C445,Raising Cane's Chicken Fingers,1050 E. Bell Rd.,Phoenix,AZ,85022,US,33.640896408154326,-112.05924962768735,+16025954984,{'url': 'https://locations.raisingcanes.com/az/phoenix/1050-e.-bell-rd.'}
Raising Cane's,C683,Raising Cane's Chicken Fingers,1250 S. Alma School Rd.,Mesa,AZ,85210,US,33.391907391982976,-111.85772906045955,+14809339441,{'url': 'https://locations.raisingcanes.com/az/mesa/1250-s.-alma-school-rd.'}
Raising Cane's,C592,Raising Cane's Chicken Fingers,1127 North Dobson Road,Mesa,AZ,85201,US,33.436119533427956,-111.86907896724496,+14809339443,{'url': 'https://locations.raisingcanes.com/az/mesa/1127-north-dobson-road'}
Raising Cane's,C957,Raising Cane's Chicken Fingers,33179 North Gary Road,San Tan Valley,AZ,85143,US,33.18020871,-111.58432785,+14809339504,{'url': 'https://locations.raisingcanes.com/az/san-tan-valley/33179-north-gary-road'}
Raising Cane's,C448,Raising Cane's Chicken Fingers,21571 S Ellsworth Rd,Queen Creek,AZ,85142,US,33.25243719877852,-111.63736722883694,+14802479301,{'url': 'https://locations.raisingcanes.com/az/queen-creek/21571-s-ellsworth-rd'}
Raising Cane's,C447,Raising Cane's Chicken Fingers,2370 S Val Vista Dr,Gilbert,AZ,85295,US,33.30730170074281,-111.75649411652667,+14807736055,{'url': 'https://locations.raisingcanes.com/az/gilbert/2370-s-val-vista-dr'}
Raising Cane's,C545,Raising Cane's Chicken Fingers,5129 South Power Road,Mesa,AZ,85212,US,33.3229304473241,-111.68632727976227,+14809339521,{'url': 'https://locations.raisingcanes.com/az/mesa/5129-south-power-road'}
Raising Cane's,C431,Raising Cane's Chicken Fingers,1945 S. Stapley Dr,Mesa,AZ,85204,US,33.379375138580976,-111.8067600670139,+14802076190,{'url': 'https://locations.raisingcanes.com/az/mesa/1945-s.-stapley-dr'}
Raising Cane's,C450,Raising Cane's Chicken Fingers,1930 S. Greenfield Rd.,Mesa,AZ,85206,US,33.381145762019564,-111.74008776098141,+14803068760,{'url': 'https://locations.raisingcanes.com/az/mesa/1930-s.-greenfield-rd.'}
Raising Cane's,C883,Raising Cane's Chicken Fingers,1502 South Signal Butte Road,Mesa,AZ,85209,US,33.3898005,-111.5987158,+14809339477,{'url': 'https://locations.raisingcanes.com/az/mesa/1502-south-signal-butte-road'}
Raising Cane's,C926,Raising Cane's Chicken Fingers,2161 North Power Road,Mesa,AZ,82507,US,33.455602241454145,-111.68349306157509,+14809339506,"{'url': 'https://locations.raisingcanes.com/az/mesa/2161-north-power-road', 'displayUrl': 'https://locations.raisingcanes.com/az/mesa/2161-north-power-road'}"
Raising Cane's,C438,Raising Cane's Chicken Fingers,7386 East Shea Blvd,Scottsdale,AZ,85260,US,33.58267831067636,-111.92296100263644,+14802658995,{'url': 'https://locations.raisingcanes.com/az/scottsdale/7386-east-shea-blvd'}
Raising Cane's,C435,Raising Cane's Chicken Fingers,4506 E. Cactus Rd.,Phoenix,AZ,85032,US,33.600222555871454,-111.98641168484544,+16022375857,{'url': 'https://locations.raisingcanes.com/az/phoenix/4506-e.-cactus-rd.'}
Raising Cane's,C1098,Raising Cane's Chicken Fingers,5737 E State Route 69,Prescott Valley,AZ,86314,US,34.5772646,-112.3640833,+19282483689,{'url': 'https://locations.raisingcanes.com/az/prescott-valley/5737-e-state-route-69'}
Raising Cane's,C972,Raising Cane's Chicken Fingers,1401 Gibson Boulevard Southeast,Albuquerque,NM,87106,US,35.0592926,-106.6334161,+15053138618,"{'url': 'https://locations.raisingcanes.com/nm/albuquerque/1401-gibson-boulevard-southeast', 'displayUrl': 'https://locations.raisingcanes.com/nm/albuquerque/1401-gibson-boulevard-southeast', 'preferDisplayUrl': False}"
Raising Cane's,C91,Raising Cane's Chicken Fingers,5203 57th St.,Lubbock,TX,79414,US,33.54216906744888,-101.92315071301199,+18067840572,{'url': 'https://locations.raisingcanes.com/tx/lubbock/5203-57th-st.'}
Raising Cane's,C397,Raising Cane's Chicken Fingers,5702 4th Street,Lubbock,TX,79416,US,33.59270885793383,-101.93501111920402,+18067881588,{'url': 'https://locations.raisingcanes.com/tx/lubbock/5702-4th-street'}
Raising Cane's,C158,Raising Cane's Chicken Fingers,2725 82nd St.,Lubbock,TX,79423,US,33.51925849748238,-101.877501072577,+18064450213,{'url': 'https://locations.raisingcanes.com/tx/lubbock/2725-82nd-st.'}
Raising Cane's,C51,Raising Cane's Chicken Fingers,907 University Avenue,Lubbock,TX,79401,US,33.586813819867224,-101.87004750183506,+18067448552,{'url': 'https://locations.raisingcanes.com/tx/lubbock/907-university-avenue'}
Raising Cane's,C417,Raising Cane's Chicken Fingers,1041 E US Highway 377,Granbury,TX,76048,US,32.43428502194317,-97.77375966153191,+18175792625,{'url': 'https://locations.raisingcanes.com/tx/granbury/1041-e-us-highway-377'}
Raising Cane's,C217,Raising Cane's Chicken Fingers,1824 South Main St.,Weatherford,TX,76086,US,32.733392729049214,-97.79389494129418,+18175947791,{'url': 'https://locations.raisingcanes.com/tx/weatherford/1824-south-main-st.'}
Raising Cane's,C689,Raising Cane's Chicken Fingers,1605 West Henderson St,Cleburne,TX,76033,US,32.338725910943396,-97.41170913705618,+18177201978,{'url': 'https://locations.raisingcanes.com/tx/cleburne/1605-west-henderson-st'}
Raising Cane's,C367,Raising Cane's Chicken Fingers,8506 Benbrook Boulevard,Benbrook,TX,76126,US,32.682344865374745,-97.46174421245813,+18172497523,{'url': 'https://locations.raisingcanes.com/tx/benbrook/8506-benbrook-boulevard'}
Raising Cane's,C704,Raising Cane's Chicken Fingers,5544 McPherson Blvd,Fort Worth,TX,76123,US,32.6070293,-97.41002549999999,+18177201942,{'url': 'https://locations.raisingcanes.com/tx/fort-worth/5544-mcpherson-blvd'}
Raising Cane's,C90,Raising Cane's Chicken Fingers,5729 South Hulen St.,Fort Worth,TX,76132,US,32.66540830301212,-97.40077234374091,+18174231833,{'url': 'https://locations.raisingcanes.com/tx/fort-worth/5729-south-hulen-st.'}
Raising Cane's,C226,Raising Cane's Chicken Fingers,6407 Westworth Blvd,Westworth Village,TX,76114,US,32.758017052633825,-97.4246230670139,+18177315829,{'url': 'https://locations.raisingcanes.com/tx/westworth-village/6407-westworth-blvd'}
Raising Cane's,C215,Raising Cane's Chicken Fingers,824 SW Wilshire Blvd,Burleson,TX,76028,US,32.532116768414156,-97.33840705841556,+18174471128,{'url': 'https://locations.raisingcanes.com/tx/burleson/824-sw-wilshire-blvd'}
Raising Cane's,C132,Raising Cane's Chicken Fingers,3701 Kell Blvd,Wichita Falls,TX,76308,US,33.87991197366413,-98.54076122809175,+19406920388,{'url': 'https://locations.raisingcanes.com/tx/wichita-falls/3701-kell-blvd'}
Raising Cane's,C94,Raising Cane's Chicken Fingers,1527 S. University Drive,Fort Worth,TX,76107,US,32.72928310230963,-97.36080189466713,+18178828722,{'url': 'https://locations.raisingcanes.com/tx/fort-worth/1527-s.-university-drive'}
Raising Cane's,C464,Raising Cane's Chicken Fingers,4501 W Bailey Boswell Rd,Fort Worth,TX,76179,US,32.88039132017902,-97.39131477420884,+18172372192,{'url': 'https://locations.raisingcanes.com/tx/fort-worth/4501-w-bailey-boswell-rd'}
Raising Cane's,C506,Raising Cane's Chicken Fingers,2949 East Berry Street,Fort Worth,TX,76105,US,32.71361225676352,-97.28233642944774,+18175319953,{'url': 'https://locations.raisingcanes.com/tx/fort-worth/2949-east-berry-street'}
Raising Cane's,C181,Raising Cane's Chicken Fingers,8801 North Freeway,Fort Worth,TX,76177,US,32.89929577479482,-97.31882775782124,+18178477101,{'url': 'https://locations.raisingcanes.com/tx/fort-worth/8801-north-freeway'}
Raising Cane's,C196,Raising Cane's Chicken Fingers,1720 Highway 157 N,Mansfield,TX,76063,US,32.59340083367612,-97.14951668484544,+18174536432,{'url': 'https://locations.raisingcanes.com/tx/mansfield/1720-highway-157-n'}
Raising Cane's,C611,Raising Cane's Chicken Fingers,5036 Rufe Snow Drive,North Richland Hills,TX,76180,US,32.83935987296598,-97.23813475897015,+18175032324,{'url': 'https://locations.raisingcanes.com/tx/north-richland-hills/5036-rufe-snow-drive'}
Raising Cane's,C95,Raising Cane's Chicken Fingers,3765 South Cooper St.,Arlington,TX,76015,US,32.68554953873987,-97.13132636705446,+18174686035,{'url': 'https://locations.raisingcanes.com/tx/arlington/3765-south-cooper-st.'}
Raising Cane's,C117,Raising Cane's Chicken Fingers,961 Keller Parkway,Keller,TX,76248,US,32.93483120690071,-97.23185922449596,+18173373990,{'url': 'https://locations.raisingcanes.com/tx/keller/961-keller-parkway'}
Raising Cane's,C465,Raising Cane's Chicken Fingers,3700 Highway # 114,Fort Worth,TX,76177,US,33.025744952230184,-97.27635839036799,+16828311976,{'url': 'https://locations.raisingcanes.com/tx/fort-worth/3700-highway-114'}
Raising Cane's,C418,Raising Cane's Chicken Fingers,3151 E. Broad St.,Mansfield,TX,76063,US,32.574582675183095,-97.08742134374091,+16825181218,{'url': 'https://locations.raisingcanes.com/tx/mansfield/3151-e.-broad-st.'}
Raising Cane's,C87,Raising Cane's Chicken Fingers,776 Grapevine Hwy,Hurst,TX,76054,US,32.85732548882507,-97.18500139036796,+18174288650,{'url': 'https://locations.raisingcanes.com/tx/hurst/776-grapevine-hwy'}
Raising Cane's,C128,Raising Cane's Chicken Fingers,1322 North Collins St.,Arlington,TX,76011,US,32.755347185702306,-97.09759895600938,+18174592560,{'url': 'https://locations.raisingcanes.com/tx/arlington/1322-north-collins-st.'}
Raising Cane's,C234,Raising Cane's Chicken Fingers,2960 West Camp Wisdom Rd,Grand Prairie,TX,75052,US,32.64812987628692,-97.05680632944775,+19725227744,{'url': 'https://locations.raisingcanes.com/tx/grand-prairie/2960-west-camp-wisdom-rd'}
Raising Cane's,C1093,Raising Cane's Chicken Fingers,521 South Industrial Boulevard,Euless,TX,76040,US,32.830548,-97.098921,+18173454787,{'url': 'https://locations.raisingcanes.com/tx/euless/521-south-industrial-boulevard'}
Raising Cane's,C97,Raising Cane's Chicken Fingers,2901 State Hwy 121,Euless,TX,76039,US,32.87597021824418,-97.10079953673636,+18176850533,{'url': 'https://locations.raisingcanes.com/tx/euless/2901-state-hwy-121'}
Raising Cane's,C227,Raising Cane's Chicken Fingers,1600 Dallas Hwy,Waxahachie,TX,75165,US,32.42898826586237,-96.83799555356264,+19729230311,{'url': 'https://locations.raisingcanes.com/tx/waxahachie/1600-dallas-hwy'}
Raising Cane's,C604,Raising Cane's Chicken Fingers,380 North J. Elmer Weaver Freeway,Cedar Hill,TX,75104,US,32.5941541,-96.9393833,+19722915702,{'url': 'https://locations.raisingcanes.com/tx/cedar-hill/380-north-j.-elmer-weaver-freeway'}
Raising Cane's,C493,Raising Cane's Chicken Fingers,3158 S State Highway 161,Grand Prairie,TX,75052,US,32.69229719230799,-97.02547946073055,+19726064591,{'url': 'https://locations.raisingcanes.com/tx/grand-prairie/3158-s-state-highway-161'}
Raising Cane's,C199,Raising Cane's Chicken Fingers,8150 S. Hampton Rd.,Dallas,TX,75232,US,32.648014781200985,-96.85653872601112,+19722284482,{'url': 'https://locations.raisingcanes.com/tx/dallas/8150-s.-hampton-rd.'}
Raising Cane's,C1039,Raising Cane's Chicken Fingers,4400 S Hampton Rd,Dallas,TX,75232,US,32.690569569848904,-96.85658881665685,+14698384944,"{'url': 'https://locations.raisingcanes.com/tx/dallas/4400-s-hampton-rd', 'displayUrl': 'https://locations.raisingcanes.com/tx/dallas/4400-s-hampton-rd'}"
Raising Cane's,C463,Raising Cane's Chicken Fingers,701 W. Illinois Avenue,Dallas,TX,75224,US,32.72078220692807,-96.83414765197114,+12149445546,{'url': 'https://locations.raisingcanes.com/tx/dallas/701-w.-illinois-avenue'}
Raising Cane's,C295,Raising Cane's Chicken Fingers,2503 West Mockingbird Lane,Dallas,TX,75235,US,32.82855388828505,-96.84458959159134,+12143536993,{'url': 'https://locations.raisingcanes.com/tx/dallas/2503-west-mockingbird-lane'}
Raising Cane's,C286,Raising Cane's Chicken Fingers,5201 Ross Ave,Dallas,TX,75206,US,32.809099565442416,-96.77343166153192,+12145159105,{'url': 'https://locations.raisingcanes.com/tx/dallas/5201-ross-ave'}
Raising Cane's,C213,Raising Cane's Chicken Fingers,2255 West Northwest Highway,Dallas,TX,75220,US,32.86349,-96.89543635276127,+12143537141,{'url': 'https://locations.raisingcanes.com/tx/dallas/2255-west-northwest-highway'}
Raising Cane's,C580,Raising Cane's Chicken Fingers,12320 Lake June Road,Balch Springs,TX,75180,US,32.733671907427755,-96.61694374591053,+19722865025,{'url': 'https://locations.raisingcanes.com/tx/balch-springs/12320-lake-june-road'}
Raising Cane's,C313,Raising Cane's Chicken Fingers,7345 Gaston Avenue,Dallas,TX,75214,US,32.811628639500974,-96.72953259112352,+12143213220,{'url': 'https://locations.raisingcanes.com/tx/dallas/7345-gaston-avenue'}
Raising Cane's,C76,Raising Cane's Chicken Fingers,5030 Greenville Ave.,Dallas,TX,75206,US,32.848529086867416,-96.76959048362208,+12143606080,{'url': 'https://locations.raisingcanes.com/tx/dallas/5030-greenville-ave.'}
Raising Cane's,C71,Raising Cane's Chicken Fingers,7955 N. MacArthur Blvd.,Irving,TX,75063,US,32.91802617358538,-96.95945154926346,+19729108373,{'url': 'https://locations.raisingcanes.com/tx/irving/7955-n.-macarthur-blvd.'}
Raising Cane's,C336,Raising Cane's Chicken Fingers,11818 Webb Chapel Road,Dallas,TX,75234,US,32.910810721028504,-96.87257788060745,+19722413628,{'url': 'https://locations.raisingcanes.com/tx/dallas/11818-webb-chapel-road'}
Raising Cane's,C379,Raising Cane's Chicken Fingers,1980 North Town East Boulevard,Mesquite,TX,77477,US,32.810896912165475,-96.63074830571222,+19726827881,{'url': 'https://locations.raisingcanes.com/tx/mesquite/1980-north-town-east-boulevard'}
Raising Cane's,C154,Raising Cane's Chicken Fingers,11748 N. Central Expressway,Dallas,TX,75243,US,32.9087789160591,-96.76788716036972,+12143417709,{'url': 'https://locations.raisingcanes.com/tx/dallas/11748-n.-central-expressway'}
Raising Cane's,C111,Raising Cane's Chicken Fingers,13350 Dallas Parkway Ste 3680,Dallas,TX,75240,US,32.93107851815129,-96.8192736,+19727162084,{'url': 'https://locations.raisingcanes.com/tx/dallas/13350-dallas-parkway-ste-3680'}
Raising Cane's,C303,Raising Cane's Chicken Fingers,1102 East Northwest Highway,Garland,TX,75041,US,32.862392823796725,-96.64461170815896,+19722791950,{'url': 'https://locations.raisingcanes.com/tx/garland/1102-east-northwest-highway'}
Raising Cane's,C98,Raising Cane's Chicken Fingers,4100 Beltline Rd,Addison,TX,75001,US,32.9538888828289,-96.84284036764437,+19728517960,{'url': 'https://locations.raisingcanes.com/tx/addison/4100-beltline-rd'}
Raising Cane's,C259,Raising Cane's Chicken Fingers,100 N FM 548,Forney,TX,75126,US,32.74158058192903,-96.44840475478603,+19725525512,{'url': 'https://locations.raisingcanes.com/tx/forney/100-n-fm-548'}
Raising Cane's,C49,Raising Cane's Chicken Fingers,1831 North St.,Nacogdoches,TX,75964,US,31.6202647,-94.6530643,+19365691700,{'url': 'https://locations.raisingcanes.com/tx/nacogdoches/1831-north-st.'}
Raising Cane's,C129,Raising Cane's Chicken Fingers,4186 S. Broadway Ave.,Tyler,TX,75701,US,32.304659875532764,-95.30007693269586,+19035813924,{'url': 'https://locations.raisingcanes.com/tx/tyler/4186-s.-broadway-ave.'}
Raising Cane's,C917,Raising Cane's Chicken Fingers,513 South Southeast Loop 323,Tyler,TX,75702,US,32.34534827359065,-95.2680772682778,+19032523327,{'url': 'https://locations.raisingcanes.com/tx/tyler/513-south-southeast-loop-323'}
Raising Cane's,C167,Raising Cane's Chicken Fingers,212 E. Loop 281,Longview,TX,75605,US,32.54152504149762,-94.73993543699503,+19032388800,{'url': 'https://locations.raisingcanes.com/tx/longview/212-e.-loop-281'}
Raising Cane's,C586,Raising Cane's Chicken Fingers,2200 S 1st St.,Lufkin,TX,75901,US,31.301086053985447,-94.72807530972314,+19366325963,{'url': 'https://locations.raisingcanes.com/tx/lufkin/2200-s-1st-st.'}
Raising Cane's,C231,Raising Cane's Chicken Fingers,6823 Pines Road,Shreveport,LA,71129,US,32.44503376601181,-93.86193185222426,+13186034790,{'url': 'https://locations.raisingcanes.com/la/shreveport/6823-pines-road'}
Raising Cane's,C64,Raising Cane's Chicken Fingers,8998 Mansfield Road,Shreveport,LA,71118,US,32.411399266878085,-93.79588268484544,+13186825995,{'url': 'https://locations.raisingcanes.com/la/shreveport/8998-mansfield-road'}
Raising Cane's,C37,Raising Cane's Chicken Fingers,1046 King's Highway,Shreveport,LA,71104,US,32.48217390632196,-93.75184223995579,+13186731112,{'url': 'https://locations.raisingcanes.com/la/shreveport/1046-kings-highway'}
Raising Cane's,C26,Raising Cane's Chicken Fingers,7241 Youree Drive,Shreveport,LA,71105,US,32.43934216803625,-93.71551158307156,+13187986828,{'url': 'https://locations.raisingcanes.com/la/shreveport/7241-youree-drive'}
Raising Cane's,C74,Raising Cane's Chicken Fingers,2395 Airline Dr,Bossier City,LA,71111,US,32.546351550773124,-93.70951473147248,+13187477766,{'url': 'https://locations.raisingcanes.com/la/bossier-city/2395-airline-dr'}
Raising Cane's,C218,Raising Cane's Chicken Fingers,277 IH-45 South,Huntsville,TX,77340,US,30.706813915439785,-95.5639109176873,+19362910754,{'url': 'https://locations.raisingcanes.com/tx/huntsville/277-ih-45-south'}
Raising Cane's,C462,Raising Cane's Chicken Fingers,1360 FM Rd 148,Terrell,TX,75160,US,32.7179252052405,-96.32405150425824,+19725510307,{'url': 'https://locations.raisingcanes.com/tx/terrell/1360-fm-rd-148'}
Raising Cane's,C57,Raising Cane's Chicken Fingers,409 Keyser Ave.,Natchitoches,LA,71457,US,31.753153762203656,-93.07979104926346,+13183560023,{'url': 'https://locations.raisingcanes.com/la/natchitoches/409-keyser-ave.'}
Raising Cane's,C176,Raising Cane's Chicken Fingers,2505 Richmond Rd.,Texarkana,TX,75503,US,33.45751643289889,-94.08852643431767,+19038380006,{'url': 'https://locations.raisingcanes.com/tx/texarkana/2505-richmond-rd.'}
Raising Cane's,C152,Raising Cane's Chicken Fingers,1114 E I30,Rockwall,TX,75087,US,32.90998194359708,-96.44813873075962,+19727222003,{'url': 'https://locations.raisingcanes.com/tx/rockwall/1114-e-i30'}
Raising Cane's,C101,Raising Cane's Chicken Fingers,4509 Lakeview Pkwy,Rowlett,TX,75089,US,32.90822975548032,-96.55975093005944,+19724127300,{'url': 'https://locations.raisingcanes.com/tx/rowlett/4509-lakeview-pkwy'}
Raising Cane's,C162,Raising Cane's Chicken Fingers,2127 West Davis St.,Conroe,TX,77304,US,30.31808301430644,-95.48005804926346,+19367607744,{'url': 'https://locations.raisingcanes.com/tx/conroe/2127-west-davis-st.'}
Raising Cane's,C713,Raising Cane's Chicken Fingers,5370 North Garland Avenue,Garland,TX,75044,US,32.96476318512043,-96.64231813169488,+14694915990,{'url': 'https://locations.raisingcanes.com/tx/garland/5370-north-garland-avenue'}
Raising Cane's,C173,Raising Cane's Chicken Fingers,120 W. FM 544,Murphy,TX,75094,US,33.011187623011374,-96.61466038773153,+19725091342,{'url': 'https://locations.raisingcanes.com/tx/murphy/120-w.-fm-544'}
Raising Cane's,C155,Raising Cane's Chicken Fingers,320 South Plano Rd.,Richardson,TX,75081,US,32.942818878267055,-96.70045881352452,+19724799413,{'url': 'https://locations.raisingcanes.com/tx/richardson/320-south-plano-rd.'}
Raising Cane's,C332,Raising Cane's Chicken Fingers,6730 FM 1488 Road,Magnolia,TX,77354,US,30.221344827391682,-95.56872187431613,+12812598324,{'url': 'https://locations.raisingcanes.com/tx/magnolia/6730-fm-1488-road'}
Raising Cane's,C85,Raising Cane's Chicken Fingers,1000 West 15th Street,Plano,TX,75075,US,33.01875895853408,-96.71599166153192,+19724227084,{'url': 'https://locations.raisingcanes.com/tx/plano/1000-west-15th-street'}
Raising Cane's,C280,Raising Cane's Chicken Fingers,6010 K Avenue,Plano,TX,75074,US,33.05656540312595,-96.68915838480488,+12142994700,{'url': 'https://locations.raisingcanes.com/tx/plano/6010-k-avenue'}
Raising Cane's,C33,Raising Cane's Chicken Fingers,659 N. Service Rd. East,Ruston,LA,71270,US,32.54108234720463,-92.62952937607479,+13182540354,{'url': 'https://locations.raisingcanes.com/la/ruston/659-n.-service-rd.-east'}
Raising Cane's,C96,Raising Cane's Chicken Fingers,"190 E. Stacy Road, Building 800",Allen,TX,75002,US,33.129204168475134,-96.65254177253644,+12143837501,{'url': 'https://locations.raisingcanes.com/tx/allen/190-e.-stacy-road-building-800'}
Raising Cane's,C43,Raising Cane's Chicken Fingers,7651 Campbell Road,Dallas,TX,75248,US,32.97867548134417,-96.76863504926347,+19724070007,{'url': 'https://locations.raisingcanes.com/tx/dallas/7651-campbell-road'}
Raising Cane's,C123,Raising Cane's Chicken Fingers,1902 N. Central Expressway,McKinney,TX,75069,US,33.2173266044888,-96.6352610670139,+12144914128,{'url': 'https://locations.raisingcanes.com/tx/mckinney/1902-n.-central-expressway'}
Raising Cane's,C532,Raising Cane's Chicken Fingers,6060 Coit Road,Plano,TX,75023,US,33.0556514108103,-96.76984452468602,+19725990007,{'url': 'https://locations.raisingcanes.com/tx/plano/6060-coit-road'}
Raising Cane's,C27,Raising Cane's Chicken Fingers,206 Thomas Road,West Monroe,LA,71291,US,32.51173953230798,-92.15794204926348,+13183223118,{'url': 'https://locations.raisingcanes.com/la/west-monroe/206-thomas-road'}
Raising Cane's,C40,Raising Cane's Chicken Fingers,2761 Louisville Ave,Monroe,LA,71201,US,32.52491225079719,-92.09547333817784,+13184101956,{'url': 'https://locations.raisingcanes.com/la/monroe/2761-louisville-ave'}
Raising Cane's,C688,Raising Cane's Chicken Fingers,7395 South Siwell Road,Byram,MS,39272,US,32.1876962,-90.2636709,+16019093527,{'url': 'https://locations.raisingcanes.com/ms/byram/7395-south-siwell-road'}
Raising Cane's,C30,Raising Cane's Chicken Fingers,930 E. County Line Road,Ridgeland,MS,39157,US,32.39987034840457,-90.13801076482463,+16019093530,{'url': 'https://locations.raisingcanes.com/ms/ridgeland/930-e.-county-line-road'}
Raising Cane's,C19,Raising Cane's Chicken Fingers,202 E. Layfair Dr,Flowood,MS,39232,US,32.331359855695695,-90.10539880731018,+16019339713,{'url': 'https://locations.raisingcanes.com/ms/flowood/202-e.-layfair-dr'}
Raising Cane's,C322,Raising Cane's Chicken Fingers,157 Grandview Blvd,Madison,MS,39110,US,32.46241420810804,-90.13500791025685,+16016052609,{'url': 'https://locations.raisingcanes.com/ms/madison/157-grandview-blvd'}
Raising Cane's,C52,Raising Cane's Chicken Fingers,2625 N. Hills St.,Meridian,MS,39305,US,32.408635825583715,-88.70557968484543,+16014833211,{'url': 'https://locations.raisingcanes.com/ms/meridian/2625-n.-hills-st.'}
Raising Cane's,ARA4,Raising Cane's Chicken Fingers,210 Mc Corvey Drive,Tuscaloosa,AL,35487,US,33.21641018685929,-87.54640867913322,+12053488577,{'url': 'https://locations.raisingcanes.com/al/tuscaloosa/210-mc-corvey-drive'}
Raising Cane's,C718,Raising Cane's Chicken Fingers,3966 North Gloster Street,Tupelo,MS,38804,US,34.3108801,-88.706375,+16017185477,{'url': 'https://locations.raisingcanes.com/ms/tupelo/3966-north-gloster-street'}
Raising Cane's,C1183,Raising Cane's Chicken Fingers,1842 Jonesboro Road,McDonough,GA,30253,US,33.46489481956952,-84.21534237296137,+14782579391,{'url': 'https://locations.raisingcanes.com/ga/mcdonough/1842-jonesboro-road'}
Raising Cane's,ARA6,Raising Cane's Chicken Fingers,900 Hill Dr.,University,MS,38677,US,34.3634041,-89.5355891,+16629156690,{'url': 'https://locations.raisingcanes.com/ms/university/900-hill-dr.'}
Raising Cane's,C966,Raising Cane's Chicken Fingers,9893 Georgia Highway 92,Woodstock,GA,30188,US,34.0865012036404,-84.52326079160864,+17708712176,{'url': 'https://locations.raisingcanes.com/ga/woodstock/9893-georgia-highway-92'}
Raising Cane's,C1069,Raising Cane's Chicken Fingers,1416 Scenic Highway,Snellville,GA,30078,US,33.89332,-84.00706699999999,+17623323142,"{'url': 'https://locations.raisingcanes.com/ga/snellville/1416-scenic-highway', 'displayUrl': 'https://locations.raisingcanes.com/ga/snellville/1416-scenic-highway'}"
Raising Cane's,C1123,Raising Cane's Chicken Fingers,2110 Pleasant Hill Road,Duluth,GA,30096,US,33.95755271326963,-84.1329068833774,+14782579389,{'url': 'https://locations.raisingcanes.com/ga/duluth/2110-pleasant-hill-road'}
Raising Cane's,C839,Raising Cane's Chicken Fingers,3300 Buford Drive,Buford,GA,30519,US,34.0692606965893,-83.98615984804009,+17708712171,{'url': 'https://locations.raisingcanes.com/ga/buford/3300-buford-drive'}
Raising Cane's,C880,Raising Cane's Chicken Fingers,3485 Braselton Highway,Dacula,GA,30019,US,34.07036340974463,-83.91385776357899,+17708712147,{'url': 'https://locations.raisingcanes.com/ga/dacula/3485-braselton-highway'}
Raising Cane's,C164,Raising Cane's Chicken Fingers,795 Baxter Street,Athens,GA,30605,US,33.94929003897624,-83.38590903013412,+17065482008,{'url': 'https://locations.raisingcanes.com/ga/athens/795-baxter-street'}
Raising Cane's,ARA7,Raising Cane's Chicken Fingers,511 Fort Hill Street,Clemson,SC,29634,US,34.67877315389242,-82.83971491853444,+18646569477,{'url': 'https://locations.raisingcanes.com/sc/clemson/511-fort-hill-street'}
Raising Cane's,C655,Raising Cane's Chicken Fingers,9490 Dorchester Rd.,Summerville,SC,29485,US,32.93467297590454,-80.13986971835043,+18438510600,{'url': 'https://locations.raisingcanes.com/sc/summerville/9490-dorchester-rd.'}
Raising Cane's,C654,Raising Cane's Chicken Fingers,"7225 Rivers Avenue, Bldg. 100",North Charleston,SC,29406,US,32.93181705724141,-80.0372871024867,+18435737995,{'url': 'https://locations.raisingcanes.com/sc/north-charleston/7225-rivers-avenue-bldg.-100'}
Raising Cane's,C653,Raising Cane's Chicken Fingers,1777 N. HWY 17,Mt. Pleasant,SC,29464,US,32.82711558979151,-79.83586979281472,+18436062999,{'url': 'https://locations.raisingcanes.com/sc/mt.-pleasant/1777-n.-hwy-17'}
Raising Cane's,ELPX5,Raising Cane's Chicken Fingers,1220 Holcomb Blvd,Camp Lejeune,NC,28547,US,34.67199233400805,-77.33655387850419,+19107879021,{'url': 'https://locations.raisingcanes.com/nc/camp-lejeune/1220-holcomb-blvd'}
Raising Cane's,C684,Raising Cane's Chicken Fingers,485 East Betteravia Road,Santa Maria,CA,93454,US,34.924140680744706,-120.42605580141306,+18056092923,{'url': 'https://locations.raisingcanes.com/ca/santa-maria/485-east-betteravia-road'}
Raising Cane's,C472,Raising Cane's Chicken Fingers,11403 Stockdale Highway,Bakersfield,CA,93311,US,35.34881515379599,-119.12857057729816,+16616642500,{'url': 'https://locations.raisingcanes.com/ca/bakersfield/11403-stockdale-highway'}
Raising Cane's,C518,Raising Cane's Chicken Fingers,6312 Panama Lane,Bakersfield,CA,93313,US,35.29645538624775,-119.07306270815896,+16616640108,{'url': 'https://locations.raisingcanes.com/ca/bakersfield/6312-panama-lane'}
Raising Cane's,C357,Raising Cane's Chicken Fingers,3224 Coffee Rd,Bakersfield,CA,93308,US,35.38954559671862,-119.09184056292823,+16615891888,{'url': 'https://locations.raisingcanes.com/ca/bakersfield/3224-coffee-rd'}
Raising Cane's,C389,Raising Cane's Chicken Fingers,4025 California Ave,Bakersfield,CA,93309,US,35.36694187419235,-119.04732407257697,+16618630135,{'url': 'https://locations.raisingcanes.com/ca/bakersfield/4025-california-ave'}
Raising Cane's,C562,Raising Cane's Chicken Fingers,1765 West Lacey Boulevard,Hanford,CA,93230,US,36.32773234297773,-119.67456346590963,+15595822850,{'url': 'https://locations.raisingcanes.com/ca/hanford/1765-west-lacey-boulevard'}
Raising Cane's,C845,Raising Cane's Chicken Fingers,2398 Evergreen Place,San Jose,CA,95122,US,37.3192749,-121.8085903,+14086203343,{'url': 'https://locations.raisingcanes.com/ca/san-jose/2398-evergreen-place'}
Raising Cane's,C596,Raising Cane's Chicken Fingers,1579 East Prosperity Avenue,Tulare,CA,93274,US,36.22540894743093,-119.32385529711388,+15596855301,{'url': 'https://locations.raisingcanes.com/ca/tulare/1579-east-prosperity-avenue'}
Raising Cane's,C563,Raising Cane's Chicken Fingers,3541 South Mooney Boulevard,Visalia,CA,93277,US,36.29880473020321,-119.31427934224328,+15596256010,{'url': 'https://locations.raisingcanes.com/ca/visalia/3541-south-mooney-boulevard'}
Raising Cane's,C902,Raising Cane's Chicken Fingers,6791 North Weber Ave,Fresno,CA,93722,US,36.83407401956682,-119.91265574235508,+15596507262,"{'url': 'https://locations.raisingcanes.com/ca/fresno/6791-north-weber-ave', 'displayUrl': 'https://locations.raisingcanes.com/ca/fresno/6791-north-weber-ave'}"
Raising Cane's,C796,Raising Cane's Chicken Fingers,4981 East Kings Canyon Rd,Fresno,CA,93727,US,36.73618589234523,-119.72874060833145,+15596507264,"{'url': 'https://locations.raisingcanes.com/ca/fresno/4981-east-kings-canyon-rd', 'displayUrl': 'https://locations.raisingcanes.com/ca/fresno/4981-east-kings-canyon-rd'}"
Raising Cane's,C1071,Raising Cane's Chicken Fingers,542 W Riggin Ave,Visalia,CA,93291,US,36.35840950226612,-119.29727505812468,+15596507267,{'url': 'https://locations.raisingcanes.com/ca/visalia/542-w-riggin-ave'}
Raising Cane's,C561,Raising Cane's Chicken Fingers,7507 North Blackstone Avenue,Fresno,CA,93711,US,36.84574465009341,-119.79114835299477,+15596507290,{'url': 'https://locations.raisingcanes.com/ca/fresno/7507-north-blackstone-avenue'}
Raising Cane's,C608,Raising Cane's Chicken Fingers,1055 Shaw Avenue,Clovis,CA,93612,US,36.80890607195244,-119.6959473679729,+15596507286,{'url': 'https://locations.raisingcanes.com/ca/clovis/1055-shaw-avenue'}
Raising Cane's,C702,Raising Cane's Chicken Fingers,1109 West Rancho Vista Blvd,Palmdale,CA,93551,US,34.6018728,-118.1494577,+16612824944,{'url': 'https://locations.raisingcanes.com/ca/palmdale/1109-west-rancho-vista-blvd'}
Raising Cane's,C685,Raising Cane's Chicken Fingers,945 West Huntington Drive,Monrovia,CA,91016,US,34.14054636872609,-118.02025882472655,+16268046915,{'url': 'https://locations.raisingcanes.com/ca/monrovia/945-west-huntington-drive'}
Raising Cane's,C386,Raising Cane's Chicken Fingers,13602 Francisquito Avenue,Baldwin Park,CA,91706,US,34.07064543091079,-117.97761372601114,+16263373962,{'url': 'https://locations.raisingcanes.com/ca/baldwin-park/13602-francisquito-avenue'}
Raising Cane's,C380,Raising Cane's Chicken Fingers,855 E Alosta Ave,Azusa,CA,91702,US,34.129272608693675,-117.89118748362206,+16262579940,{'url': 'https://locations.raisingcanes.com/ca/azusa/855-e-alosta-ave'}
Raising Cane's,C407,Raising Cane's Chicken Fingers,1420 South Azusa Avenue,City of Industry,CA,91748,US,33.99601947500803,-117.93047168216808,+16265372557,{'url': 'https://locations.raisingcanes.com/ca/city-of-industry/1420-south-azusa-avenue'}
Raising Cane's,C399,Raising Cane's Chicken Fingers,1231 S Lone Hill Ave,Glendora,CA,91740,US,34.1167603137376,-117.83186197932288,+19093940864,{'url': 'https://locations.raisingcanes.com/ca/glendora/1231-s-lone-hill-ave'}
Raising Cane's,C330,Raising Cane's Chicken Fingers,1437 N Mountain Ave,Ontario,CA,91762,US,34.08413832101656,-117.67064901178853,+19093950006,{'url': 'https://locations.raisingcanes.com/ca/ontario/1437-n-mountain-ave'}
Raising Cane's,C612,Raising Cane's Chicken Fingers,13263 Main St.,Hesperia,CA,92345,US,34.42625104174283,-117.37339385894632,+17609723797,{'url': 'https://locations.raisingcanes.com/ca/hesperia/13263-main-st.'}
Raising Cane's,C349,Raising Cane's Chicken Fingers,16988 S. Highland Ave,Fontana,CA,92336,US,34.13407307477645,-117.43431675478601,+19094270455,{'url': 'https://locations.raisingcanes.com/ca/fontana/16988-s.-highland-ave'}
Raising Cane's,C584,Raising Cane's Chicken Fingers,2620 Fisher Blvd,Barstow,CA,92311,US,34.853597540484294,-117.08352073147246,+17602532547,{'url': 'https://locations.raisingcanes.com/ca/barstow/2620-fisher-blvd'}
Raising Cane's,C292,Raising Cane's Chicken Fingers,1857 S. Tippecanoe Avenue,San Bernardino,CA,92408,US,34.06727879920232,-117.2606206382184,+19094780001,{'url': 'https://locations.raisingcanes.com/ca/san-bernardino/1857-s.-tippecanoe-avenue'}
Raising Cane's,C410,Raising Cane's Chicken Fingers,1435 West Lugonia Avenue,Redlands,CA,92374,US,34.06967734130106,-117.2052110817291,+19097487239,{'url': 'https://locations.raisingcanes.com/ca/redlands/1435-west-lugonia-avenue'}
Raising Cane's,C329,Raising Cane's Chicken Fingers,4360 Mills Circle,Ontario,CA,91764,US,34.07149207572464,-117.55698497664555,+19094760327,{'url': 'https://locations.raisingcanes.com/ca/ontario/4360-mills-circle'}
Raising Cane's,C281,Raising Cane's Chicken Fingers,183 E. Foothill Blvd.,Upland,CA,91786,US,34.10736592133349,-117.64885936128891,+19095790384,{'url': 'https://locations.raisingcanes.com/ca/upland/183-e.-foothill-blvd.'}
Raising Cane's,C434,Raising Cane's Chicken Fingers,3023 Saint Rose Pkwy,Henderson,NV,89052,US,36.00324620692708,-115.11834327380036,+17257773644,{'url': 'https://locations.raisingcanes.com/nv/henderson/3023-saint-rose-pkwy'}
Raising Cane's,C890,Raising Cane's Chicken Fingers,106 Lake Mead Parkway,Henderson,NV,89015,US,36.03758475239198,-114.98632396961068,+17028546935,{'url': 'https://locations.raisingcanes.com/nv/henderson/106-lake-mead-parkway'}
Raising Cane's,C441,Raising Cane's Chicken Fingers,110 N. Stephanie St.,Henderson,NV,89074,US,36.03504618862488,-115.04635990938233,+17029712388,{'url': 'https://locations.raisingcanes.com/nv/henderson/110-n.-stephanie-st.'}
Raising Cane's,C422,Raising Cane's Chicken Fingers,7550 S. Las Vegas Blvd,Las Vegas,NV,89123,US,36.05247364355341,-115.17150757141479,+17024343644,{'url': 'https://locations.raisingcanes.com/nv/las-vegas/7550-s.-las-vegas-blvd'}
Raising Cane's,C1019,Raising Cane's Chicken Fingers,6440 S Eastern Ave,Las Vegas,NV,89119,US,36.072953408673584,-115.11830358799614,+17024481503,{'url': 'https://locations.raisingcanes.com/nv/las-vegas/6440-s-eastern-ave'}
Raising Cane's,C425,Raising Cane's Chicken Fingers,7135 S. Rainbow Blvd,Las Vegas,NV,89118,US,36.05870650801116,-115.2433655155339,+17022332263,{'url': 'https://locations.raisingcanes.com/nv/las-vegas/7135-s.-rainbow-blvd'}
Raising Cane's,C620,Raising Cane's Chicken Fingers,3791 South Las Vegas Blvd,Las Vegas,NV,89109,US,36.10275105569424,-115.17239056919625,+17029313605,{'url': 'https://locations.raisingcanes.com/nv/las-vegas/3791-south-las-vegas-blvd'}
Raising Cane's,C439,Raising Cane's Chicken Fingers,3535 W Tropicana Ave,Las Vegas,NV,89103,US,36.10053890958102,-115.18682956827784,+17025504395,{'url': 'https://locations.raisingcanes.com/nv/las-vegas/3535-w-tropicana-ave'}
Raising Cane's,C423,Raising Cane's Chicken Fingers,1120 East Flamingo Road,Las Vegas,NV,89119,US,36.114965961516546,-115.13981041675729,+17024532263,{'url': 'https://locations.raisingcanes.com/nv/las-vegas/1120-east-flamingo-road'}
Raising Cane's,C994,Raising Cane's Chicken Fingers,4460 East Charleston Boulevard,Las Vegas,NV,89104,US,36.1590829,-115.0782571,+17029313614,{'url': 'https://locations.raisingcanes.com/nv/las-vegas/4460-east-charleston-boulevard'}
Raising Cane's,C455,Raising Cane's Chicken Fingers,180 North Nellis Boulevard,Las Vegas,NV,89110,US,36.162387287025894,-115.06176799707332,+17023311135,{'url': 'https://locations.raisingcanes.com/nv/las-vegas/180-north-nellis-boulevard'}
Raising Cane's,C421,Raising Cane's Chicken Fingers,4655 W. Charleston Blvd.,Las Vegas,NV,89102,US,36.15860330675774,-115.20423862768736,+17022942263,{'url': 'https://locations.raisingcanes.com/nv/las-vegas/4655-w.-charleston-blvd.'}
Raising Cane's,C444,Raising Cane's Chicken Fingers,10050 W Sahara Ave,Las Vegas,NV,89117,US,36.14586545133524,-115.31386395430499,+17024892555,{'url': 'https://locations.raisingcanes.com/nv/las-vegas/10050-w-sahara-ave'}
Raising Cane's,C429,Raising Cane's Chicken Fingers,1915 Rock Springs Dr,Las Vegas,NV,89128,US,36.1943292458076,-115.24720402594994,+17029822263,{'url': 'https://locations.raisingcanes.com/nv/las-vegas/1915-rock-springs-dr'}
Raising Cane's,C436,Raising Cane's Chicken Fingers,1950 E. Craig Rd.,Las Vegas,NV,89030,US,36.240266606733954,-115.1216102917643,+17029124890,{'url': 'https://locations.raisingcanes.com/nv/las-vegas/1950-e.-craig-rd.'}
Raising Cane's,C875,Raising Cane's Chicken Fingers,3737 W. Craig Rd,North Las Vegas,NV,89032,US,36.23882182331989,-115.19000618358152,+17252303822,{'url': 'https://locations.raisingcanes.com/nv/north-las-vegas/3737-w.-craig-rd'}
Raising Cane's,C446,Raising Cane's Chicken Fingers,6051 N. Decatur Blvd.,Las Vegas,NV,89130,US,36.26974791634274,-115.20725160437382,+17025227177,{'url': 'https://locations.raisingcanes.com/nv/las-vegas/6051-n.-decatur-blvd.'}
Raising Cane's,C915,Raising Cane's Chicken Fingers,6750 N. 5th St.,North Las Vegas,NV,89086,US,36.2817686,-115.1347603,+17029313872,"{'url': 'https://locations.raisingcanes.com/nv/north-las-vegas/6750-n.-5th-st.', 'displayUrl': 'https://locations.raisingcanes.com/nv/north-las-vegas/6750-n.-5th-st.'}"
Raising Cane's,C424,Raising Cane's Chicken Fingers,5660 Centennial Center Blvd.,Las Vegas,NV,89149,US,36.2649823761777,-115.25668360018967,+17028782263,{'url': 'https://locations.raisingcanes.com/nv/las-vegas/5660-centennial-center-blvd.'}
Raising Cane's,C442,Raising Cane's Chicken Fingers,1551 S. Milton Rd.,Flagstaff,AZ,86001,US,35.18521935678826,-111.66194663210155,+19284405400,{'url': 'https://locations.raisingcanes.com/az/flagstaff/1551-s.-milton-rd.'}
Raising Cane's,C868,Raising Cane's Chicken Fingers,2006 Southern Boulevard Southeast,Rio Rancho,NM,87124,US,35.240977856766236,-106.69607937276494,+15053138625,"{'url': 'https://locations.raisingcanes.com/nm/rio-rancho/2006-southern-boulevard-southeast', 'displayUrl': 'https://locations.raisingcanes.com/nm/rio-rancho/2006-southern-boulevard-southeast'}"
Raising Cane's,C852,Raising Cane's Chicken Fingers,4800 Montgomery Blvd NE,Albuquerque,NM,87110,US,35.130626779210694,-106.58937157598331,+15053138621,{'url': 'https://locations.raisingcanes.com/nm/albuquerque/4800-montgomery-blvd-ne'}
Raising Cane's,C705,Raising Cane's Chicken Fingers,2004 Wyoming Blvd. Northeast,Albuquerque,NM,87112,US,35.1041001377235,-106.55022241104507,+15053138622,{'url': 'https://locations.raisingcanes.com/nm/albuquerque/2004-wyoming-blvd.-northeast'}
Raising Cane's,C293,Raising Cane's Chicken Fingers,4700 S Coulter St.,Amarillo,TX,79124,US,35.159605120868115,-101.92068915765478,+18063567403,{'url': 'https://locations.raisingcanes.com/tx/amarillo/4700-s-coulter-st.'}
Raising Cane's,C498,Raising Cane's Chicken Fingers,2812 S Georgia St,Amarillo,TX,79109,US,35.18282482283084,-101.86683462583493,+18063560140,{'url': 'https://locations.raisingcanes.com/tx/amarillo/2812-s-georgia-st'}
Raising Cane's,C369,Raising Cane's Chicken Fingers,805 NW Sheridan Rd,Lawton,OK,73505,US,34.61812689152449,-98.4217821059004,+15803573981,{'url': 'https://locations.raisingcanes.com/ok/lawton/805-nw-sheridan-rd'}
Raising Cane's,C197,Raising Cane's Chicken Fingers,1127 Garth Brooks Blvd,Yukon,OK,73099,US,35.490975338940025,-97.75966936705446,+14053503130,{'url': 'https://locations.raisingcanes.com/ok/yukon/1127-garth-brooks-blvd'}
Raising Cane's,C559,Raising Cane's Chicken Fingers,3617 W. Main Street,Norman,OK,73072,US,35.218750048417554,-97.49546132134584,+14053602201,{'url': 'https://locations.raisingcanes.com/ok/norman/3617-w.-main-street'}
Raising Cane's,C396,Raising Cane's Chicken Fingers,200 South MacArthur Boulevard,Oklahoma City,OK,73128,US,35.46380263739688,-97.61839171675729,+14059495549,{'url': 'https://locations.raisingcanes.com/ok/oklahoma-city/200-south-macarthur-boulevard'}
Raising Cane's,C172,Raising Cane's Chicken Fingers,1613 W I 240 Service Rd,Oklahoma City,OK,73159,US,35.39202949462584,-97.54587911920405,+14056809103,{'url': 'https://locations.raisingcanes.com/ok/oklahoma-city/1613-w-i-240-service-rd'}
Raising Cane's,C102,Raising Cane's Chicken Fingers,700 SW 19th Street,Moore,OK,73160,US,35.319330660588705,-97.49919316583107,+14057937037,{'url': 'https://locations.raisingcanes.com/ok/moore/700-sw-19th-street'}
Raising Cane's,C145,Raising Cane's Chicken Fingers,7234 NW Expressway,Oklahoma City,OK,73132,US,35.558647602550636,-97.64110765438187,+14057201175,{'url': 'https://locations.raisingcanes.com/ok/oklahoma-city/7234-nw-expressway'}
Raising Cane's,C901,Raising Cane's Chicken Fingers,765 Asp Ave,Norman,OK,73069,US,35.211832402113956,-97.4435021538232,+14052541996,{'url': 'https://locations.raisingcanes.com/ok/norman/765-asp-ave'}
Raising Cane's,C557,Raising Cane's Chicken Fingers,1130 Alameda St,Norman,OK,73071,US,35.21796560778292,-97.42473228284516,+14053079618,{'url': 'https://locations.raisingcanes.com/ok/norman/1130-alameda-st'}
Raising Cane's,C150,Raising Cane's Chicken Fingers,2036 NW 23rd. St.,Oklahoma City,OK,73106,US,35.49300187606924,-97.54725747474941,+14055210131,{'url': 'https://locations.raisingcanes.com/ok/oklahoma-city/2036-nw-23rd.-st.'}
Raising Cane's,C318,Raising Cane's Chicken Fingers,6340 North May Ave.,Oklahoma City,OK,73112,US,35.53613238923117,-97.56517017687615,+14058483511,{'url': 'https://locations.raisingcanes.com/ok/oklahoma-city/6340-north-may-ave.'}
Raising Cane's,C121,Raising Cane's Chicken Fingers,14100 N. Pennsylvania Ave.,Oklahoma City,OK,73134,US,35.61387183924112,-97.54902130891257,+14057539209,{'url': 'https://locations.raisingcanes.com/ok/oklahoma-city/14100-n.-pennsylvania-ave.'}
Raising Cane's,C216,Raising Cane's Chicken Fingers,2800 S. Airport Depot Blvd,Midwest City,OK,73110,US,35.459098615449854,-97.40559288771419,+14058697127,{'url': 'https://locations.raisingcanes.com/ok/midwest-city/2800-s.-airport-depot-blvd'}
Raising Cane's,C120,Raising Cane's Chicken Fingers,1225 East 2nd St,Edmond,OK,73034,US,35.65333016268011,-97.46440138769061,+14058444192,{'url': 'https://locations.raisingcanes.com/ok/edmond/1225-east-2nd-st'}
Raising Cane's,C174,Raising Cane's Chicken Fingers,2705 West University Dr.,Denton,TX,76201,US,33.22925397349323,-97.16717278882439,+19405665602,{'url': 'https://locations.raisingcanes.com/tx/denton/2705-west-university-dr.'}
Raising Cane's,C325,Raising Cane's Chicken Fingers,1507 South Loop 288,Denton,TX,76205,US,33.1929086862741,-97.09520531927346,+19403200009,{'url': 'https://locations.raisingcanes.com/tx/denton/1507-south-loop-288'}
Raising Cane's,C626,Raising Cane's Chicken Fingers,11620 US-380,Cross Roads,TX,76227,US,33.2258081,-96.9850945,+19403659756,{'url': 'https://locations.raisingcanes.com/tx/cross-roads/11620-us-380'}
Raising Cane's,C70,Raising Cane's Chicken Fingers,3205 Justin Rd.,Flower Mound,TX,75028,US,33.07252244806443,-97.07985693001851,+19728740359,{'url': 'https://locations.raisingcanes.com/tx/flower-mound/3205-justin-rd.'}
Raising Cane's,C83,Raising Cane's Chicken Fingers,1026 West Main St.,Lewisville,TX,75067,US,33.0428526912106,-97.01639616583108,+19722199131,{'url': 'https://locations.raisingcanes.com/tx/lewisville/1026-west-main-st.'}
Raising Cane's,C408,Raising Cane's Chicken Fingers,4760 W University Dr.,Prosper,TX,75078,US,33.21966812488838,-96.87919768484544,+19724331350,{'url': 'https://locations.raisingcanes.com/tx/prosper/4760-w-university-dr.'}
Raising Cane's,C674,Raising Cane's Chicken Fingers,3700 N Hwy 75,Sherman,TX,75092,US,33.67772088302689,-96.61018910412743,+19038130023,{'url': 'https://locations.raisingcanes.com/tx/sherman/3700-n-hwy-75'}
Raising Cane's,C339,Raising Cane's Chicken Fingers,317 North Perkins Rd.,Stillwater,OK,74075,US,36.12651624271549,-97.05081782816609,+14053722717,{'url': 'https://locations.raisingcanes.com/ok/stillwater/317-north-perkins-rd.'}
Raising Cane's,C409,Raising Cane's Chicken Fingers,5688 FM 423,Frisco,TX,75034,US,33.12634148545606,-96.89043432449598,+12144946094,{'url': 'https://locations.raisingcanes.com/tx/frisco/5688-fm-423'}
Raising Cane's,C21,Raising Cane's Chicken Fingers,720 Hebron Pkwy,Lewisville,TX,75057,US,33.00933359013868,-96.96856856827785,+12144884488,{'url': 'https://locations.raisingcanes.com/tx/lewisville/720-hebron-pkwy'}
Raising Cane's,C82,Raising Cane's Chicken Fingers,5220 Eldorado Parkway,Frisco,TX,75034,US,33.17556362955343,-96.84122529711388,+12144944558,{'url': 'https://locations.raisingcanes.com/tx/frisco/5220-eldorado-parkway'}
Raising Cane's,C81,Raising Cane's Chicken Fingers,3890 Preston Rd,Frisco,TX,75034,US,33.11098228202296,-96.80508168788067,+12144944470,{'url': 'https://locations.raisingcanes.com/tx/frisco/3890-preston-rd'}
Raising Cane's,C156,Raising Cane's Chicken Fingers,6311 Custer Rd,Frisco,TX,75035,US,33.12919883304458,-96.73391473386474,+19729083956,{'url': 'https://locations.raisingcanes.com/tx/frisco/6311-custer-rd'}
Raising Cane's,C198,Raising Cane's Chicken Fingers,3851 Plano Pkwy,The Colony,TX,75056,US,33.070239590425764,-96.8751252038598,+12144946291,{'url': 'https://locations.raisingcanes.com/tx/the-colony/3851-plano-pkwy'}
Raising Cane's,C69,Raising Cane's Chicken Fingers,6513 W. Park Blvd.,Plano,TX,75093,US,33.02641257901407,-96.84286736705445,+19724732019,{'url': 'https://locations.raisingcanes.com/tx/plano/6513-w.-park-blvd.'}
Raising Cane's,C507,Raising Cane's Chicken Fingers,2672 Old Denton Road,Carrollton,TX,75007,US,32.986697875085575,-96.90913598834324,+19723465281,{'url': 'https://locations.raisingcanes.com/tx/carrollton/2672-old-denton-road'}
Raising Cane's,C471,Raising Cane's Chicken Fingers,7501 Rogers Avenue,Fort Smith,AR,72903,US,35.35268392196465,-94.34982382514858,+14792599227,{'url': 'https://locations.raisingcanes.com/ar/fort-smith/7501-rogers-avenue'}
Raising Cane's,C254,Raising Cane's Chicken Fingers,1788 M.L.K. Jr. Blvd,Fayetteville,AR,72701,US,36.05697010756407,-94.18592450385981,+14794443320,{'url': 'https://locations.raisingcanes.com/ar/fayetteville/1788-m.l.k.-jr.-blvd'}
Raising Cane's,C195,Raising Cane's Chicken Fingers,859 East Millsap Rd.,Fayetteville,AR,72703,US,36.11432182446344,-94.14548805518444,+14794431774,{'url': 'https://locations.raisingcanes.com/ar/fayetteville/859-east-millsap-rd.'}
Raising Cane's,C143,Raising Cane's Chicken Fingers,10255 S. Memorial Dr.,Bixby,OK,74133,US,36.01469419229894,-95.88577628239871,+19188791918,{'url': 'https://locations.raisingcanes.com/ok/bixby/10255-s.-memorial-dr.'}
Raising Cane's,C131,Raising Cane's Chicken Fingers,1100 N. 9th St.,Broken Arrow,OK,74012,US,36.06212079860925,-95.78020357729817,+19182590213,{'url': 'https://locations.raisingcanes.com/ok/broken-arrow/1100-n.-9th-st.'}
Raising Cane's,C270,Raising Cane's Chicken Fingers,10707 East 71st Street,Tulsa,OK,74133,US,36.0614163,-95.8579564,+19188791937,{'url': 'https://locations.raisingcanes.com/ok/tulsa/10707-east-71st-street'}
Raising Cane's,C130,Raising Cane's Chicken Fingers,4810 S. Yale Avenue,Tulsa,OK,74135,US,36.092908573233856,-95.92283455454226,+19184779354,{'url': 'https://locations.raisingcanes.com/ok/tulsa/4810-s.-yale-avenue'}
Raising Cane's,C488,Raising Cane's Chicken Fingers,1019 W 71st St S,Tulsa,OK,74132,US,36.06158517890527,-96.00363236705445,+15398672109,{'url': 'https://locations.raisingcanes.com/ok/tulsa/1019-w-71st-st-s'}
Raising Cane's,C930,Raising Cane's Chicken Fingers,3647 South Peoria Avenue,Tulsa,OK,74105,US,36.11002504329281,-95.9750899955016,+19188791921,{'url': 'https://locations.raisingcanes.com/ok/tulsa/3647-south-peoria-avenue'}
Raising Cane's,C248,Raising Cane's Chicken Fingers,4200 West Walnut St.,Rogers,AR,72758,US,36.33438242500104,-94.17703936149135,+14796360160,{'url': 'https://locations.raisingcanes.com/ar/rogers/4200-west-walnut-st.'}
Raising Cane's,C355,Raising Cane's Chicken Fingers,1402 South Walton Blvd,Bentonville,AR,72712,US,36.35640015639904,-94.21344390378918,+14794640607,{'url': 'https://locations.raisingcanes.com/ar/bentonville/1402-south-walton-blvd'}
Raising Cane's,C151,Raising Cane's Chicken Fingers,13301 E. 96th St. North,Owasso,OK,74133,US,36.29341284555505,-95.82665103775058,+19183769426,{'url': 'https://locations.raisingcanes.com/ok/owasso/13301-e.-96th-st.-north'}
Raising Cane's,C499,Raising Cane's Chicken Fingers,620 South University Avenue,Little Rock,AR,72205,US,34.746488509797636,-92.34180260921002,+15012650163,{'url': 'https://locations.raisingcanes.com/ar/little-rock/620-south-university-avenue'}
Raising Cane's,C527,Raising Cane's Chicken Fingers,916 East Oak Street,Conway,AR,72032,US,35.09184811666494,-92.41763639036796,+15015042214,{'url': 'https://locations.raisingcanes.com/ar/conway/916-east-oak-street'}
Raising Cane's,C414,Raising Cane's Chicken Fingers,4311 E. McCain Blvd.,Little Rock,AR,72117,US,34.78964107775141,-92.21621303654783,+15019458068,{'url': 'https://locations.raisingcanes.com/ar/little-rock/4311-e.-mccain-blvd.'}
Raising Cane's,C1205,Raising Cane's Chicken Fingers,357 Goodman Road W,Southaven,MS,38671,US,34.96188,-89.99683979999999,+16622053175,{'url': 'https://locations.raisingcanes.com/ms/southaven/357-goodman-road-w'}
Raising Cane's,C513,Raising Cane's Chicken Fingers,321 W. Sunshine Street,Springfield,MO,65807,US,37.182609201612856,-93.29463404066514,+14178653378,{'url': 'https://locations.raisingcanes.com/mo/springfield/321-w.-sunshine-street'}
Raising Cane's,C739,Raising Cane's Chicken Fingers,1237 South Rangeline Road,Joplin,MO,64801,US,37.07677050996353,-94.47710764135536,+14175227889,{'url': 'https://locations.raisingcanes.com/mo/joplin/1237-south-rangeline-road'}
Raising Cane's,C1046,Raising Cane's Chicken Fingers,7087 Bakers Bridge Avenue,Franklin,TN,37067,US,35.96139656764186,-86.81467394471964,+16158823064,{'url': 'https://locations.raisingcanes.com/tn/franklin/7087-bakers-bridge-avenue'}
Raising Cane's,C740,Raising Cane's Chicken Fingers,36 White Bridge Pike,Nashville,TN,37205,US,36.12859228119869,-86.8522784239252,+16158823050,{'url': 'https://locations.raisingcanes.com/tn/nashville/36-white-bridge-pike'}
Raising Cane's,C1194,Raising Cane's Chicken Fingers,2792 Wilma Rudolph Blvd,Clarksville,TN,37040,US,36.58725442426286,-87.2951152244819,+19315037802,{'url': 'https://locations.raisingcanes.com/tn/clarksville/2792-wilma-rudolph-blvd'}
Raising Cane's,C822,Raising Cane's Chicken Fingers,212 Broadway,Nashville,TN,37203,US,36.161804322043956,-86.7759536561772,+16158823055,"{'url': 'https://locations.raisingcanes.com/tn/nashville/212-broadway', 'displayUrl': 'https://locations.raisingcanes.com/tn/nashville/212-broadway', 'preferDisplayUrl': False}"
Raising Cane's,C911,Raising Cane's Chicken Fingers,380 Sam Ridley Parkway West,Smyrna,TN,37167,US,35.9878617612529,-86.54824281056516,+16158823100,{'url': 'https://locations.raisingcanes.com/tn/smyrna/380-sam-ridley-parkway-west'}
Raising Cane's,C1067,Raising Cane's Chicken Fingers,2420 Medical Center Parkway,Murfreesboro,TN,37129,US,35.8586902,-86.4402202,+16158823053,{'url': 'https://locations.raisingcanes.com/tn/murfreesboro/2420-medical-center-parkway'}
Raising Cane's,C1184,Raising Cane's Chicken Fingers,5435 TN-153,Hixson,TN,37343,US,35.13961444489887,-85.24909542570526,+14237086557,{'url': 'https://locations.raisingcanes.com/tn/hixson/5435-tn-153'}
Raising Cane's,C988,Raising Cane's Chicken Fingers,200 E Main St,Hendersonville,TN,37075,US,36.308765578631196,-86.60496158222234,+16158823047,{'url': 'https://locations.raisingcanes.com/tn/hendersonville/200-e-main-st'}
Raising Cane's,C798,Raising Cane's Chicken Fingers,1100 Interstate Drive,Cookeville,TN,38501,US,36.137766,-85.505935,+19315037809,{'url': 'https://locations.raisingcanes.com/tn/cookeville/1100-interstate-drive'}
Raising Cane's,C652,Raising Cane's Chicken Fingers,1771 Campbell Ln,Bowling Green,KY,42104,US,36.952464825813024,-86.43174737324985,+12709044794,{'url': 'https://locations.raisingcanes.com/ky/bowling-green/1771-campbell-ln'}
Raising Cane's,C1177,Raising Cane's Chicken Fingers,7723 Kingston Pike,Knoxville,TN,37919,US,35.9281058,-84.0399613,+18652933531,{'url': 'https://locations.raisingcanes.com/tn/knoxville/7723-kingston-pike'}
Raising Cane's,C1035,Raising Cane's Chicken Fingers,1830 Cumberland Avenue,Knoxville,TN,37916,US,35.95520079659193,-83.93506847980949,+18652933233,{'url': 'https://locations.raisingcanes.com/tn/knoxville/1830-cumberland-avenue'}
Raising Cane's,C872,Raising Cane's Chicken Fingers,101 East Franklin Street,Chapel Hill,NC,27514,US,35.9134073,-79.0556971,+19193253092,{'url': 'https://locations.raisingcanes.com/nc/chapel-hill/101-east-franklin-street'}
Raising Cane's,ARA8,Raising Cane's Chicken Fingers,501 E Tenth Street,Greenville,NC,27858,US,35.60566568682059,-77.36928797729816,+12523285647,{'url': 'https://locations.raisingcanes.com/nc/greenville/501-e-tenth-street'}
Raising Cane's,C944,Raising Cane's Chicken Fingers,1304 Greenbrier Parkway,Chesapeake,VA,23320,US,36.77236653756442,-76.22950325065467,+17579563686,{'url': 'https://locations.raisingcanes.com/va/chesapeake/1304-greenbrier-parkway'}
Raising Cane's,ELPX1,Raising Cane's Chicken Fingers,Naval Station Bldg. CD-13,Norfolk,VA,23511,US,36.94210632681052,-76.31283208037395,+17579370421,{'url': 'https://locations.raisingcanes.com/va/norfolk/naval-station-bldg.-cd-13'}
Raising Cane's,C735,Raising Cane's Chicken Fingers,1044 W Mercury Blvd,Hampton,VA,23666,US,37.043282375961425,-76.38313550578164,+17578478358,{'url': 'https://locations.raisingcanes.com/va/hampton/1044-w-mercury-blvd'}
Raising Cane's,C720,Raising Cane's Chicken Fingers,3150 Kiln Creek Parkway,Yorktown,VA,23693,US,37.11724753692573,-76.46460078725164,+17573277086,{'url': 'https://locations.raisingcanes.com/va/yorktown/3150-kiln-creek-parkway'}
Raising Cane's,C701,Raising Cane's Chicken Fingers,12721 Jefferson Davis Highway,Chester,VA,23831,US,37.35234763940524,-77.4117486533556,+18045464805,{'url': 'https://locations.raisingcanes.com/va/chester/12721-jefferson-davis-highway'}
Raising Cane's,C885,Raising Cane's Chicken Fingers,6921 Lake Harbour Drive,Midlothian,VA,23112,US,37.4048862598608,-77.66973700892112,+18044313384,{'url': 'https://locations.raisingcanes.com/va/midlothian/6921-lake-harbour-drive'}
Raising Cane's,C804,Raising Cane's Chicken Fingers,1321 Huguenot Rd,Midlothian,VA,23113,US,37.51023982238502,-77.61304956872809,+18044313238,{'url': 'https://locations.raisingcanes.com/va/midlothian/1321-huguenot-rd'}
Raising Cane's,C700,Raising Cane's Chicken Fingers,3064 North Arthur Ashe Boulevard,Richmond,VA,23230,US,37.573747587546144,-77.4646480466277,+18044826754,{'url': 'https://locations.raisingcanes.com/va/richmond/3064-north-arthur-ashe-boulevard'}
Raising Cane's,C941,Raising Cane's Chicken Fingers,123 Colma Boulevard,Colma,CA,94014,US,37.6771869217411,-122.46620495647639,+15104889302,{'url': 'https://locations.raisingcanes.com/ca/colma/123-colma-boulevard'}
Raising Cane's,C588,Raising Cane's Chicken Fingers,8430 Edgewater Drive,Oakland,CA,94621,US,37.73782203246129,-122.19848616026798,+15105425872,{'url': 'https://locations.raisingcanes.com/ca/oakland/8430-edgewater-drive'}
Raising Cane's,C589,Raising Cane's Chicken Fingers,691 Harder Road,Hayward,CA,94544,US,37.65049821696093,-122.0682419791931,+15107310202,"{'url': 'https://locations.raisingcanes.com/ca/hayward/691-harder-road', 'displayUrl': 'https://locations.raisingcanes.com/ca/hayward/691-harder-road', 'preferDisplayUrl': False}"
Raising Cane's,C721,Raising Cane's Chicken Fingers,1360 Travis Blvd,Fairfield,CA,94533,US,38.259765,-122.0546683,+17072253122,{'url': 'https://locations.raisingcanes.com/ca/fairfield/1360-travis-blvd'}
Raising Cane's,C617,Raising Cane's Chicken Fingers,160 Nut Tree Parkway,Vacaville,CA,95687,US,38.366812349934314,-121.96042236626289,+17073014965,{'url': 'https://locations.raisingcanes.com/ca/vacaville/160-nut-tree-parkway'}
Raising Cane's,C552,Raising Cane's Chicken Fingers,207 E Street,Davis,CA,95616,US,38.543503283449894,-121.74146760018967,+15302977909,{'url': 'https://locations.raisingcanes.com/ca/davis/207-e-street'}
Raising Cane's,C530,Raising Cane's Chicken Fingers,601 W March Lane,Stockton,CA,95207,US,37.99150392975668,-121.31332047254229,+12093079956,{'url': 'https://locations.raisingcanes.com/ca/stockton/601-w-march-lane'}
Raising Cane's,C529,Raising Cane's Chicken Fingers,1311 E Yosemite Avenue,Manteca,CA,95336,US,37.797877167619575,-121.19633950081872,+12098230078,{'url': 'https://locations.raisingcanes.com/ca/manteca/1311-e-yosemite-avenue'}
Raising Cane's,C576,Raising Cane's Chicken Fingers,2370 West Kettleman Lane,Lodi,CA,95242,US,38.11496287716871,-121.30318946946065,+12093079940,{'url': 'https://locations.raisingcanes.com/ca/lodi/2370-west-kettleman-lane'}
Raising Cane's,C570,Raising Cane's Chicken Fingers,9164 East Stockton Boulevard,Elk Grove,CA,95624,US,38.4244461,-121.392111,+19166051803,{'url': 'https://locations.raisingcanes.com/ca/elk-grove/9164-east-stockton-boulevard'}
Raising Cane's,C805,Raising Cane's Chicken Fingers,"3801 Pelandale Avenue, Suite F1",Modesto,CA,95356,US,37.7004935,-121.064177,+12092164930,{'url': 'https://locations.raisingcanes.com/ca/modesto/3801-pelandale-avenue-suite-f1'}
Raising Cane's,C889,Raising Cane's Chicken Fingers,1331 E. Hatch Road,Ceres,CA,95351,US,37.6097809,-120.9729531,+12093079894,{'url': 'https://locations.raisingcanes.com/ca/ceres/1331-e.-hatch-road'}
Raising Cane's,C1006,Raising Cane's Chicken Fingers,1500 Arden Way,Sacramento,CA,95815,US,38.60070898989074,-121.43071543122782,+12093079964,{'url': 'https://locations.raisingcanes.com/ca/sacramento/1500-arden-way'}
Raising Cane's,C1105,Raising Cane's Chicken Fingers,2029 Claribel Road,Riverbank,CA,95367,US,37.7114894,-120.9629351,+12093079960,{'url': 'https://locations.raisingcanes.com/ca/riverbank/2029-claribel-road'}
Raising Cane's,C542,Raising Cane's Chicken Fingers,3348 El Camino Ave,Sacramento,CA,95821,US,38.610106852781314,-121.38424516152584,+19164904587,{'url': 'https://locations.raisingcanes.com/ca/sacramento/3348-el-camino-ave'}
Raising Cane's,C543,Raising Cane's Chicken Fingers,7804 Greenback Lane,Citrus Heights,CA,95610,US,38.67796696045412,-121.27579484681671,+19165826894,{'url': 'https://locations.raisingcanes.com/ca/citrus-heights/7804-greenback-lane'}
Raising Cane's,C569,Raising Cane's Chicken Fingers,1220 Galleria Boulevard,Roseville,CA,95678,US,38.77360019086831,-121.26512148973893,+19165475425,{'url': 'https://locations.raisingcanes.com/ca/roseville/1220-galleria-boulevard'}
Raising Cane's,C990,Raising Cane's Chicken Fingers,1083 Harter Parkway,Yuba City,CA,95993,US,39.1428728,-121.6555814,+19163336008,{'url': 'https://locations.raisingcanes.com/ca/yuba-city/1083-harter-parkway'}
Raising Cane's,C1102,Raising Cane's Chicken Fingers,1984 East 20th Street,Chico,CA,95928,US,39.7273424,-121.8030723,+17072253129,{'url': 'https://locations.raisingcanes.com/ca/chico/1984-east-20th-street'}
Raising Cane's,C432,Raising Cane's Chicken Fingers,6199 S. Virginia St.,Reno,NV,89502,US,39.468334202599216,-119.78550252490862,+17758532263,{'url': 'https://locations.raisingcanes.com/nv/reno/6199-s.-virginia-st.'}
Raising Cane's,C449,Raising Cane's Chicken Fingers,470 N. McCarran Blvd.,Sparks,NV,89431,US,39.53845944096373,-119.73436268576387,+17753846036,{'url': 'https://locations.raisingcanes.com/nv/sparks/470-n.-mccarran-blvd.'}
Raising Cane's,C452,Raising Cane's Chicken Fingers,2175 N. Virginia St.,Reno,NV,89503,US,39.548345669758994,-119.82151100305842,+17753578002,{'url': 'https://locations.raisingcanes.com/nv/reno/2175-n.-virginia-st.'}
Raising Cane's,C468,Raising Cane's Chicken Fingers,4530 Hilton Parkway,Colorado Springs,CO,80907,US,38.89719526981544,-104.8346011695012,+17195484404,{'url': 'https://locations.raisingcanes.com/co/colorado-springs/4530-hilton-parkway'}
Raising Cane's,C609,Raising Cane's Chicken Fingers,3710 N Citadel Dr,Colorado Springs,CO,80909,US,38.84675866276854,-104.75817337926426,+17192449535,{'url': 'https://locations.raisingcanes.com/co/colorado-springs/3710-n-citadel-dr'}
Raising Cane's,C392,Raising Cane's Chicken Fingers,7585 North Academy Boulevard,Colorado Springs,CO,80920,US,38.940430501346015,-104.79856660267114,+17195931599,{'url': 'https://locations.raisingcanes.com/co/colorado-springs/7585-north-academy-boulevard'}
Raising Cane's,C403,Raising Cane's Chicken Fingers,5717 Barnes Rd,Colorado Springs,CO,80917,US,38.89330937472464,-104.72114067872857,+17195748576,{'url': 'https://locations.raisingcanes.com/co/colorado-springs/5717-barnes-rd'}
Raising Cane's,C276,Raising Cane's Chicken Fingers,5012 Founders Parkway,Castle Rock,CO,80108,US,39.40789620145223,-104.85809382908683,+13036888070,{'url': 'https://locations.raisingcanes.com/co/castle-rock/5012-founders-parkway'}
Raising Cane's,C304,Raising Cane's Chicken Fingers,1108 Corporal Max Donahue Lane,Highlands Ranch,CO,80129,US,39.54808767578846,-105.00197353067112,+13037910020,{'url': 'https://locations.raisingcanes.com/co/highlands-ranch/1108-corporal-max-donahue-lane'}
Raising Cane's,C375,Raising Cane's Chicken Fingers,5060 S Wadsworth Way,Lakewood,CO,80123,US,39.624972591221805,-105.09039726815287,+13032094183,{'url': 'https://locations.raisingcanes.com/co/lakewood/5060-s-wadsworth-way'}
Raising Cane's,C277,Raising Cane's Chicken Fingers,18200 Cottonwood Drive,Parker,CO,80138,US,39.55821489811424,-104.7786663380461,+13038411207,{'url': 'https://locations.raisingcanes.com/co/parker/18200-cottonwood-drive'}
Raising Cane's,C310,Raising Cane's Chicken Fingers,6645 S Parker Rd,Centennial,CO,80016,US,39.59587683073672,-104.80370191692977,+17192449810,{'url': 'https://locations.raisingcanes.com/co/centennial/6645-s-parker-rd'}
Raising Cane's,C461,Raising Cane's Chicken Fingers,7405 East Hampden Ave.,Denver,CO,80231,US,39.653524636521475,-104.90227924598067,+13037550127,{'url': 'https://locations.raisingcanes.com/co/denver/7405-east-hampden-ave.'}
Raising Cane's,C401,Raising Cane's Chicken Fingers,1190 South Colorado Boulevard,Denver,CO,80246,US,39.694991393521015,-104.94004169444274,+13037585012,{'url': 'https://locations.raisingcanes.com/co/denver/1190-south-colorado-boulevard'}
Raising Cane's,C400,Raising Cane's Chicken Fingers,14241 E Alameda Ave,Aurora,CO,80012,US,39.711558730321,-104.82194651608769,+13032099898,{'url': 'https://locations.raisingcanes.com/co/aurora/14241-e-alameda-ave'}
Raising Cane's,C467,Raising Cane's Chicken Fingers,3609 Wadsworth Blvd,Wheat Ridge,CO,80033,US,39.7679722147288,-105.081924554786,+13034206669,{'url': 'https://locations.raisingcanes.com/co/wheat-ridge/3609-wadsworth-blvd'}
Raising Cane's,C537,Raising Cane's Chicken Fingers,4517 Central Park Boulevard,Denver,CO,80238,US,39.7788401,-104.8835837,+13032140379,{'url': 'https://locations.raisingcanes.com/co/denver/4517-central-park-boulevard'}
Raising Cane's,C420,Raising Cane's Chicken Fingers,18291 Green Valley Ranch Blvd.,Denver,CO,80249,US,39.784152394766075,-104.77501569762792,+13033074573,{'url': 'https://locations.raisingcanes.com/co/denver/18291-green-valley-ranch-blvd.'}
Raising Cane's,C853,Raising Cane's Chicken Fingers,1611 E 120th Ave,Northglenn,CO,80233,US,39.914386428265026,-104.96727518776326,+18013162557,{'url': 'https://locations.raisingcanes.com/co/northglenn/1611-e-120th-ave'}
Raising Cane's,C359,Raising Cane's Chicken Fingers,4640 W 121st,Broomfield,CO,80020,US,39.91471036033436,-105.04735488329761,+13034666382,{'url': 'https://locations.raisingcanes.com/co/broomfield/4640-w-121st'}
Raising Cane's,C489,Raising Cane's Chicken Fingers,201 East 136th Avenue,Thornton,CO,80023,US,39.94366402288595,-104.98374171964373,+13032229401,{'url': 'https://locations.raisingcanes.com/co/thornton/201-east-136th-avenue'}
Raising Cane's,C971,Raising Cane's Chicken Fingers,1986 Prairie Center Parkway,Brighton,CO,80601,US,39.9584389,-104.7763932,+13032099623,{'url': 'https://locations.raisingcanes.com/co/brighton/1986-prairie-center-parkway'}
Raising Cane's,C1235,Raising Cane's Chicken Fingers,350 S. Ridge Road,Wichita,KS,67209,US,37.67852410382818,-97.42522629152857,+13167968882,{'url': 'https://locations.raisingcanes.com/ks/wichita/350-s.-ridge-road'}
Raising Cane's,C344,Raising Cane's Chicken Fingers,329 East Poyntz Avenue,Manhattan,KS,66502,US,39.183222527814905,-96.55328198686502,+17855398862,{'url': 'https://locations.raisingcanes.com/ks/manhattan/329-east-poyntz-avenue'}
Raising Cane's,C224,Raising Cane's Chicken Fingers,2435 Iowa St.,Lawrence,KS,66046,US,38.939588998832356,-95.26111060074345,+17858409800,{'url': 'https://locations.raisingcanes.com/ks/lawrence/2435-iowa-st.'}
Raising Cane's,C511,Raising Cane's Chicken Fingers,13710 S Blackbob Rd,Olathe,KS,66062,US,38.88097565977624,-94.76167578343238,+19132547212,{'url': 'https://locations.raisingcanes.com/ks/olathe/13710-s-blackbob-rd'}
Raising Cane's,C221,Raising Cane's Chicken Fingers,7501 W 135th Street,Overland Park,KS,66223,US,38.88326937052711,-94.67281141368149,+19132390449,{'url': 'https://locations.raisingcanes.com/ks/overland-park/7501-w-135th-street'}
Raising Cane's,C404,Raising Cane's Chicken Fingers,12056 W 95th St,Lenexa,KS,66215,US,38.9570022522174,-94.72558484846212,+19132270481,{'url': 'https://locations.raisingcanes.com/ks/lenexa/12056-w-95th-st'}
Raising Cane's,C483,Raising Cane's Chicken Fingers,1599 E North Ave,Belton,MO,64012,US,38.81297438846804,-94.51012297932289,+18163487745,{'url': 'https://locations.raisingcanes.com/mo/belton/1599-e-north-ave'}
Raising Cane's,C297,Raising Cane's Chicken Fingers,10704 Shawnee Mission Pkwy,Shawnee,KS,66203,US,39.01521672820197,-94.71025425048684,+19132684535,{'url': 'https://locations.raisingcanes.com/ks/shawnee/10704-shawnee-mission-pkwy'}
Raising Cane's,C222,Raising Cane's Chicken Fingers,4040 Mill St.,Kansas City,MO,64111,US,39.05321501073539,-94.59388924436998,+18165611316,{'url': 'https://locations.raisingcanes.com/mo/kansas-city/4040-mill-st.'}
Raising Cane's,C275,Raising Cane's Chicken Fingers,8771 N. Ambassador Dr.,Kansas City,MO,64154,US,39.25676685069705,-94.64892963821839,+18165840502,{'url': 'https://locations.raisingcanes.com/mo/kansas-city/8771-n.-ambassador-dr.'}
Raising Cane's,C220,Raising Cane's Chicken Fingers,1000 NE Coronado Dr,Blue Springs,MO,64014,US,39.02485919970437,-94.24932170858096,+18162201461,{'url': 'https://locations.raisingcanes.com/mo/blue-springs/1000-ne-coronado-dr'}
Raising Cane's,C335,Raising Cane's Chicken Fingers,100 N 291 Hwy,Liberty,MO,64068,US,39.244932165130265,-94.44434235233928,+18167922201,{'url': 'https://locations.raisingcanes.com/mo/liberty/100-n-291-hwy'}
Raising Cane's,C1142,Raising Cane's Chicken Fingers,2333 Missouri Boulevard,Jefferson City,MO,65109,US,38.58136056592747,-92.2141646868304,+18169083218,{'url': 'https://locations.raisingcanes.com/mo/jefferson-city/2333-missouri-boulevard'}
Raising Cane's,C501,Raising Cane's Chicken Fingers,203 South Providence Road,Columbia,MO,65203,US,38.94925293463921,-92.33469266153192,+15735309100,{'url': 'https://locations.raisingcanes.com/mo/columbia/203-south-providence-road'}
Raising Cane's,C225,Raising Cane's Chicken Fingers,15698 Manchester Rd.,Ellisville,MO,63011,US,38.59221180401947,-90.57773650906213,+16365270903,{'url': 'https://locations.raisingcanes.com/mo/ellisville/15698-manchester-rd.'}
Raising Cane's,C291,Raising Cane's Chicken Fingers,1163 Jeffco Blvd,Arnold,MO,63010,US,38.44008051685417,-90.37340573147249,+16362871971,{'url': 'https://locations.raisingcanes.com/mo/arnold/1163-jeffco-blvd'}
Raising Cane's,C247,Raising Cane's Chicken Fingers,17360 Chesterfield Airport Rd.,Chesterfield,MO,63005,US,38.66782564925005,-90.60378143143193,+16365369684,{'url': 'https://locations.raisingcanes.com/mo/chesterfield/17360-chesterfield-airport-rd.'}
Raising Cane's,C913,Raising Cane's Chicken Fingers,1580 Wentzville Parkway,Wentzville,MO,63385,US,38.8222515,-90.8772899,+16363459604,{'url': 'https://locations.raisingcanes.com/mo/wentzville/1580-wentzville-parkway'}
Raising Cane's,C185,Raising Cane's Chicken Fingers,1034 S. Kirkwood Rd.,Kirkwood,MO,63122,US,38.56510634136199,-90.40633111920404,+13148225313,{'url': 'https://locations.raisingcanes.com/mo/kirkwood/1034-s.-kirkwood-rd.'}
Raising Cane's,C147,Raising Cane's Chicken Fingers,12215 Manchester Rd,Des Peres,MO,63131,US,38.603212418526205,-90.43972220175667,+13149094772,{'url': 'https://locations.raisingcanes.com/mo/des-peres/12215-manchester-rd'}
Raising Cane's,C180,Raising Cane's Chicken Fingers,6095 Mid Rivers Mall Dr.,Cottleville,MO,63304,US,38.74453182990639,-90.63517673758415,+16369227429,{'url': 'https://locations.raisingcanes.com/mo/cottleville/6095-mid-rivers-mall-dr.'}
Raising Cane's,C274,Raising Cane's Chicken Fingers,2707 S. Big Bend Blvd.,Maplewood,MO,63143,US,38.612076039715866,-90.32350145562374,+13146468017,{'url': 'https://locations.raisingcanes.com/mo/maplewood/2707-s.-big-bend-blvd.'}
Raising Cane's,C209,Raising Cane's Chicken Fingers,4320 Hampton Ave.,St. Louis,MO,63109,US,38.59097038385887,-90.29408603497028,+13143531056,{'url': 'https://locations.raisingcanes.com/mo/st.-louis/4320-hampton-ave.'}
Raising Cane's,C969,Raising Cane's Chicken Fingers,8610 Olive Boulevard,University City,MO,63132,US,38.6734823,-90.3573364,+13145130268,{'url': 'https://locations.raisingcanes.com/mo/university-city/8610-olive-boulevard'}
Raising Cane's,C236,Raising Cane's Chicken Fingers,1840 First Capitol Dr.,St. Charles,MO,63301,US,38.78381155551218,-90.50157236159308,+16369250132,{'url': 'https://locations.raisingcanes.com/mo/st.-charles/1840-first-capitol-dr.'}
Raising Cane's,C233,Raising Cane's Chicken Fingers,11080 St. Charles Rock Rd.,St. Ann,MO,63074,US,38.73496423545378,-90.39518538414954,+13147709400,{'url': 'https://locations.raisingcanes.com/mo/st.-ann/11080-st.-charles-rock-rd.'}
Raising Cane's,C372,Raising Cane's Chicken Fingers,805 South Vandeventer Avenue,St. Louis,MO,63110,US,38.62943455752336,-90.24638916583108,+13143714025,{'url': 'https://locations.raisingcanes.com/mo/st.-louis/805-south-vandeventer-avenue'}
Raising Cane's,C296,Raising Cane's Chicken Fingers,2800 North Highway 67,Florissant,MO,63033,US,38.80696296425576,-90.3021797054816,+13148397743,{'url': 'https://locations.raisingcanes.com/mo/florissant/2800-north-highway-67'}
Raising Cane's,C595,Raising Cane's Chicken Fingers,6565 North Illinois Street,Fairview Heights,IL,62208,US,38.59484334220914,-89.98543936390062,+16183947412,{'url': 'https://locations.raisingcanes.com/il/fairview-heights/6565-north-illinois-street'}
Raising Cane's,C1078,Raising Cane's Chicken Fingers,2126 Troy Road,Edwardsville,IL,62025,US,38.78808318903793,-89.95070185979075,+12173610994,"{'url': 'https://locations.raisingcanes.com/il/edwardsville/2126-troy-road', 'displayUrl': 'https://locations.raisingcanes.com/il/edwardsville/2126-troy-road', 'preferDisplayUrl': False}"
Raising Cane's,C1152,Raising Cane's Chicken Fingers,2806 Joseph Cannon Way,Marion,IL,62959,US,37.742545,-88.9721367,+12173610999,"{'url': 'https://locations.raisingcanes.com/il/marion/2806-joseph-cannon-way', 'displayUrl': 'https://locations.raisingcanes.com/il/marion/2806-joseph-cannon-way'}"
Raising Cane's,C1106,Raising Cane's Chicken Fingers,3601 Broadway Street,Quincy,IL,62305,US,39.93567066511402,-91.35784748932062,+12178669992,{'url': 'https://locations.raisingcanes.com/il/quincy/3601-broadway-street'}
Raising Cane's,C651,Raising Cane's Chicken Fingers,2990 Heartland Crossing,Owensboro,KY,42303,US,37.75733028063909,-87.07263211364095,+15029773780,{'url': 'https://locations.raisingcanes.com/ky/owensboro/2990-heartland-crossing'}
Raising Cane's,C876,Raising Cane's Chicken Fingers,3100 W White Oaks Dr,Springfield,IL,62704,US,39.7630585,-89.7090668,+12173610988,{'url': 'https://locations.raisingcanes.com/il/springfield/3100-w-white-oaks-dr'}
Raising Cane's,C648,Raising Cane's Chicken Fingers,5212 Dixie Highway,Louisville,KY,40216,US,38.16336749691355,-85.83179603510206,+15027429035,{'url': 'https://locations.raisingcanes.com/ky/louisville/5212-dixie-highway'}
Raising Cane's,C649,Raising Cane's Chicken Fingers,1250 Bardstown Rd. #5,Louisville,KY,40204,US,38.23584986990711,-85.71704319581524,+15028221188,{'url': 'https://locations.raisingcanes.com/ky/louisville/1250-bardstown-rd.-5'}
Raising Cane's,C647,Raising Cane's Chicken Fingers,6811 Bardstown Rd.,Louisville,KY,40291,US,38.147485624938106,-85.58536170907738,+15026547737,{'url': 'https://locations.raisingcanes.com/ky/louisville/6811-bardstown-rd.'}
Raising Cane's,C650,Raising Cane's Chicken Fingers,1905 S. Hurstbourne Parkway,Louisville,KY,40220,US,38.21789949009615,-85.58484309631253,+15024099441,{'url': 'https://locations.raisingcanes.com/ky/louisville/1905-s.-hurstbourne-parkway'}
Raising Cane's,C646,Raising Cane's Chicken Fingers,10490 Westport Rd.,Louisville,KY,70241,US,38.29343208120823,-85.55855395600938,+15024254040,{'url': 'https://locations.raisingcanes.com/ky/louisville/10490-westport-rd.'}
Raising Cane's,C833,Raising Cane's Chicken Fingers,422 East Kirkwood Avenue,Bloomington,IN,47408,US,39.16631190357075,-86.52878946122698,+18125904115,{'url': 'https://locations.raisingcanes.com/in/bloomington/422-east-kirkwood-avenue'}
Raising Cane's,C642,Raising Cane's Chicken Fingers,551 Keene Centre Drive,Nicholasville,KY,40356,US,37.89775904185697,-84.5850096271733,+18598810000,{'url': 'https://locations.raisingcanes.com/ky/nicholasville/551-keene-centre-drive'}
Raising Cane's,C644,Raising Cane's Chicken Fingers,2030 Harrodsburg Rd,Lexington,KY,40504,US,38.02531920407863,-84.53602604926348,+18592780015,{'url': 'https://locations.raisingcanes.com/ky/lexington/2030-harrodsburg-rd'}
Raising Cane's,C641,Raising Cane's Chicken Fingers,2555 Nicholasville Road,Lexington,KY,40503,US,38.000178077683465,-84.52142178430896,+18593135333,{'url': 'https://locations.raisingcanes.com/ky/lexington/2555-nicholasville-road'}
Raising Cane's,C639,Raising Cane's Chicken Fingers,544 S. Upper Street,Lexington,KY,40508,US,38.04247602413447,-84.50418730571221,+18594553353,{'url': 'https://locations.raisingcanes.com/ky/lexington/544-s.-upper-street'}
Raising Cane's,C643,Raising Cane's Chicken Fingers,1140 Barnes Mill Rd,Richmond,KY,40475,US,37.7364295269706,-84.33072434106359,+18593538886,{'url': 'https://locations.raisingcanes.com/ky/richmond/1140-barnes-mill-rd'}
Raising Cane's,C645,Raising Cane's Chicken Fingers,102 Success Drive,Georgetown,KY,40324,US,38.22018775007771,-84.54165372879513,+15026425763,{'url': 'https://locations.raisingcanes.com/ky/georgetown/102-success-drive'}
Raising Cane's,C640,Raising Cane's Chicken Fingers,2201 War Admiral Way,Lexington,KY,40509,US,38.040280894269195,-84.4282411577468,+18595430154,{'url': 'https://locations.raisingcanes.com/ky/lexington/2201-war-admiral-way'}
Raising Cane's,C847,Raising Cane's Chicken Fingers,8970 E US Hwy 36,Avon,IN,46123,US,39.76368249542455,-86.36258318662257,+13173084037,{'url': 'https://locations.raisingcanes.com/in/avon/8970-e-us-hwy-36'}
Raising Cane's,C755,Raising Cane's Chicken Fingers,8020 Burlington Pike,Florence,KY,41042,US,39.00293008420402,-84.6506039793229,+18597574443,{'url': 'https://locations.raisingcanes.com/ky/florence/8020-burlington-pike'}
Raising Cane's,C769,Raising Cane's Chicken Fingers,3820 Race Rd,Cincinnati,OH,45211,US,39.15819541985075,-84.62940927380035,+15139640234,{'url': 'https://locations.raisingcanes.com/oh/cincinnati/3820-race-rd'}
Raising Cane's,C770,Raising Cane's Chicken Fingers,3614 Alexandria Pike,Cold Spring,KY,41076,US,39.027881713940666,-84.45020905353337,+18598387120,{'url': 'https://locations.raisingcanes.com/ky/cold-spring/3614-alexandria-pike'}
Raising Cane's,C758,Raising Cane's Chicken Fingers,237 Calhoun Street,Cincinnati,OH,45219,US,39.12788721877705,-84.51688304211339,+15134018309,{'url': 'https://locations.raisingcanes.com/oh/cincinnati/237-calhoun-street'}
Raising Cane's,C759,Raising Cane's Chicken Fingers,9869 Colerain Ave,Cincinnati,OH,45251,US,39.25152795298546,-84.59868121245812,+15133702445,{'url': 'https://locations.raisingcanes.com/oh/cincinnati/9869-colerain-ave'}
Raising Cane's,C777,Raising Cane's Chicken Fingers,7920 Beechmont Avenue,Cincinnati,OH,45255,US,39.073127975459236,-84.33762570815895,+15139644046,{'url': 'https://locations.raisingcanes.com/oh/cincinnati/7920-beechmont-avenue'}
Raising Cane's,C757,Raising Cane's Chicken Fingers,826 Eastgate North Drive,Cincinnati,OH,45245,US,39.09778403386324,-84.26921091840269,+15133272665,{'url': 'https://locations.raisingcanes.com/oh/cincinnati/826-eastgate-north-drive'}
Raising Cane's,C763,Raising Cane's Chicken Fingers,3315 Ibsen Ave,Cincinnati,OH,45209,US,39.160462215602756,-84.4242268619312,+15135923775,{'url': 'https://locations.raisingcanes.com/oh/cincinnati/3315-ibsen-ave'}
Raising Cane's,C756,Raising Cane's Chicken Fingers,705 Kemper Commons Cir,Cincinnati,OH,45246,US,39.287454846272354,-84.45830143699503,+15139046533,{'url': 'https://locations.raisingcanes.com/oh/cincinnati/705-kemper-commons-cir'}
Raising Cane's,C766,Raising Cane's Chicken Fingers,3901 Montgomery Road,Loveland,OH,45140,US,39.29404774267056,-84.29381446030854,+15133343711,{'url': 'https://locations.raisingcanes.com/oh/loveland/3901-montgomery-road'}
Raising Cane's,C760,Raising Cane's Chicken Fingers,5120 Dixie Highway,Fairfield,OH,45014,US,39.33961914512842,-84.53341743699502,+15138154414,{'url': 'https://locations.raisingcanes.com/oh/fairfield/5120-dixie-highway'}
Raising Cane's,C754,Raising Cane's Chicken Fingers,7721 Tylersville Rd,West Chester,OH,45069,US,39.35292258278918,-84.36794127693734,+15132856877,{'url': 'https://locations.raisingcanes.com/oh/west-chester/7721-tylersville-rd'}
Raising Cane's,C1091,Raising Cane's Chicken Fingers,3011 Bridgewater Landing Drive,Hamilton,OH,45011,US,39.391811842260296,-84.513113976371,+15132391376,"{'url': 'https://locations.raisingcanes.com/oh/hamilton/3011-bridgewater-landing-drive', 'displayUrl': 'https://locations.raisingcanes.com/oh/hamilton/3011-bridgewater-landing-drive', 'preferDisplayUrl': False}"
Raising Cane's,C792,Raising Cane's Chicken Fingers,1479 Main St,Hamilton,OH,45013,US,39.42485206391721,-84.59605527743575,+15135255650,{'url': 'https://locations.raisingcanes.com/oh/hamilton/1479-main-st'}
Raising Cane's,C764,Raising Cane's Chicken Fingers,1136 Miamisburg Centerville Road,Washington Township,OH,45459,US,39.6281380384301,-84.19088303497028,+19373067704,{'url': 'https://locations.raisingcanes.com/oh/washington-township/1136-miamisburg-centerville-road'}
Raising Cane's,C772,Raising Cane's Chicken Fingers,4384 Indian Ripple Rd,Beavercreek,OH,45440,US,39.69688577606272,-84.10308029711389,+19373067833,{'url': 'https://locations.raisingcanes.com/oh/beavercreek/4384-indian-ripple-rd'}
Raising Cane's,C776,Raising Cane's Chicken Fingers,800 North Bridge Street,Chillicothe,OH,45601,US,39.351263255740136,-82.97728209837197,+12169124801,{'url': 'https://locations.raisingcanes.com/oh/chillicothe/800-north-bridge-street'}
Raising Cane's,C784,Raising Cane's Chicken Fingers,2755 Fairfield Commons,Beavercreek,OH,45431,US,39.77027200799004,-84.05532941863615,+19372001534,{'url': 'https://locations.raisingcanes.com/oh/beavercreek/2755-fairfield-commons'}
Raising Cane's,C781,Raising Cane's Chicken Fingers,7841 Old Troy Pike,Huber Heights,OH,45424,US,39.867692362134775,-84.1383486161995,+19372001191,{'url': 'https://locations.raisingcanes.com/oh/huber-heights/7841-old-troy-pike'}
Raising Cane's,C749,Raising Cane's Chicken Fingers,1934 N. Memorial Dr.,Lancaster,OH,43130,US,39.73374377773169,-82.62165739078998,+17407770145,{'url': 'https://locations.raisingcanes.com/oh/lancaster/1934-n.-memorial-dr.'}
Raising Cane's,C752,Raising Cane's Chicken Fingers,3820 South Hamilton Rd,Groveport,OH,43215,US,39.89655516260324,-82.88155796460772,+16146268101,{'url': 'https://locations.raisingcanes.com/oh/groveport/3820-south-hamilton-rd'}
Raising Cane's,C746,Raising Cane's Chicken Fingers,1263 Hill Road North,Pickerington,OH,43147,US,39.91408770149061,-82.78042287135364,+16145771113,{'url': 'https://locations.raisingcanes.com/oh/pickerington/1263-hill-road-north'}
Raising Cane's,C744,Raising Cane's Chicken Fingers,1944 Stringtown Road,Grove City,OH,43123,US,39.8786726034555,-83.05488302594993,+16148753500,{'url': 'https://locations.raisingcanes.com/oh/grove-city/1944-stringtown-road'}
Raising Cane's,C783,Raising Cane's Chicken Fingers,3275 Maple Avenue,Zanesville,OH,43701,US,39.9817985,-82.0193563,+17405622952,{'url': 'https://locations.raisingcanes.com/oh/zanesville/3275-maple-avenue'}
Raising Cane's,C895,Raising Cane's Chicken Fingers,3661 E. Main Street,Whitehall,OH,43213,US,39.955802524636745,-82.90013425584641,+16149643265,{'url': 'https://locations.raisingcanes.com/oh/whitehall/3661-e.-main-street'}
Raising Cane's,C748,Raising Cane's Chicken Fingers,6511 E Broad St,Columbus,OH,43213,US,39.98048360290804,-82.82907111920403,+16148137623,{'url': 'https://locations.raisingcanes.com/oh/columbus/6511-e-broad-st'}
Raising Cane's,C751,Raising Cane's Chicken Fingers,21 Old Village Rd,Columbus,OH,43228,US,39.95292018023321,-83.12421819228157,+16144652310,{'url': 'https://locations.raisingcanes.com/oh/columbus/21-old-village-rd'}
Raising Cane's,C762,Raising Cane's Chicken Fingers,781 Hebron Rd,Heath,OH,43056,US,40.03037823532774,-82.44033273147248,+17402812660,{'url': 'https://locations.raisingcanes.com/oh/heath/781-hebron-rd'}
Raising Cane's,C858,Raising Cane's Chicken Fingers,1211 Olentangy River Road,Columbus,OH,43202,US,39.984946752527655,-83.02316101790542,+16144052141,{'url': 'https://locations.raisingcanes.com/oh/columbus/1211-olentangy-river-road'}
Raising Cane's,C761,Raising Cane's Chicken Fingers,10 E. 11th Avenue,Columbus,OH,43201,US,39.994981534684506,-83.00675664993632,+16142988713,{'url': 'https://locations.raisingcanes.com/oh/columbus/10-e.-11th-avenue'}
Raising Cane's,C741,Raising Cane's Chicken Fingers,2823 Olentangy River Road,Columbus,OH,43202,US,40.01853432534989,-83.02485207257699,+16142610011,{'url': 'https://locations.raisingcanes.com/oh/columbus/2823-olentangy-river-road'}
Raising Cane's,C745,Raising Cane's Chicken Fingers,2550 Hilliard Rome Road,Hilliard,OH,43026,US,40.003398623505866,-83.15328573147247,+16148509100,{'url': 'https://locations.raisingcanes.com/oh/hilliard/2550-hilliard-rome-road'}
Raising Cane's,C742,Raising Cane's Chicken Fingers,1320 N. Hamilton Road,Gahanna,OH,43230,US,40.053391608002926,-82.8631105216508,+16144751300,{'url': 'https://locations.raisingcanes.com/oh/gahanna/1320-n.-hamilton-road'}
Raising Cane's,C967,Raising Cane's Chicken Fingers,1519 University Avenue,Charlottesville,VA,22903,US,38.035287335782215,-78.50058279585575,+14343296027,{'url': 'https://locations.raisingcanes.com/va/charlottesville/1519-university-avenue'}
Raising Cane's,C165,Raising Cane's Chicken Fingers,1805 Emmet St N,Charlottesville,VA,22901,US,38.0600514965513,-78.49386062392522,+14342934331,{'url': 'https://locations.raisingcanes.com/va/charlottesville/1805-emmet-st-n'}
Raising Cane's,C943,Raising Cane's Chicken Fingers,10093 Brook Road,Glen Allen,VA,23059,US,37.67325103440864,-77.4601255115654,+18044313480,"{'url': 'https://locations.raisingcanes.com/va/glen-allen/10093-brook-road', 'displayUrl': 'https://locations.raisingcanes.com/va/glen-allen/10093-brook-road'}"
Raising Cane's,C711,Raising Cane's Chicken Fingers,3071 Plank Road,Fredericksburg,VA,22401,US,38.29646805251837,-77.51386334416294,+15713885759,{'url': 'https://locations.raisingcanes.com/va/fredericksburg/3071-plank-road'}
Raising Cane's,C724,Raising Cane's Chicken Fingers,9501 Liberia Avenue,Manassas,VA,20110,US,38.7497575,-77.44875390368748,+15713885244,{'url': 'https://locations.raisingcanes.com/va/manassas/9501-liberia-avenue'}
Raising Cane's,C637,Raising Cane's Chicken Fingers,45545 Dulles Eastern Plaza,Sterling,VA,20166,US,39.02419423853041,-77.42440279873571,+17033456863,{'url': 'https://locations.raisingcanes.com/va/sterling/45545-dulles-eastern-plaza'}
Raising Cane's,C629,Raising Cane's Chicken Fingers,3295 Crain Highway,Waldorf,MD,20603,US,38.622004214760445,-76.91635768484544,+13012769350,{'url': 'https://locations.raisingcanes.com/md/waldorf/3295-crain-highway'}
Raising Cane's,C1101,Raising Cane's Chicken Fingers,6363 Seven Corners Center,Falls Church,VA,22044,US,38.86762658146654,-77.15156493497028,+17034832313,{'url': 'https://locations.raisingcanes.com/va/falls-church/6363-seven-corners-center'}
Raising Cane's,C628,Raising Cane's Chicken Fingers,M143 50 Massachusetts Ave NE,Washington,DC,20002,US,38.8978887,-77.0056659,+12024813204,{'url': 'https://locations.raisingcanes.com/dc/washington/m143-50-massachusetts-ave-ne'}
Raising Cane's,C736,Raising Cane's Chicken Fingers,3270 Donnell Drive,Forestville,MD,20747,US,38.846902769785515,-76.88445751608769,+13012819024,{'url': 'https://locations.raisingcanes.com/md/forestville/3270-donnell-drive'}
Raising Cane's,C894,Raising Cane's Chicken Fingers,16401 Heritage Boulevard,Bowie,MD,20716,US,38.94526630127843,-76.7191595073576,+13012967035,"{'url': 'https://locations.raisingcanes.com/md/bowie/16401-heritage-boulevard', 'displayUrl': 'https://locations.raisingcanes.com/md/bowie/16401-heritage-boulevard'}"
Raising Cane's,C631,Raising Cane's Chicken Fingers,1070 Md Route 3 N,Gambrills,MD,21054,US,39.02627294401016,-76.68981114723874,+14439525391,{'url': 'https://locations.raisingcanes.com/md/gambrills/1070-md-route-3-n'}
Raising Cane's,C838,Raising Cane's Chicken Fingers,9071 Snowden River Parkway,Columbia,MD,21046,US,39.1804871,-76.822988,+14439493044,{'url': 'https://locations.raisingcanes.com/md/columbia/9071-snowden-river-parkway'}
Raising Cane's,C905,Raising Cane's Chicken Fingers,6801 Ritchie Hwy,Glen Burnie,MD,21061,US,39.188457052161844,-76.61303548777364,+14439525393,{'url': 'https://locations.raisingcanes.com/md/glen-burnie/6801-ritchie-hwy'}
Raising Cane's,C869,Raising Cane's Chicken Fingers,4 W Towsontown Blvd,Towson,MD,21204,US,39.3984436,-76.6033387,+14102460939,{'url': 'https://locations.raisingcanes.com/md/towson/4-w-towsontown-blvd'}
Raising Cane's,C632,Raising Cane's Chicken Fingers,400 Englar Road,Westminster,MD,21157,US,39.58471272881491,-76.98969229767503,+14433026466,{'url': 'https://locations.raisingcanes.com/md/westminster/400-englar-road'}
Raising Cane's,C961,Raising Cane's Chicken Fingers,336 Baltimore Pike,Bel Air,MD,21014,US,39.5298684,-76.35148989999999,+14435677227,{'url': 'https://locations.raisingcanes.com/md/bel-air/336-baltimore-pike'}
Raising Cane's,C897,Raising Cane's Chicken Fingers,127 Grove Lane,Newark,DE,19711,US,39.67998637276233,-75.735416349429,+13026604399,{'url': 'https://locations.raisingcanes.com/de/newark/127-grove-lane'}
Raising Cane's,C1028,Raising Cane's Chicken Fingers,695 Delsea Drive,Glassboro,NJ,08028,US,39.71925065379837,-75.11493178931786,+18562267100,{'url': 'https://locations.raisingcanes.com/nj/glassboro/695-delsea-drive'}
Raising Cane's,C1001,Raising Cane's Chicken Fingers,5241 NJ-42,Turnersville,NJ,08012,US,39.753368219569396,-75.04732867681341,+18562267098,{'url': 'https://locations.raisingcanes.com/nj/turnersville/5241-nj-42'}
Raising Cane's,C963,Raising Cane's Chicken Fingers,1860 Deptford Center Road,Deptford,NJ,08096,US,39.829057093948244,-75.09259452761269,+18622344616,{'url': 'https://locations.raisingcanes.com/nj/deptford/1860-deptford-center-road'}
Raising Cane's,C908,Raising Cane's Chicken Fingers,800 Route 70 West,Marlton,NJ,08053,US,39.895376583033276,-74.94151317588452,+16093103788,{'url': 'https://locations.raisingcanes.com/nj/marlton/800-route-70-west'}
Raising Cane's,C811,Raising Cane's Chicken Fingers,3000 Island Avenue Unit A,Philadelphia,PA,19153,US,39.9017147,-75.2401759,+12677423670,{'url': 'https://locations.raisingcanes.com/pa/philadelphia/3000-island-avenue-unit-a'}
Raising Cane's,C800,Raising Cane's Chicken Fingers,2014 Route 70 West,Cherry Hill,NJ,08002,US,39.92113433474833,-75.0361933536238,+17328675604,{'url': 'https://locations.raisingcanes.com/nj/cherry-hill/2014-route-70-west'}
Raising Cane's,C707,Raising Cane's Chicken Fingers,3925 Walnut Street,Philadelphia,PA,19104,US,39.95413366826766,-75.20091534667566,+14452235133,{'url': 'https://locations.raisingcanes.com/pa/philadelphia/3925-walnut-street'}
Raising Cane's,C824,Raising Cane's Chicken Fingers,1717 N 12th St Unit D,Philadelphia,PA,19122,US,39.9787035,-75.153783,+12676915054,{'url': 'https://locations.raisingcanes.com/pa/philadelphia/1717-n-12th-st-unit-d'}
Raising Cane's,C896,Raising Cane's Chicken Fingers,2329 Burlington Mount Holly Road,Burlington,NJ,08016,US,40.0374053,-74.8264704,+16093103711,{'url': 'https://locations.raisingcanes.com/nj/burlington/2329-burlington-mount-holly-road'}
Raising Cane's,C945,Raising Cane's Chicken Fingers,2329 Cottman Avenue,Philadelphia,PA,19149,US,40.04813624723613,-75.0582719443294,+14452235009,"{'url': 'https://locations.raisingcanes.com/pa/philadelphia/2329-cottman-avenue', 'displayUrl': 'https://locations.raisingcanes.com/pa/philadelphia/2329-cottman-avenue'}"
Raising Cane's,C832,Raising Cane's Chicken Fingers,3617 Horizon Blvd,Feasterville Trevose,PA,19053,US,40.13754906202939,-74.96302641423529,+12676915051,{'url': 'https://locations.raisingcanes.com/pa/feasterville-trevose/3617-horizon-blvd'}
Raising Cane's,C1005,Raising Cane's Chicken Fingers,4026 West 13400 South,Riverton,UT,84096,US,40.50834150000002,-111.98697465449219,+18014385018,{'url': 'https://locations.raisingcanes.com/ut/riverton/4026-west-13400-south'}
Raising Cane's,C1129,Raising Cane's Chicken Fingers,1267 N Redwood Rd,Saratoga Springs,UT,84045,US,40.38551366850242,-111.91691246067847,+19282483691,{'url': 'https://locations.raisingcanes.com/ut/saratoga-springs/1267-n-redwood-rd'}
Raising Cane's,C524,Raising Cane's Chicken Fingers,3788 West 11400 South,South Jordan,UT,84095,US,40.54472008481561,-111.98115906652838,+18012541028,{'url': 'https://locations.raisingcanes.com/ut/south-jordan/3788-west-11400-south'}
Raising Cane's,C578,Raising Cane's Chicken Fingers,3346 South 5600 West,West Valley City,UT,84120,US,40.69924171269339,-112.02542425660371,+13857078616,{'url': 'https://locations.raisingcanes.com/ut/west-valley-city/3346-south-5600-west'}
Raising Cane's,C585,Raising Cane's Chicken Fingers,10986 State St,Sandy,UT,84070,US,40.55215924687848,-111.8914869417162,+18013162554,{'url': 'https://locations.raisingcanes.com/ut/sandy/10986-state-st'}
Raising Cane's,C671,Raising Cane's Chicken Fingers,890 E Fort Union Blvd,Midvale,UT,84047,US,40.621795020150586,-111.86646478337734,+18019880027,{'url': 'https://locations.raisingcanes.com/ut/midvale/890-e-fort-union-blvd'}
Raising Cane's,C593,Raising Cane's Chicken Fingers,132 West 1230 N St,Provo,UT,84604,US,40.25102244166033,-111.66052888920578,+18013752492,{'url': 'https://locations.raisingcanes.com/ut/provo/132-west-1230-n-st'}
Raising Cane's,C546,Raising Cane's Chicken Fingers,2150 S State St,South Salt Lake,UT,84115,US,40.7240070743847,-111.888801454671,+18019880019,{'url': 'https://locations.raisingcanes.com/ut/south-salt-lake/2150-s-state-st'}
Raising Cane's,C710,Raising Cane's Chicken Fingers,694 West Antelope Drive,Layton,UT,84041,US,41.08953305214196,-111.97922847510227,+18019880003,{'url': 'https://locations.raisingcanes.com/ut/layton/694-west-antelope-drive'}
Raising Cane's,C614,Raising Cane's Chicken Fingers,4168 Riverdale Rd,Riverdale,UT,84405,US,41.187178774320515,-111.98414675544151,+13852883928,{'url': 'https://locations.raisingcanes.com/ut/riverdale/4168-riverdale-rd'}
Raising Cane's,C1010,Raising Cane's Chicken Fingers,1165 North Main Street,Logan,UT,84341,US,41.7539928,-111.8349887,+17192449542,{'url': 'https://locations.raisingcanes.com/ut/logan/1165-north-main-street'}
Raising Cane's,C490,Raising Cane's Chicken Fingers,1236 S. Hover Street,Longmont,CO,80501,US,40.147321191961886,-105.13021423020855,+13037720222,{'url': 'https://locations.raisingcanes.com/co/longmont/1236-s.-hover-street'}
Raising Cane's,C324,Raising Cane's Chicken Fingers,2108 S. College Avenue,Fort Collins,CO,80525,US,40.560153635756514,-105.07644575478601,+19704821812,{'url': 'https://locations.raisingcanes.com/co/fort-collins/2108-s.-college-avenue'}
Raising Cane's,C664,Raising Cane's Chicken Fingers,1304 S. Jeffers St.,North Platte,NE,69101,US,41.122366123157576,-100.76436646073056,+13082216640,{'url': 'https://locations.raisingcanes.com/ne/north-platte/1304-s.-jeffers-st.'}
Raising Cane's,C662,Raising Cane's Chicken Fingers,3720 2nd Ave.,Kearney,NE,68847,US,40.71248094573719,-99.08457327471879,+13082243442,{'url': 'https://locations.raisingcanes.com/ne/kearney/3720-2nd-ave.'}
Raising Cane's,C660,Raising Cane's Chicken Fingers,1230 Allen Dr.,Grand Island,NE,68803,US,40.93114959609046,-98.38160500263642,+13086752902,{'url': 'https://locations.raisingcanes.com/ne/grand-island/1230-allen-dr.'}
Raising Cane's,C657,Raising Cane's Chicken Fingers,201 N. 14th St,Lincoln,NE,68508,US,40.81501995506091,-96.70142288834323,+14024779844,{'url': 'https://locations.raisingcanes.com/ne/lincoln/201-n.-14th-st'}
Raising Cane's,C659,Raising Cane's Chicken Fingers,5810 S. 58th St.,Lincoln,NE,68516,US,40.753105780081775,-96.641503072577,+14024131996,{'url': 'https://locations.raisingcanes.com/ne/lincoln/5810-s.-58th-st.'}
Raising Cane's,C658,Raising Cane's Chicken Fingers,2820 Cornhusker Hwy,Lincoln,NE,68504,US,40.84302246914481,-96.68005053116754,+14024135100,{'url': 'https://locations.raisingcanes.com/ne/lincoln/2820-cornhusker-hwy'}
Raising Cane's,C656,Raising Cane's Chicken Fingers,403 N. 48th Street,Lincoln,NE,68504,US,40.817502440277,-96.65423874932465,+14024665334,{'url': 'https://locations.raisingcanes.com/ne/lincoln/403-n.-48th-street'}
Raising Cane's,C663,Raising Cane's Chicken Fingers,1150 South 13th St,Norfolk,NE,68701,US,42.018905,-97.427164,+14023167068,{'url': 'https://locations.raisingcanes.com/ne/norfolk/1150-south-13th-st'}
Raising Cane's,C235,Raising Cane's Chicken Fingers,10808 Q Street,Omaha,NE,68137,US,41.20569308039364,-96.08212001371619,+14025025866,{'url': 'https://locations.raisingcanes.com/ne/omaha/10808-q-street'}
Raising Cane's,C252,Raising Cane's Chicken Fingers,14548 W. Center Rd.,Omaha,NE,68144,US,41.234434389469314,-96.14172557687615,+14023341907,{'url': 'https://locations.raisingcanes.com/ne/omaha/14548-w.-center-rd.'}
Raising Cane's,C385,Raising Cane's Chicken Fingers,950 Cornhusker Rd,Bellevue,NE,68005,US,41.158348962534276,-95.93011689823898,+14024016489,{'url': 'https://locations.raisingcanes.com/ne/bellevue/950-cornhusker-rd'}
Raising Cane's,C479,Raising Cane's Chicken Fingers,5011 L Street,Omaha,NE,68117,US,41.21227945387867,-95.99133370815896,+14025066870,{'url': 'https://locations.raisingcanes.com/ne/omaha/5011-l-street'}
Raising Cane's,C134,Raising Cane's Chicken Fingers,"10000 California St., STE 3148",Omaha,NE,68114,US,41.2669703,-96.0676846,+14023932791,{'url': 'https://locations.raisingcanes.com/ne/omaha/10000-california-st.-ste-3148'}
Raising Cane's,C202,Raising Cane's Chicken Fingers,12930 W. Maple Rd.,Omaha,NE,68164,US,41.292831168403886,-96.11575518311157,+14024965375,{'url': 'https://locations.raisingcanes.com/ne/omaha/12930-w.-maple-rd.'}
Raising Cane's,C118,Raising Cane's Chicken Fingers,7060 Dodge Street,Omaha,NE,68127,US,41.260113067256206,-96.02221293407041,+14025566127,{'url': 'https://locations.raisingcanes.com/ne/omaha/7060-dodge-street'}
Raising Cane's,C661,Raising Cane's Chicken Fingers,1058 E. 23rd Street,Fremont,NE,68025,US,41.45182711547621,-96.48416962717333,+14026204827,{'url': 'https://locations.raisingcanes.com/ne/fremont/1058-e.-23rd-street'}
Raising Cane's,C238,Raising Cane's Chicken Fingers,2424 West Broadway,Council Bluffs,IA,51501,US,41.26233907279362,-95.88158901779097,+17123222374,{'url': 'https://locations.raisingcanes.com/ia/council-bluffs/2424-west-broadway'}
Raising Cane's,C665,Raising Cane's Chicken Fingers,5901 Mills Civic Pkwy #7000,West Des Moines,IA,50266,US,41.559689572745384,-93.7892791958905,+15159784514,{'url': 'https://locations.raisingcanes.com/ia/west-des-moines/5901-mills-civic-pkwy-7000'}
Raising Cane's,C1136,Raising Cane's Chicken Fingers,6079 Southeast 14th Street,Des Moines,IA,50320,US,41.5290418,-93.5965841,+15158584971,{'url': 'https://locations.raisingcanes.com/ia/des-moines/6079-southeast-14th-street'}
Raising Cane's,C823,Raising Cane's Chicken Fingers,8550 Birchwood Ct,Johnston,IA,50131,US,41.654871784747066,-93.7356292271733,+15157353786,{'url': 'https://locations.raisingcanes.com/ia/johnston/8550-birchwood-ct'}
Raising Cane's,C667,Raising Cane's Chicken Fingers,2929 8th St SW,Altoona,IA,50009,US,41.64468422681836,-93.49880543699501,+15156303713,{'url': 'https://locations.raisingcanes.com/ia/altoona/2929-8th-st-sw'}
Raising Cane's,C1082,Raising Cane's Chicken Fingers,201 S Clinton St,Iowa City,IA,52240,US,41.65916053592106,-91.53500231894493,+15158584958,"{'url': 'https://locations.raisingcanes.com/ia/iowa-city/201-s-clinton-st', 'displayUrl': 'https://locations.raisingcanes.com/ia/iowa-city/201-s-clinton-st'}"
Raising Cane's,C691,Raising Cane's Chicken Fingers,2800 Commerce Drive,Coralville,IA,52241,US,41.695296059902574,-91.61117549833726,+13195313990,{'url': 'https://locations.raisingcanes.com/ia/coralville/2800-commerce-drive'}
Raising Cane's,C668,Raising Cane's Chicken Fingers,2725 E 53rd St,Davenport,IA,52807,US,41.574353125842386,-90.53498119878736,+15632143293,{'url': 'https://locations.raisingcanes.com/ia/davenport/2725-e-53rd-st'}
Raising Cane's,C815,Raising Cane's Chicken Fingers,230 Collins Road Northeast,Cedar Rapids,IA,52402,US,42.0283786373507,-91.63057982222585,+17792383618,{'url': 'https://locations.raisingcanes.com/ia/cedar-rapids/230-collins-road-northeast'}
Raising Cane's,C1088,Raising Cane's Chicken Fingers,311 A Veterans Pkwy,Normal,IL,61761,US,40.50606,-88.9538761,+13094599912,{'url': 'https://locations.raisingcanes.com/il/normal/311-a-veterans-pkwy'}
Raising Cane's,C699,Raising Cane's Chicken Fingers,201 Viking Plaza Dr.,Cedar Falls,IA,50613,US,42.483548409147126,-92.4446180620735,+13195313994,{'url': 'https://locations.raisingcanes.com/ia/cedar-falls/201-viking-plaza-dr.'}
Raising Cane's,C960,Raising Cane's Chicken Fingers,2121 North Prospect Avenue,Champaign,IL,61822,US,40.14218066521415,-88.25836762102172,+12173610991,{'url': 'https://locations.raisingcanes.com/il/champaign/2121-north-prospect-avenue'}
Raising Cane's,C788,Raising Cane's Chicken Fingers,411 E. Green St.,Champaign,IL,61820,US,40.1100869003542,-88.23230810448885,+12178669986,{'url': 'https://locations.raisingcanes.com/il/champaign/411-e.-green-st.'}
Raising Cane's,C812,Raising Cane's Chicken Fingers,1007 Brook Forest Avenue,Shorewood,IL,60404,US,41.54030116572026,-88.20006170204209,+17797073050,{'url': 'https://locations.raisingcanes.com/il/shorewood/1007-brook-forest-avenue'}
Raising Cane's,C582,Raising Cane's Chicken Fingers,100 S Chauncey Ave Suite 100,West Lafayette,IN,47906,US,40.4228858,-86.9065422,+14639999149,{'url': 'https://locations.raisingcanes.com/in/west-lafayette/100-s-chauncey-ave-suite-100'}
Raising Cane's,C681,Raising Cane's Chicken Fingers,3000 Plainfield Rd.,Joliet,IL,60435,US,41.57875670611255,-88.16133482514859,+17797073032,{'url': 'https://locations.raisingcanes.com/il/joliet/3000-plainfield-rd.'}
Raising Cane's,C1094,Raising Cane's Chicken Fingers,5 North Creasy Lane,Lafayette,IN,47905,US,40.418386275758046,-86.83858737708155,+17652373227,{'url': 'https://locations.raisingcanes.com/in/lafayette/5-north-creasy-lane'}
Raising Cane's,C854,Raising Cane's Chicken Fingers,552 East Lincoln Highway,New Lenox,IL,60451,US,41.511935,-87.953386,+17792383623,{'url': 'https://locations.raisingcanes.com/il/new-lenox/552-east-lincoln-highway'}
Raising Cane's,C548,Raising Cane's Chicken Fingers,2450 Route 34,Oswego,IL,60543,US,41.70308658922655,-88.30853202271345,+16305549855,{'url': 'https://locations.raisingcanes.com/il/oswego/2450-route-34'}
Raising Cane's,C271,Raising Cane's Chicken Fingers,698 S Route 59,Naperville,IL,60540,US,41.75951509172713,-88.2053517395004,+16307780536,{'url': 'https://locations.raisingcanes.com/il/naperville/698-s-route-59'}
Raising Cane's,C519,Raising Cane's Chicken Fingers,15011 S La Grange Rd,Orland Park,IL,60462,US,41.6175595508925,-87.85267089731883,+12243473998,{'url': 'https://locations.raisingcanes.com/il/orland-park/15011-s-la-grange-rd'}
Raising Cane's,C538,Raising Cane's Chicken Fingers,2411 Sycamore Road,Dekalb,IL,60115,US,41.953996739892595,-88.72431925048684,+18157545432,{'url': 'https://locations.raisingcanes.com/il/dekalb/2411-sycamore-road'}
Raising Cane's,C406,Raising Cane's Chicken Fingers,1998 McKee St,Batavia,IL,60510,US,41.85379350422889,-88.33943679804442,+16304065859,{'url': 'https://locations.raisingcanes.com/il/batavia/1998-mckee-st'}
Raising Cane's,C415,Raising Cane's Chicken Fingers,60 W. 63rd Street,Westmont,IL,60559,US,41.774081713835145,-87.976696436995,+16309684799,{'url': 'https://locations.raisingcanes.com/il/westmont/60-w.-63rd-street'}
Raising Cane's,C692,Raising Cane's Chicken Fingers,13201 S Cicero Avenue,Crestwood,IL,60445,US,41.652462932996784,-87.73767988780621,+17083003077,{'url': 'https://locations.raisingcanes.com/il/crestwood/13201-s-cicero-avenue'}
Raising Cane's,C256,Raising Cane's Chicken Fingers,11006 SW. Cicero Ave.,Oak Lawn,IL,60453,US,41.69308502998086,-87.74044118956662,+17084223736,{'url': 'https://locations.raisingcanes.com/il/oak-lawn/11006-sw.-cicero-ave.'}
Raising Cane's,C1185,Raising Cane's Chicken Fingers,6401 95th Street,Chicago Ridge,IL,60415,US,41.7191494,-87.7804881,+17084596373,{'url': 'https://locations.raisingcanes.com/il/chicago-ridge/6401-95th-street'}
Raising Cane's,C378,Raising Cane's Chicken Fingers,499 Roosevelt Rd,Glen Ellyn,IL,60137,US,41.858972923212356,-88.06770985107532,+16304694706,{'url': 'https://locations.raisingcanes.com/il/glen-ellyn/499-roosevelt-rd'}
Raising Cane's,C288,Raising Cane's Chicken Fingers,9570 South Western Ave.,Evergreen Park,IL,60805,US,41.718267160156444,-87.68256190326548,+17084231287,{'url': 'https://locations.raisingcanes.com/il/evergreen-park/9570-south-western-ave.'}
Raising Cane's,C509,Raising Cane's Chicken Fingers,334 West Army Trail Road,Bloomingdale,IL,60108,US,41.93857279333964,-88.10820100884064,+16308931613,{'url': 'https://locations.raisingcanes.com/il/bloomingdale/334-west-army-trail-road'}
Raising Cane's,C261,Raising Cane's Chicken Fingers,2514 Harlem Ave.,Riverside,IL,60546,US,41.844632039504894,-87.8039984572614,+17084423433,{'url': 'https://locations.raisingcanes.com/il/riverside/2514-harlem-ave.'}
Raising Cane's,C480,Raising Cane's Chicken Fingers,300 West North Avenue,Melrose Park,IL,60160,US,41.90771106355934,-87.838886825645,+17083447894,{'url': 'https://locations.raisingcanes.com/il/melrose-park/300-west-north-avenue'}
Raising Cane's,C1137,Raising Cane's Chicken Fingers,6445 E State St,Rockford,IL,61108,US,42.26715798239133,-88.9905484926424,+17792699900,{'url': 'https://locations.raisingcanes.com/il/rockford/6445-e-state-st'}
Raising Cane's,C1068,Raising Cane's Chicken Fingers,14909 Thatcher Lane,Carmel,IN,46032,US,40.00476917638146,-86.12635851608769,+13173526160,"{'url': 'https://locations.raisingcanes.com/in/carmel/14909-thatcher-lane', 'displayUrl': 'https://locations.raisingcanes.com/in/carmel/14909-thatcher-lane', 'preferDisplayUrl': False}"
Raising Cane's,C893,Raising Cane's Chicken Fingers,13020 Campus Parkway,Noblesville,IN,46060,US,39.99707889505804,-85.93403463746911,+13173084508,{'url': 'https://locations.raisingcanes.com/in/noblesville/13020-campus-parkway'}
Raising Cane's,C1038,Raising Cane's Chicken Fingers,1728 East Markland Ave,Kokomo,IN,46901,US,40.47701009880483,-86.10878956258297,+17652163274,{'url': 'https://locations.raisingcanes.com/in/kokomo/1728-east-markland-ave'}
Raising Cane's,C834,Raising Cane's Chicken Fingers,711 W McGalliard Rd,Muncie,IN,47303,US,40.218598903803155,-85.39440598834324,+17652163204,{'url': 'https://locations.raisingcanes.com/in/muncie/711-w-mcgalliard-rd'}
Raising Cane's,C1090,Raising Cane's Chicken Fingers,5000 Franklin Street,Michigan City,IN,46360,US,41.67647075861899,-86.89343376414651,+12602479035,"{'url': 'https://locations.raisingcanes.com/in/michigan-city/5000-franklin-street', 'displayUrl': 'https://locations.raisingcanes.com/in/michigan-city/5000-franklin-street', 'preferDisplayUrl': False}"
Raising Cane's,C1121,Raising Cane's Chicken Fingers,701 East Coliseum Boulevard,Fort Wayne,IN,46805,US,41.11873085097293,-85.13065314149961,+12602479600,{'url': 'https://locations.raisingcanes.com/in/fort-wayne/701-east-coliseum-boulevard'}
Raising Cane's,C515,Raising Cane's Chicken Fingers,5212 North Main Street,Mishawaka,IN,46545,US,41.70682636406359,-86.18087532799257,+15742739170,{'url': 'https://locations.raisingcanes.com/in/mishawaka/5212-north-main-street'}
Raising Cane's,C782,Raising Cane's Chicken Fingers,1335 W 1st St,Springfield,OH,45504,US,39.94053153340151,-83.83260120081873,+19376889011,{'url': 'https://locations.raisingcanes.com/oh/springfield/1335-w-1st-st'}
Raising Cane's,C1058,Raising Cane's Chicken Fingers,2355 North Eastown Rd,Lima,OH,45807,US,40.77139395878846,-84.16478157121725,+14193247438,{'url': 'https://locations.raisingcanes.com/oh/lima/2355-north-eastown-rd'}
Raising Cane's,C747,Raising Cane's Chicken Fingers,6410 Sawmill Rd.,Columbus,OH,43235,US,40.09816210788997,-83.09029830597412,+16147611090,{'url': 'https://locations.raisingcanes.com/oh/columbus/6410-sawmill-rd.'}
Raising Cane's,C750,Raising Cane's Chicken Fingers,9581 Sawmill Parkway,Powell,OH,43065,US,40.159765269599674,-83.09079952478774,+16143894968,{'url': 'https://locations.raisingcanes.com/oh/powell/9581-sawmill-parkway'}
Raising Cane's,C753,Raising Cane's Chicken Fingers,5132 North High St.,Columbus,OH,43214,US,40.06666552341263,-83.01895741786565,+16143967316,{'url': 'https://locations.raisingcanes.com/oh/columbus/5132-north-high-st.'}
Raising Cane's,C743,Raising Cane's Chicken Fingers,2085 Polaris Parkway,Columbus,OH,43240,US,40.14487546285427,-82.96164995600938,+16148470900,{'url': 'https://locations.raisingcanes.com/oh/columbus/2085-polaris-parkway'}
Raising Cane's,C775,Raising Cane's Chicken Fingers,720 Sunbury Rd,Delaware,OH,43015,US,40.2946052259893,-83.03811917442941,+17402724700,{'url': 'https://locations.raisingcanes.com/oh/delaware/720-sunbury-rd'}
Raising Cane's,C1236,Raising Cane's Chicken Fingers,720 N. Lexington-Springmill Rd.,Ontario,OH,44906,US,40.77187320789931,-82.58994482387021,+14193227493,{'url': 'https://locations.raisingcanes.com/oh/ontario/720-n.-lexington-springmill-rd.'}
Raising Cane's,C765,Raising Cane's Chicken Fingers,5455 Dressler Rd NW,North Canton,OH,44720,US,40.860890302823194,-81.43301373994431,+13304371150,{'url': 'https://locations.raisingcanes.com/oh/north-canton/5455-dressler-rd-nw'}
Raising Cane's,C1092,Raising Cane's Chicken Fingers,2461 W State Street,Alliance,OH,44601,US,40.90267951913905,-81.15271394397153,+13307346719,"{'url': 'https://locations.raisingcanes.com/oh/alliance/2461-w-state-street', 'displayUrl': 'https://locations.raisingcanes.com/oh/alliance/2461-w-state-street', 'preferDisplayUrl': False}"
Raising Cane's,C793,Raising Cane's Chicken Fingers,200 Howe Avenue,Cuyahoga Falls,OH,44221,US,41.118854580995674,-81.4839938337469,+13305104655,{'url': 'https://locations.raisingcanes.com/oh/cuyahoga-falls/200-howe-avenue'}
Raising Cane's,C767,Raising Cane's Chicken Fingers,1801 East Main Street,Kent,OH,44240,US,41.15529647026588,-81.32873488093908,+13309681311,{'url': 'https://locations.raisingcanes.com/oh/kent/1801-east-main-street'}
Raising Cane's,C768,Raising Cane's Chicken Fingers,14356 Pearl Road,Strongsville,OH,44136,US,41.31039235420326,-81.83585173147249,+14407839231,{'url': 'https://locations.raisingcanes.com/oh/strongsville/14356-pearl-road'}
Raising Cane's,C1075,Raising Cane's Chicken Fingers,1870 Tiffin Ave,Findlay,OH,45840,US,41.0532044,-83.61265089999999,+14193247424,{'url': 'https://locations.raisingcanes.com/oh/findlay/1870-tiffin-ave'}
Raising Cane's,C933,Raising Cane's Chicken Fingers,189 Millers Run Road,South Fayette,PA,15017,US,40.356837215404234,-80.12103518956509,+16105535581,{'url': 'https://locations.raisingcanes.com/pa/south-fayette/189-millers-run-road'}
Raising Cane's,C953,Raising Cane's Chicken Fingers,9550 OH-14,Streetsboro,OH,44241,US,41.24554081598321,-81.35653756258297,+13305316723,{'url': 'https://locations.raisingcanes.com/oh/streetsboro/9550-oh-14'}
Raising Cane's,C780,Raising Cane's Chicken Fingers,18120 Bagley Road,Middleburg Heights,OH,44130,US,41.37245128222659,-81.82767534374094,+12162790359,{'url': 'https://locations.raisingcanes.com/oh/middleburg-heights/18120-bagley-road'}
Raising Cane's,C785,Raising Cane's Chicken Fingers,597 E Aurora Rd,Macedonia,OH,44056,US,41.314329971784865,-81.51721521288013,+13305104885,{'url': 'https://locations.raisingcanes.com/oh/macedonia/597-e-aurora-rd'}
Raising Cane's,C1049,Raising Cane's Chicken Fingers,410 Clairton Boulevard,Pleasant Hills,PA,15236,US,40.33573127035799,-79.94813543164031,+14452235004,{'url': 'https://locations.raisingcanes.com/pa/pleasant-hills/410-clairton-boulevard'}
Raising Cane's,C1002,Raising Cane's Chicken Fingers,298 Lincoln Highway,North Versailles,PA,15137,US,40.38489577485793,-79.82541049080736,+12677423676,{'url': 'https://locations.raisingcanes.com/pa/north-versailles/298-lincoln-highway'}
Raising Cane's,C934,Raising Cane's Chicken Fingers,3610 Fifth Avenue,Pittsburgh,PA,15213,US,40.44143809731466,-79.95864920168391,+12677423673,{'url': 'https://locations.raisingcanes.com/pa/pittsburgh/3610-fifth-avenue'}
Raising Cane's,C1173,Raising Cane's Chicken Fingers,1850 Oakland Ave,Indiana,PA,15701,US,40.6127994074878,-79.17596121712432,+17244273929,{'url': 'https://locations.raisingcanes.com/pa/indiana/1850-oakland-ave'}
Raising Cane's,C773,Raising Cane's Chicken Fingers,450 Boardman Poland Rd,Youngstown,OH,44512,US,41.02482396654932,-80.64660983372727,+12342286364,{'url': 'https://locations.raisingcanes.com/oh/youngstown/450-boardman-poland-rd'}
Raising Cane's,C973,Raising Cane's Chicken Fingers,1954 Niles Cortland Rd SE,Warren,OH,44484,US,41.2171381,-80.7404304,+13305316729,{'url': 'https://locations.raisingcanes.com/oh/warren/1954-niles-cortland-rd-se'}
Raising Cane's,C732,Raising Cane's Chicken Fingers,228 East College Avenue,State College,PA,16801,US,40.79581843844326,-77.85939927683559,+18146519095,{'url': 'https://locations.raisingcanes.com/pa/state-college/228-east-college-avenue'}
Raising Cane's,C794,Raising Cane's Chicken Fingers,5880 Mayfield Road,Mayfield Heights,OH,44124,US,41.5195688,-81.4673342,+14406573101,{'url': 'https://locations.raisingcanes.com/oh/mayfield-heights/5880-mayfield-road'}
Raising Cane's,C778,Raising Cane's Chicken Fingers,5180 Tiedeman Rd,Brooklyn,OH,44144,US,41.41966849355163,-81.7589554445894,+12167773717,{'url': 'https://locations.raisingcanes.com/oh/brooklyn/5180-tiedeman-rd'}
Raising Cane's,C1128,Raising Cane's Chicken Fingers,5040 Jonestown Road,Harrisburg,PA,17112,US,40.30857661225368,-76.80454105045875,+17174410301,{'url': 'https://locations.raisingcanes.com/pa/harrisburg/5040-jonestown-road'}
Raising Cane's,C1135,Raising Cane's Chicken Fingers,5051 Som Center Road,Willoughby,OH,44094,US,41.6234845461042,-81.43926453067111,+14403459201,{'url': 'https://locations.raisingcanes.com/oh/willoughby/5051-som-center-road'}
Raising Cane's,C795,Raising Cane's Chicken Fingers,6880 Center Street,Mentor,OH,44060,US,41.6834396432602,-81.3399334006117,+14406573102,{'url': 'https://locations.raisingcanes.com/oh/mentor/6880-center-street'}
Raising Cane's,C774,Raising Cane's Chicken Fingers,14115 Detroit Ave,Lakewood,OH,44107,US,41.48530584159568,-81.79102515153791,+12168676606,{'url': 'https://locations.raisingcanes.com/oh/lakewood/14115-detroit-ave'}
Raising Cane's,C779,Raising Cane's Chicken Fingers,25821 Brookpark Rd,North Olmsted,OH,44070,US,41.41844852888822,-81.91048494764296,+14404548754,{'url': 'https://locations.raisingcanes.com/oh/north-olmsted/25821-brookpark-rd'}
Raising Cane's,C771,Raising Cane's Chicken Fingers,21330 Center Ridge,Rocky River,OH,44116,US,41.460929949664525,-81.8565740435686,+14402360271,{'url': 'https://locations.raisingcanes.com/oh/rocky-river/21330-center-ridge'}
Raising Cane's,C1017,Raising Cane's Chicken Fingers,6240 Hamilton Boulevard,Allentown,PA,18106,US,40.55594800000001,-75.5781329,+12677423686,"{'url': 'https://locations.raisingcanes.com/pa/allentown/6240-hamilton-boulevard', 'displayUrl': 'https://locations.raisingcanes.com/pa/allentown/6240-hamilton-boulevard'}"
Raising Cane's,C1031,Raising Cane's Chicken Fingers,860 Bethlehem Pike,North Wales,PA,19454,US,40.23710370449442,-75.24214510796928,+12677423694,{'url': 'https://locations.raisingcanes.com/pa/north-wales/860-bethlehem-pike'}
Raising Cane's,C952,Raising Cane's Chicken Fingers,2632 W Moreland Rd,Willow Grove,PA,19090,US,40.144075,-75.122379,+12677423684,{'url': 'https://locations.raisingcanes.com/pa/willow-grove/2632-w-moreland-rd'}
Raising Cane's,C706,Raising Cane's Chicken Fingers,640 Commerce Boulevard,Fairless Hills,PA,19030,US,40.18712948496226,-74.86727949264241,+12678923331,{'url': 'https://locations.raisingcanes.com/pa/fairless-hills/640-commerce-boulevard'}
Raising Cane's,C980,Raising Cane's Chicken Fingers,1523 Kings Highway,Brooklyn,NY,11223,US,40.6092085,-73.9575394,+17187499071,{'url': 'https://locations.raisingcanes.com/ny/brooklyn/1523-kings-highway'}
Raising Cane's,C981,Raising Cane's Chicken Fingers,447 Fulton St,Brooklyn,NY,11201,US,40.69157189450252,-73.98710301031764,+17187499075,{'url': 'https://locations.raisingcanes.com/ny/brooklyn/447-fulton-st'}
Raising Cane's,C879,Raising Cane's Chicken Fingers,20 Astor Place,New York,NY,10003,US,40.7297965,-73.9919987,+12126599981,{'url': 'https://locations.raisingcanes.com/ny/new-york/20-astor-place'}
Raising Cane's,C987,Raising Cane's Chicken Fingers,1 Penn Plaza,New York,NY,10119,US,40.75118255639891,-73.9921275067459,+19294583704,"{'url': 'https://locations.raisingcanes.com/ny/new-york/1-penn-plaza', 'displayUrl': 'https://locations.raisingcanes.com/ny/new-york/1-penn-plaza', 'preferDisplayUrl': False}"
Raising Cane's,C888,Raising Cane's Chicken Fingers,1501 Broadway,New York,NY,10036,US,40.7573616,-73.9862806,+19177804035,{'url': 'https://locations.raisingcanes.com/ny/new-york/1501-broadway'}
Raising Cane's,C998,Raising Cane's Chicken Fingers,15929 Jamaica Avenue,Jamaica,NY,11432,US,40.70388686845459,-73.79942949868588,+13476073837,{'url': 'https://locations.raisingcanes.com/ny/jamaica/15929-jamaica-avenue'}
Raising Cane's,C1202,Raising Cane's Chicken Fingers,2850 Broadway,New York,NY,10025,US,40.8044801,-73.9661805,+12123899970,{'url': 'https://locations.raisingcanes.com/ny/new-york/2850-broadway'}
Raising Cane's,C983,Raising Cane's Chicken Fingers,124 West 125th Street,New York,NY,10027,US,40.8079450180085,-73.94693140208422,+19177804039,{'url': 'https://locations.raisingcanes.com/ny/new-york/124-west-125th-street'}
Raising Cane's,C999,Raising Cane's Chicken Fingers,39-20 Main Street,Flushing,NY,11354,US,40.759659257824474,-73.83046261450806,+17187499975,"{'url': 'https://locations.raisingcanes.com/ny/flushing/39-20-main-street', 'displayUrl': 'https://locations.raisingcanes.com/ny/flushing/39-20-main-street', 'preferDisplayUrl': False}"
Raising Cane's,C1081,Raising Cane's Chicken Fingers,1298 Silas Deane HWY,Wethersfield,CT,06109,US,41.685624784618696,-72.65416373183952,+18602632988,{'url': 'https://locations.raisingcanes.com/ct/wethersfield/1298-silas-deane-hwy'}
Raising Cane's,C935,Raising Cane's Chicken Fingers,546 Bushy Hill Road,Simsbury,CT,06070,US,41.81695843692554,-72.86579209359068,+18602632970,"{'url': 'https://locations.raisingcanes.com/ct/simsbury/546-bushy-hill-road', 'preferDisplayUrl': False}"
Raising Cane's,C1041,Raising Cane's Chicken Fingers,336 Bald Hill Road,Warwick,RI,02886,US,41.72794083092937,-71.4797116588955,+14012289487,{'url': 'https://locations.raisingcanes.com/ri/warwick/336-bald-hill-road'}
Raising Cane's,C1133,Raising Cane's Chicken Fingers,323 William S Canning Blvd,Fall River,MA,02721,US,41.6732425,-71.16194,+17742966400,{'url': 'https://locations.raisingcanes.com/ma/fall-river/323-william-s-canning-blvd'}
Raising Cane's,C884,Raising Cane's Chicken Fingers,1386 Atwood Ave,Johnston,RI,02919,US,41.81537589712858,-71.49668016441683,+14012289484,{'url': 'https://locations.raisingcanes.com/ri/johnston/1386-atwood-ave'}
Raising Cane's,C887,Raising Cane's Chicken Fingers,175 Highland Avenue,Seekonk,MA,02771,US,41.80000939524377,-71.3357509889178,+17743667052,{'url': 'https://locations.raisingcanes.com/ma/seekonk/175-highland-avenue'}
Raising Cane's,C938,Raising Cane's Chicken Fingers,110 Elm Street,Enfield,CT,06082,US,41.9980335,-72.5811653,+18602632965,{'url': 'https://locations.raisingcanes.com/ct/enfield/110-elm-street'}
Raising Cane's,C992,Raising Cane's Chicken Fingers,253 Cochituate Road,Framingham,MA,01701,US,42.301708,-71.40382199999999,+17743667063,{'url': 'https://locations.raisingcanes.com/ma/framingham/253-cochituate-road'}
Raising Cane's,C622,Raising Cane's Chicken Fingers,141 Boston Post Road West,Marlborough,MA,01752,US,42.33982719762854,-71.58786012873972,+19788482157,{'url': 'https://locations.raisingcanes.com/ma/marlborough/141-boston-post-road-west'}
Raising Cane's,C726,Raising Cane's Chicken Fingers,949 Commonwealth Ave,Boston,MA,02215,US,42.35186929382458,-71.11873281459992,+16176033996,{'url': 'https://locations.raisingcanes.com/ma/boston/949-commonwealth-ave'}
Raising Cane's,C676,Raising Cane's Chicken Fingers,755 Boylston Street,Boston,MA,02116,US,42.349274851457125,-71.08106338056747,+16176033988,{'url': 'https://locations.raisingcanes.com/ma/boston/755-boylston-street'}
Raising Cane's,C1070,Raising Cane's Chicken Fingers,101 Arch Street,Boston,MA,02110,US,42.35496829513519,-71.05956635777501,+16179424816,"{'url': 'https://locations.raisingcanes.com/ma/boston/101-arch-street', 'displayUrl': 'https://locations.raisingcanes.com/ma/boston/101-arch-street', 'preferDisplayUrl': False}"
Raising Cane's,C940,Raising Cane's Chicken Fingers,519 Riverside Avenue,Medford,MA,02155,US,42.40939986661209,-71.08497200933152,+17813099452,"{'url': 'https://locations.raisingcanes.com/ma/medford/519-riverside-avenue', 'displayUrl': 'https://locations.raisingcanes.com/ma/medford/519-riverside-avenue'}"
Raising Cane's,C979,Raising Cane's Chicken Fingers,799 Broadway,Saugus,MA,01906,US,42.47596043314466,-71.0241238052716,+17813074179,{'url': 'https://locations.raisingcanes.com/ma/saugus/799-broadway'}
Raising Cane's,C673,Raising Cane's Chicken Fingers,18477 Kenrick Avenue,Lakeville,MN,55044,US,44.681967,-93.2916247,+19523244863,{'url': 'https://locations.raisingcanes.com/mn/lakeville/18477-kenrick-avenue'}
Raising Cane's,C680,Raising Cane's Chicken Fingers,1501 County Road 42 W,Burnsville,MN,55306,US,44.745820547596885,-93.29951646956238,+19523244864,{'url': 'https://locations.raisingcanes.com/mn/burnsville/1501-county-road-42-w'}
Raising Cane's,C144,Raising Cane's Chicken Fingers,7501 150th Street West,Apple Valley,MN,55124,US,44.73238848827862,-93.21871554921356,+19524328700,{'url': 'https://locations.raisingcanes.com/mn/apple-valley/7501-150th-street-west'}
Raising Cane's,C391,Raising Cane's Chicken Fingers,1525 Central Parkway,Eagan,MN,55121,US,44.83408964200959,-93.17394583387868,+16514546573,{'url': 'https://locations.raisingcanes.com/mn/eagan/1525-central-parkway'}
Raising Cane's,C1148,Raising Cane's Chicken Fingers,3740 WI-16,La Crosse,WI,54601,US,43.868707566467926,-91.19788556671415,+16083024986,{'url': 'https://locations.raisingcanes.com/wi/la-crosse/3740-wi-16'}
Raising Cane's,C601,Raising Cane's Chicken Fingers,579 State Street,Madison,WI,53703,US,43.0747492,-89.395242,+16082855765,{'url': 'https://locations.raisingcanes.com/wi/madison/579-state-street'}
Raising Cane's,C1122,Raising Cane's Chicken Fingers,3030 Milton Ave,Janesville,WI,53545,US,42.71910951182356,-88.99628967681339,+14149449224,{'url': 'https://locations.raisingcanes.com/wi/janesville/3030-milton-ave'}
Raising Cane's,C1127,Raising Cane's Chicken Fingers,3631 Gateway Drive,Eau Claire,WI,54701,US,44.7788439,-91.431024,+14149449215,{'url': 'https://locations.raisingcanes.com/wi/eau-claire/3631-gateway-drive'}
Raising Cane's,C919,Raising Cane's Chicken Fingers,1701 S. Randall Rd,Algonquin,IL,60102,US,42.15014693775349,-88.33509624162747,+18472219179,{'url': 'https://locations.raisingcanes.com/il/algonquin/1701-s.-randall-rd'}
Raising Cane's,C268,Raising Cane's Chicken Fingers,1715 S. Robert Street,West St. Paul,MN,55118,US,44.8943852835416,-93.08121384257875,+13203459082,{'url': 'https://locations.raisingcanes.com/mn/west-st.-paul/1715-s.-robert-street'}
Raising Cane's,C496,Raising Cane's Chicken Fingers,5417 Northwest Highway,Crystal Lake,IL,60014,US,42.22572751034813,-88.30305673758934,+18153569264,{'url': 'https://locations.raisingcanes.com/il/crystal-lake/5417-northwest-highway'}
Raising Cane's,C368,Raising Cane's Chicken Fingers,730 Commons Drive,Woodbury,MN,55125,US,44.938397061246775,-92.93297146376594,+16517319298,{'url': 'https://locations.raisingcanes.com/mn/woodbury/730-commons-drive'}
Raising Cane's,C693,Raising Cane's Chicken Fingers,3000 Snelling Avenue,Minneapolis,MN,55406,US,44.948139227624836,-93.23639724196705,+16127225651,{'url': 'https://locations.raisingcanes.com/mn/minneapolis/3000-snelling-avenue'}
Raising Cane's,C1237,Raising Cane's Chicken Fingers,825 Washington Ave SE,Minneapolis,MN,55414,US,44.97384367485035,-93.22599018404406,+16123783243,{'url': 'https://locations.raisingcanes.com/mn/minneapolis/825-washington-ave-se'}
Raising Cane's,C1238,Raising Cane's Chicken Fingers,302 15th Ave SE,Minneapolis,MN,55414,US,44.97905149160217,-93.23468596919248,+16123314279,{'url': 'https://locations.raisingcanes.com/mn/minneapolis/302-15th-ave-se'}
Raising Cane's,C605,Raising Cane's Chicken Fingers,3065 White Bear Avenue,Maplewood,MN,55109,US,45.033654394152165,-93.01823327693734,+16122176576,{'url': 'https://locations.raisingcanes.com/mn/maplewood/3065-white-bear-avenue'}
Raising Cane's,C565,Raising Cane's Chicken Fingers,2420 Fairview Avenue North,Roseville,MN,55113,US,45.013297255659865,-93.1765318045991,+16122176595,{'url': 'https://locations.raisingcanes.com/mn/roseville/2420-fairview-avenue-north'}
Raising Cane's,C178,Raising Cane's Chicken Fingers,3780 Lexington Ave. N.,Shoreview,MN,55126,US,45.05592682166436,-93.14662509042915,+16514849733,{'url': 'https://locations.raisingcanes.com/mn/shoreview/3780-lexington-ave.-n.'}
Raising Cane's,C289,Raising Cane's Chicken Fingers,1205 East Higgins Road,Schaumburg,IL,60173,US,42.038987904580765,-88.04951073189449,+18472402078,{'url': 'https://locations.raisingcanes.com/il/schaumburg/1205-east-higgins-road'}
Raising Cane's,C837,Raising Cane's Chicken Fingers,1420 Golf Road,Rolling Meadows,IL,60008,US,42.05182727026161,-87.99710467848823,+18472270170,{'url': 'https://locations.raisingcanes.com/il/rolling-meadows/1420-golf-road'}
Raising Cane's,C484,Raising Cane's Chicken Fingers,225 E Palatine Road,Arlington Heights,IL,60004,US,42.109352255217566,-87.97899456247512,+18472535830,{'url': 'https://locations.raisingcanes.com/il/arlington-heights/225-e-palatine-road'}
Raising Cane's,C968,Raising Cane's Chicken Fingers,915 East Rand Road,Mount Prospect,IL,60056,US,42.06666173661057,-87.92280832443832,+18472219181,"{'url': 'https://locations.raisingcanes.com/il/mount-prospect/915-east-rand-road', 'displayUrl': 'https://locations.raisingcanes.com/il/mount-prospect/915-east-rand-road'}"
Raising Cane's,C566,Raising Cane's Chicken Fingers,6415 Grand Avenue,Gurnee,IL,60031,US,42.384426146236976,-87.96121373450772,+18478556039,{'url': 'https://locations.raisingcanes.com/il/gurnee/6415-grand-avenue'}
Raising Cane's,C1009,Raising Cane's Chicken Fingers,2781 Mannheim Road,Des Plaines,IL,60018,US,42.002787483428776,-87.88385890567166,+18472732414,{'url': 'https://locations.raisingcanes.com/il/des-plaines/2781-mannheim-road'}
Raising Cane's,C729,Raising Cane's Chicken Fingers,800 S Waukegan Rd,Waukegan,IL,60085,US,42.34470162702784,-87.89563486275529,+12243994536,{'url': 'https://locations.raisingcanes.com/il/waukegan/800-s-waukegan-rd'}
Raising Cane's,C290,Raising Cane's Chicken Fingers,7306 West Lawrence Avenue,Harwood Heights,IL,60706,US,41.96769299044872,-87.80935046030852,+17088677172,{'url': 'https://locations.raisingcanes.com/il/harwood-heights/7306-west-lawrence-avenue'}
Raising Cane's,C508,Raising Cane's Chicken Fingers,6881 Dempster Street,Morton Grove,IL,60053,US,42.0404216078489,-87.79725246338431,+18479658121,{'url': 'https://locations.raisingcanes.com/il/morton-grove/6881-dempster-street'}
Raising Cane's,C949,Raising Cane's Chicken Fingers,6303 75th St,Kenosha,WI,53142,US,42.56609492632103,-87.8846188104334,+12624179646,{'url': 'https://locations.raisingcanes.com/wi/kenosha/6303-75th-st'}
Raising Cane's,C352,Raising Cane's Chicken Fingers,6568 N. Sheridan Rd.,Chicago,IL,60626,US,42.002069971153944,-87.6610921155339,+17733819480,{'url': 'https://locations.raisingcanes.com/il/chicago/6568-n.-sheridan-rd.'}
Raising Cane's,C555,Raising Cane's Chicken Fingers,3700 North Clark Street,Chicago,IL,60613,US,41.949162530785166,-87.65833083944176,+17738688272,{'url': 'https://locations.raisingcanes.com/il/chicago/3700-north-clark-street'}
Raising Cane's,C1114,Raising Cane's Chicken Fingers,2376 North Lincoln Avenue,Chicago,IL,60614,US,41.924912,-87.648514,+17732895994,{'url': 'https://locations.raisingcanes.com/il/chicago/2376-north-lincoln-avenue'}
Raising Cane's,C861,Raising Cane's Chicken Fingers,564 W Taylor Street,Chicago,IL,60607,US,41.87005800000001,-87.6415488,+13122601790,{'url': 'https://locations.raisingcanes.com/il/chicago/564-w-taylor-street'}
Raising Cane's,C892,Raising Cane's Chicken Fingers,2 N Michigan Ave,Chicago,IL,60602,US,41.882228,-87.6247027,+13122601748,{'url': 'https://locations.raisingcanes.com/il/chicago/2-n-michigan-ave'}
Raising Cane's,C996,Raising Cane's Chicken Fingers,5250 South 76th Street,Greendale,WI,53129,US,42.94876227460415,-88.00787593594191,+14149449236,"{'url': 'https://locations.raisingcanes.com/wi/greendale/5250-south-76th-street', 'displayUrl': 'https://locations.raisingcanes.com/wi/greendale/5250-south-76th-street'}"
Raising Cane's,C948,Raising Cane's Chicken Fingers,12660 West Capitol Drive,Brookfield,WI,53005,US,43.089491205410944,-88.06961408651293,+14149449238,"{'url': 'https://locations.raisingcanes.com/wi/brookfield/12660-west-capitol-drive', 'displayUrl': 'https://locations.raisingcanes.com/wi/brookfield/12660-west-capitol-drive'}"
Raising Cane's,C859,Raising Cane's Chicken Fingers,301 E Grand River Ave,East Lansing,MI,48823,US,42.73475811882185,-84.48128265809031,+15173181420,{'url': 'https://locations.raisingcanes.com/mi/east-lansing/301-e-grand-river-ave'}
Raising Cane's,C1126,Raising Cane's Chicken Fingers,1116 S University Avenue,Ann Arbor,MI,48104,US,42.27484430305087,-83.73556686785678,+17344520934,{'url': 'https://locations.raisingcanes.com/mi/ann-arbor/1116-s-university-avenue'}
Raising Cane's,C1125,Raising Cane's Chicken Fingers,6550 Airport Highway,Holland,OH,43528,US,41.61285182002662,-83.69839867055225,+14193247436,{'url': 'https://locations.raisingcanes.com/oh/holland/6550-airport-highway'}
Raising Cane's,C1168,Raising Cane's Chicken Fingers,5150 Monroe Street,Toledo,OH,43623,US,41.70028662118812,-83.64726331740027,+14406573096,{'url': 'https://locations.raisingcanes.com/oh/toledo/5150-monroe-street'}
Raising Cane's,C904,Raising Cane's Chicken Fingers,10576 Fremont Pike,Perrysburg,OH,43551,US,41.548295762472804,-83.59712048073378,+14193247401,{'url': 'https://locations.raisingcanes.com/oh/perrysburg/10576-fremont-pike'}
Raising Cane's,C1059,Raising Cane's Chicken Fingers,44218 Ford Road,Canton,MI,48187,US,42.32280357606296,-83.47671348889995,+17343298191,{'url': 'https://locations.raisingcanes.com/mi/canton/44218-ford-road'}
Raising Cane's,C791,Raising Cane's Chicken Fingers,5306 Milan Rd,Sandusky,OH,44870,US,41.405262004856745,-82.66020435845613,+14195041020,{'url': 'https://locations.raisingcanes.com/oh/sandusky/5306-milan-rd'}
Raising Cane's,C1025,Raising Cane's Chicken Fingers,938 North Leavitt Road,Amherst,OH,44001,US,41.417284,-82.209804,+14403459196,{'url': 'https://locations.raisingcanes.com/oh/amherst/938-north-leavitt-road'}
Raising Cane's,C877,Raising Cane's Chicken Fingers,35545 Chester Road,Avon,OH,44011,US,41.467397900906676,-82.0091726782585,+14403459200,{'url': 'https://locations.raisingcanes.com/oh/avon/35545-chester-road'}
Raising Cane's,C1124,Raising Cane's Chicken Fingers,782 South Willow Street,Manchester,NH,03103,US,42.964527421146954,-71.44506274675393,+16032633787,{'url': 'https://locations.raisingcanes.com/nh/manchester/782-south-willow-street'}
Raising Cane's,C907,Raising Cane's Chicken Fingers,90 Pleasant Valley Street,Methuen,MA,01844,US,42.74256222040154,-71.15811200556539,+19788482162,{'url': 'https://locations.raisingcanes.com/ma/methuen/90-pleasant-valley-street'}
Raising Cane's,C714,Raising Cane's Chicken Fingers,"700 SW 5th St, #1109",Portland,OR,97204,US,45.5183931422826,-122.67727928108489,+15032273474,{'url': 'https://locations.raisingcanes.com/or/portland/700-sw-5th-st-1109'}
Raising Cane's,C964,Raising Cane's Chicken Fingers,12601 Southeast 2nd Circle,Vancouver,WA,98684,US,45.62020878575015,-122.54193182737681,+12532566989,"{'url': 'https://locations.raisingcanes.com/wa/vancouver/12601-southeast-2nd-circle', 'displayUrl': 'https://locations.raisingcanes.com/wa/vancouver/12601-southeast-2nd-circle', 'preferDisplayUrl': False}"
Raising Cane's,C553,Raising Cane's Chicken Fingers,2635 Division Street,Saint Cloud,MN,56301,US,45.553609303556854,-94.190106754786,+13202535600,{'url': 'https://locations.raisingcanes.com/mn/saint-cloud/2635-division-street'}
Raising Cane's,C342,Raising Cane's Chicken Fingers,9875 Maple Grove Pkwy,Maple Grove,MN,55369,US,45.13344084886305,-93.47615141368149,+17634940105,{'url': 'https://locations.raisingcanes.com/mn/maple-grove/9875-maple-grove-pkwy'}
Raising Cane's,C606,Raising Cane's Chicken Fingers,5625 96th Avenue North,Brooklyn Park,MN,55443,US,45.129722741423336,-93.35541459159136,+17633324174,{'url': 'https://locations.raisingcanes.com/mn/brooklyn-park/5625-96th-avenue-north'}
Raising Cane's,C351,Raising Cane's Chicken Fingers,13001 Round Lake Blvd NW,Coon Rapids,MN,55448,US,45.20693303555087,-93.35699980141305,+17633232088,{'url': 'https://locations.raisingcanes.com/mn/coon-rapids/13001-round-lake-blvd-nw'}
Raising Cane's,C251,Raising Cane's Chicken Fingers,1560 109th Avenue NE,Blaine,MN,55449,US,45.16757679202814,-93.23048297932291,+17637800959,{'url': 'https://locations.raisingcanes.com/mn/blaine/1560-109th-avenue-ne'}
Raising Cane's,C1192,Raising Cane's Chicken Fingers,9252 N. Newport Hwy,Spokane,WA,99218,US,47.7420181,-117.4085555,+15099003522,{'url': 'https://locations.raisingcanes.com/wa/spokane/9252-n.-newport-hwy'}
